LocationTitle,AddressStreetInfo,City,State,Zipcode,Latitude,Longitude,GroupTitle,Day,Start,End,MeetingType
Harlem Children's Zone Admin. Offices,35 East 125 Street,New York,NY,10035,"40.805958,-73.940763,09,"125",Saturdays,4:15 PM,5:30 PM,B
Peter Jay Sharpe Building,223 East 117th Street,New York,NY,10035,"40.7982106,-73.9382769,09,"east harlem",Tuesdays,6:30 PM,7:30 PM,B
2126 2nd Avenue,2126 2nd Avenue,New York,NY,10029,"40.7927121,-73.94069,09,"grupo nueva vida",Sundays,5:00 PM,6:00 PM,OD
2126 2nd Avenue,2126 2nd Avenue,New York,NY,10029,"40.7927121,-73.94069,09,"grupo nueva vida",Mondays,8:00 PM,9:00 PM,B
2126 2nd Avenue,2126 2nd Avenue,New York,NY,10029,"40.7927121,-73.94069,09,"grupo nueva vida",Tuesdays,8:00 PM,9:00 PM,OD
2126 2nd Avenue,2126 2nd Avenue,New York,NY,10029,"40.7927121,-73.94069,09,"grupo nueva vida",Wednesdays,8:00 PM,9:00 PM,C
2126 2nd Avenue,2126 2nd Avenue,New York,NY,10029,"40.7927121,-73.94069,09,"grupo nueva vida",Thursdays,8:00 PM,9:00 PM,OD
2126 2nd Avenue,2126 2nd Avenue,New York,NY,10029,"40.7927121,-73.94069,09,"grupo nueva vida",Fridays,8:00 PM,9:00 PM,OD
2126 2nd Avenue,2126 2nd Avenue,New York,NY,10029,"40.7927121,-73.94069,09,"grupo nueva vida",Saturdays,8:00 PM,9:00 PM,OD
Veterans Residence,22 East 119th Street,New York,NY,10035,"40.8021458,-73.9442327,09,"harlem 1 pm recovery",Sundays,1:00 PM,2:00 PM,T
Veterans Residence,22 East 119th Street,New York,NY,10035,"40.8021458,-73.9442327,09,"harlem 1 pm recovery",Mondays,1:00 PM,2:00 PM,B
St Andrews Church,20 Cardinal Hayes Place,New York,NY,10007,"40.7132514,-74.002398,01,"a design for living",Thursdays,7:00 AM,8:00 AM,OD
St Andrews Church,20 Cardinal Hayes Place,New York,NY,10007,"40.7132514,-74.002398,01,"a design for living",Tuesdays,7:00 AM,8:00 AM,B
St. Andrew's Church,20 Cardinal Hayes Place,New York,NY,10007,"40.7132514,-74.002398,01,"chambers street",Mondays,12:15 PM,1:15 PM,OD
St. Andrew's Church,20 Cardinal Hayes Place,New York,NY,10007,"40.7132514,-74.002398,01,"chambers street",Wednesdays,12:15 PM,1:15 PM,S
St. Andrew's Church,20 Cardinal Hayes Place,New York,NY,10007,"40.7132514,-74.002398,01,"chambers street",Thursdays,12:15 PM,1:15 PM,B
St. Andrew's Church,20 Cardinal Hayes Place,New York,NY,10007,"40.7132514,-74.002398,01,"chambers street",Fridays,12:15 PM,1:15 PM,BB
St. Andrew's Church,20 Cardinal Hayes Place,New York,NY,10007,"40.7132514,-74.002398,01,"friday downtown",Fridays,6:00 PM,7:00 PM,OD
St. Andrew's Church,20 Cardinal Hayes Place,New York,NY,10007,"40.7132514,-74.002398,01,"passing the bar",Mondays,1:15 PM,2:15 PM,B
St. Andrew's Church,20 Cardinal Hayes Place,New York,NY,10007,"40.7132514,-74.002398,01,"passing the bar",Tuesdays,1:15 PM,2:15 PM,C
St. Andrew's Church,20 Cardinal Hayes Place,New York,NY,10007,"40.7132514,-74.002398,01,"passing the bar",Wednesdays,1:15 PM,2:15 PM,C
St. Andrew's Church,20 Cardinal Hayes Place,New York,NY,10007,"40.7132514,-74.002398,01,"passing the bar",Thursdays,1:15 PM,2:15 PM,S
St. Andrew's Church,20 Cardinal Hayes Place,New York,NY,10007,"40.7132514,-74.002398,01,"passing the bar",Fridays,1:15 PM,2:15 PM,BB
St. Andrew's Church,20 Cardinal Hayes Place,New York,NY,10007,"40.7132514,-74.002398,01,"women's downtown aa step meeting",Wednesdays,1:15 PM,2:15 PM,S
Church of the Transfiguration,29 Mott Street,New York,NY,10013,"40.7147965,-73.9990363,01,"chinatown",Tuesdays,6:30 PM,7:30 PM,C
St. Margaret's Residence,49 Fulton Street,New York,NY,10038,"40.7080393,-74.0042361,01,"downtown",Mondays,7:00 PM,8:00 PM,OD
44 John Street,44 John Street,New York,NY,10038,"40.7091732,-74.0080677,01,"exchange views @ john street church",Mondays,12:15 PM,1:15 PM,OD
44 John Street,44 John Street,New York,NY,10038,"40.7091732,-74.0080677,01,"exchange views @ john street church",Tuesdays,12:15 PM,1:15 PM,S
44 John Street,44 John Street,New York,NY,10038,"40.7091732,-74.0080677,01,"exchange views @ john street church",Thursdays,12:15 PM,1:15 PM,OD
44 John Street,44 John Street,New York,NY,10038,"40.7091732,-74.0080677,01,"exchange views @ john street church",Mondays,1:30 PM,2:30 PM,B
44 John Street,44 John Street,New York,NY,10038,"40.7091732,-74.0080677,01,"exchange views @ john street church",Thursdays,1:30 PM,2:30 PM,S
49 Fulton Street,49 Fulton Street,New York,NY,10038,"40.7080393,-74.0042361,01,"exchange views @ st. margaret's house",Mondays,6:30 AM,7:30 AM,C
49 Fulton Street,49 Fulton Street,New York,NY,10038,"40.7080393,-74.0042361,01,"exchange views @ st. margaret's house",Tuesdays,6:30 AM,7:30 AM,C
49 Fulton Street,49 Fulton Street,New York,NY,10038,"40.7080393,-74.0042361,01,"exchange views @ st. margaret's house",Wednesdays,6:30 AM,7:30 AM,C
49 Fulton Street,49 Fulton Street,New York,NY,10038,"40.7080393,-74.0042361,01,"exchange views @ st. margaret's house",Thursdays,6:30 AM,7:30 AM,S
49 Fulton Street,49 Fulton Street,New York,NY,10038,"40.7080393,-74.0042361,01,"exchange views @ st. margaret's house",Fridays,6:30 AM,7:30 AM,BB
49 Fulton Street,49 Fulton Street,New York,NY,10038,"40.7080393,-74.0042361,01,"exchange views @ st. margaret's house",Mondays,7:30 AM,8:30 AM,S
49 Fulton Street,49 Fulton Street,New York,NY,10038,"40.7080393,-74.0042361,01,"exchange views @ st. margaret's house",Tuesdays,7:30 AM,8:30 AM,OD
49 Fulton Street,49 Fulton Street,New York,NY,10038,"40.7080393,-74.0042361,01,"exchange views @ st. margaret's house",Wednesdays,7:30 AM,8:30 AM,OD
49 Fulton Street,49 Fulton Street,New York,NY,10038,"40.7080393,-74.0042361,01,"exchange views @ st. margaret's house",Thursdays,7:30 AM,8:30 AM,OD
49 Fulton Street,49 Fulton Street,New York,NY,10038,"40.7080393,-74.0042361,01,"exchange views @ st. margaret's house",Fridays,7:30 AM,8:30 AM,B
49 Fulton Street,49 Fulton Street,New York,NY,10038,"40.7080393,-74.0042361,01,"exchange views @ st. margaret's house",Sundays,7:45 AM,8:45 AM,OD
49 Fulton Street,49 Fulton Street,New York,NY,10038,"40.7080393,-74.0042361,01,"exchange views @ st. margaret's house",Saturdays,7:45 AM,8:45 AM,OD
49 Fulton Street,49 Fulton Street,New York,NY,10038,"40.7080393,-74.0042361,01,"exchange views @ st. margaret's house",Fridays,5:30 PM,6:30 PM,B
49 Fulton Street,49 Fulton Street,New York,NY,10038,"40.7080393,-74.0042361,01,"tribeca group @ st. margaret's house",Fridays,7:30 PM,8:30 PM,S
49 Fulton Street,49 Fulton Street,New York,NY,10038,"40.7080393,-74.0042361,01,"tribeca group @ st. margaret's house",Saturdays,7:30 PM,8:30 PM,OD
49 Fulton Street,49 Fulton Street,New York,NY,10038,"40.7080393,-74.0042361,01,"tribeca group @ st. margaret's house",Tuesdays,7:30 PM,8:30 PM,BB
49 Fulton Street,49 Fulton Street,New York,NY,10038,"40.7080393,-74.0042361,01,"tribeca group @ st. margaret's house",Thursdays,7:30 PM,8:30 PM,B
St. Peter's Church,22 Barclay Street,New York,NY,,"40.7125016,-74.0094639,01,"gateway",Sundays,6:00 PM,7:00 PM,BB
St. Peter's Church,22 Barclay Street,New York,NY,,"40.7125016,-74.0094639,01,"tribeca group @ st. peter's church",Mondays,7:45 PM,8:45 PM,S
St. Peter's Church,22 Barclay Street,New York,NY,,"40.7125016,-74.0094639,01,"tribeca group @ st. peter's church",Wednesdays,8:00 PM,9:00 PM,OD
Saint Peter's Church,22 Barclay Street,New York,NY,10007,"40.7125016,-74.0094639,01,"s.o.b.e.r.",Thursdays,7:30 PM,8:45 PM,OD
Hazelden Tribeca,283 West Broadway,New York,NY,10013,"40.7144166,-73.9843646,01,"sane and sober",Wednesdays,7:00 PM,8:00 PM,C
Municipal Union Bldg DC 37,125 Barclay Street,New York,NY,10007,"40.7143477,-74.0130151,01,"saturday afternoon discussion",Saturdays,2:00 PM,3:15 PM,OD
St. Margaret's House,49 Fulton Street,New York,NY,10038,"40.7080393,-74.0042361,01,"seamen's group",Tuesdays,6:00 PM,7:00 PM,S
St. Margaret's House,49 Fulton Street,New York,NY,10038,"40.7080393,-74.0042361,01,"seaport",Thursdays,12:15 PM,1:15 PM,C
St. Margaret's House,49 Fulton Street,New York,NY,10038,"40.7080393,-74.0042361,01,"seaport",Fridays,12:15 PM,1:15 PM,S
St. Margaret's House,49 Fulton Street,New York,NY,10038,"40.7080393,-74.0042361,01,"seaport",Mondays,12:15 PM,1:15 PM,S
St. Margaret's House,49 Fulton Street,New York,NY,10038,"40.7080393,-74.0042361,01,"seaport",Wednesdays,12:15 PM,1:15 PM,BB
St. Margaret's House,49 Fulton Street,New York,NY,10038,"40.7080393,-74.0042361,01,"seaport",Tuesdays,12:15 PM,1:15 PM,B
Church of Saint Andrew,20 Cardinal Hayes Place,New York,NY,10007,"40.7132514,-74.002398,01,"tower",Wednesdays,5:30 PM,6:30 PM,OD
Tribeca 12 Building,283 West Broadway,New York,NY,10013,"40.7144166,-73.9843646,01,"triangle group",Sundays,11:00 AM,12:00 PM,C
Tribeca 12 Building,283 West Broadway,New York,NY,10013,"40.7144166,-73.9843646,01,"triangle group",Fridays,12:30 PM,1:30 PM,BB
Tribeca 12 Building,283 West Broadway,New York,NY,10013,"40.7144166,-73.9843646,01,"triangle group",Mondays,6:30 PM,7:30 PM,C
Tribeca 12 Building,283 West Broadway,New York,NY,10013,"40.7144166,-73.9843646,01,"triangle group",Thursdays,6:30 PM,7:30 PM,C
Hazelden Center,283 West Broadway,New York,NY,10013,"40.7144166,-73.9843646,01,"young people's diversity",Wednesdays,8:30 PM,9:30 PM,C
Hazelden Center,283 West Broadway,New York,NY,10013,"40.7144166,-73.9843646,01,"young people's step",Tuesdays,7:45 PM,8:45 PM,C
Hazelden Center,283 West Broadway,New York,NY,10013,"40.7144166,-73.9843646,01,"youth enjoying sobriety (y.e.s.)",Saturdays,7:00 PM,8:15 PM,B
Hazelden Center,283 West Broadway,New York,NY,10013,"40.7144166,-73.9843646,01,"afternoon delight",Saturdays,12:00 PM,1:00 PM,C
SRO Building,109 West 129th Street,New York,NY,10027,"40.8106798,-73.944244,08,"a chance to live again",Wednesdays,6:00 PM,7:00 PM,BB
SRO Building,109 West 129th Street,New York,NY,10027,"40.8106798,-73.944244,08,"a chance to live again",Mondays,7:00 PM,8:00 PM,B
Union Baptist Church,240 West 145th Street,New York,NY,10039,"40.8222189,-73.9408621,08,"aa it works  ii",Wednesdays,10:00 AM,11:00 AM,B
Union Baptist Church,240 West 145th Street,New York,NY,10039,"40.8222189,-73.9408621,08,"aa it works  ii",Thursdays,10:00 AM,11:00 AM,BB
Union Baptist Church,240 West 145th Street,New York,NY,10039,"40.8222189,-73.9408621,08,"aa it works  ii",Fridays,10:00 AM,11:00 AM,S
Union Baptist Church,240 West 145th Street,New York,NY,10039,"40.8222189,-73.9408621,08,"aa it works  ii",Tuesdays,10:00 AM,11:00 AM,OD
Our Lady of Lourdes Church,469 West 142nd Street,New York,NY,10031,"40.8232166,-73.9484769,08,"attitude adjustment",Saturdays,7:30 AM,8:30 AM,OD
Our Lady of Lourdes Church,469 West 142nd Street,New York,NY,10031,"40.8232166,-73.9484769,08,"reality check",Saturdays,5:00 PM,6:00 PM,OD
Our Lady of Lourdes Church,469 West 142nd Street,New York,NY,10031,"40.8232166,-73.9484769,08,"uptown big book workshop",Saturdays,9:30 AM,11:00 AM,BB
St. Phillip Church,204 West 134th Street,New York,NY,10030,"40.8147959,-73.9448542,08,"convent",Saturdays,11:30 AM,1:00 PM,OD
Spiritual Renewal Church,2044 Adam Clayton Powell Blvd.,New York,NY,10027,"40.8072583,-73.9499047,08,"fellowship at noon",Mondays,12:15 PM,1:15 PM,B
Spiritual Renewal Church,2044 Adam Clayton Powell Blvd.,New York,NY,10027,"40.8072583,-73.9499047,08,"fellowship at noon",Wednesdays,12:15 PM,1:15 PM,S
Spiritual Renewal Church,2044 Adam Clayton Powell Blvd.,New York,NY,10027,"40.8072583,-73.9499047,08,"fellowship at noon",Fridays,12:15 PM,1:15 PM,OD
469 West 142nd Street,469 West 142nd Street,New York,NY,10031,"40.8232166,-73.9484769,08,"grupo trasmitelo",Thursdays,8:00 PM,9:00 PM,B
St. Mary's Episcopal,521 West 126th St,New York,NY,10027,"40.8148408,-73.9561515,08,"harlem humanists",Mondays,12:00 PM,1:00 PM,O
SRO Building Community Room,109 West 129th Street,New York,NY,10027,"40.8106798,-73.944244,08,"k.i.s.s.",Sundays,5:30 PM,6:30 PM,S
SRO Building Community Room,109 West 129th Street,New York,NY,10027,"40.8106798,-73.944244,08,"k.i.s.s.",Sundays,7:00 PM,8:00 PM,B
Our Lady of Lourdes,469 West 142nd Street,New York,NY,10031,"40.8232166,-73.9484769,08,"learning to live sober",Thursdays,6:00 PM,7:00 PM,BB
2044 Seventh Avenue,2044 Seventh Avenue,New York,NY,10027,"40.8071759186691,-73.9497519327616,08,"living clean and sober on 121st street",Sundays,6:00 PM,7:30 PM,B
S.A.G.E.,127 West 127th Street,New York,NY,10027,"40.7467107,-73.9935208,08,"meditation comes to harlem",Mondays,4:30 PM,5:30 PM,C
S.A.G.E.,127 West 127th Street,New York,NY,10027,"40.7467107,-73.9935208,08,"abingdon square in chelsea",Wednesdays,8:00 PM,9:00 PM,OD
Grace Congregational Baptist Church,310 West 139th Street,New York,NY,10037,"40.8192096,-73.9453784,08,"mid-harlem",Mondays,7:00 PM,8:00 PM,S
Grace Congregational Baptist Church,310 West 139th Street,New York,NY,10037,"40.8192096,-73.9453784,08,"mid-harlem",Fridays,7:00 PM,8:00 PM,B
Grace Congregational Baptist Church,310 West 139th Street,New York,NY,10037,"40.8192096,-73.9453784,08,"mid-harlem",Fridays,8:00 PM,9:00 PM,O
St. James Church,409 West 141st Street,New York,NY,10031,"40.7713251,-73.9655852,08,"monday night challenge",Mondays,7:00 PM,8:00 PM,B
St. James Church,409 West 141st Street,New York,NY,10031,"40.7713251,-73.9655852,08,"park bench   (:ii)",Wednesdays,12:30 PM,1:30 PM,C
St. James Church,409 West 141st Street,New York,NY,10031,"40.7713251,-73.9655852,08,"park bench   (:ii)",Thursdays,12:30 PM,1:30 PM,C
Riverside Church,91 Claremont Avenue,New York,NY,10027,"40.8119559,-73.9625116,08,"primary purpose",Sundays,3:00 PM,4:00 PM,OD
Riverside Church,91 Claremont Avenue,New York,NY,10027,"40.8119559,-73.9625116,08,"riverside",Mondays,7:00 PM,8:00 PM,C
Upper Manhattan Mental Health Center,1727 Amsterdam Avenue,New York,NY,10031,"40.8255289,-73.9471616,08,"promises two for one",Sundays,9:30 AM,10:30 AM,B
Upper Manhattan Mental Health Center,1727 Amsterdam Avenue,New York,NY,10031,"40.8255289,-73.9471616,08,"promises two for one",Sundays,11:00 AM,12:00 PM,C
St. Aloysius School,219 West 132nd Street,New York,NY,10027,"40.8138548,-73.9459315,08,"riverton",Saturdays,3:00 PM,4:00 PM,B
St. Aloysius School,219 West 132nd Street,New York,NY,10027,"40.8138548,-73.9459315,08,"riverton",Saturdays,6:00 PM,7:00 PM,O
St. Aloysius School,219 West 132nd Street,New York,NY,10027,"40.8138548,-73.9459315,08,"riverton",Tuesdays,8:00 PM,9:00 PM,undefined
Salem United Methodist Church Community Center,211 West 129th Street,New York,NY,10027,"40.8119105,-73.9471217,08,"salem",Wednesdays,7:30 PM,8:30 PM,C
Convent Baptist Church Education Building,425 West 144th Street,New York,NY,10031,"40.8238524,-73.9461167,08,"sober adult men",Wednesdays,7:00 PM,8:00 PM,C
St. Phillip's Church,204 West 134th Street,New York,NY,10030,"40.8147959,-73.9448542,08,"st. nicholas",Sundays,4:00 PM,5:00 PM,O
St. Phillip's Church,204 West 134th Street,New York,NY,10030,"40.8147959,-73.9448542,08,"st. nicholas",Thursdays,7:00 PM,8:00 PM,B
Harlem Hospital King Pavilion,506 Lenox Avenue,New York,NY,10037,"40.8143457,-73.9403066,08,"steps 3 and 11",Sundays,2:00 PM,3:00 PM,B
Council Center for Problems of Living,1727 Amsterdam Avenue,New York,NY,10031,"40.8255289,-73.9471616,08,"sugar hill",Fridays,5:30 PM,6:30 PM,B
1854 Amsterdam Avenue,1854 Amsterdam Avenue,New York,NY,10031,"40.8295902,-73.9446541,08,"tuesday big book study",Tuesdays,6:00 PM,7:00 PM,BB
Metropolitan AME Church,58 66 West 135th Street,New York,NY,10037,"40.8136193269582,-73.9399368110258,08,"you may care after",Tuesdays,6:30 PM,7:30 PM,S
Columbia Presbyterian Hospital,701 West 168th Street @ Fort Washington Avenue,New York,NY,10032,"40.8424566,-73.9424508,10,"a new way of living",Thursdays,12:00 PM,1:00 PM,S
Columbia Presbyterian Hospital,701 West 168th Street @ Fort Washington Avenue,New York,NY,10032,"40.8424566,-73.9424508,10,"a new way of living",Fridays,12:00 PM,1:00 PM,C
Columbia Presbyterian Hospital,701 West 168th Street @ Fort Washington Avenue,New York,NY,10032,"40.8424566,-73.9424508,10,"a new way of living",Mondays,12:00 PM,1:00 PM,BB
Columbia Presbyterian Hospital,701 West 168th Street @ Fort Washington Avenue,New York,NY,10032,"40.8424566,-73.9424508,10,"a new way of living",Tuesdays,12:00 PM,1:00 PM,B
Columbia Presbyterian Hospital,701 West 168th Street @ Fort Washington Avenue,New York,NY,10032,"40.8424566,-73.9424508,10,"a new way of living",Wednesdays,12:00 PM,1:00 PM,C
Holy Rood Church,715 West 179th Street,New York,NY,10033,"40.8492702,-73.9382266,10,"bridge to sobriety (:i)",Mondays,10:00 AM,11:00 AM,OD
Holy Rood Church,715 West 179th Street,New York,NY,10033,"40.8492702,-73.9382266,10,"bridge to sobriety (:i)",Tuesdays,10:00 AM,11:00 AM,B
Holy Rood Church,715 West 179th Street,New York,NY,10033,"40.8492702,-73.9382266,10,"bridge to sobriety (:i)",Wednesdays,10:00 AM,11:00 AM,BB
Holy Rood Church,715 West 179th Street,New York,NY,10033,"40.8492702,-73.9382266,10,"bridge to sobriety (:i)",Thursdays,10:00 AM,11:00 AM,S
Holy Rood Church,715 West 179th Street,New York,NY,10033,"40.8492702,-73.9382266,10,"bridge to sobriety (:i)",Fridays,10:00 AM,11:00 AM,OD
Holy Rood Church,715 West 179th Street,New York,NY,10033,"40.8492702,-73.9382266,10,"bridge to sobriety (:ii)",Sundays,10:00 AM,11:00 AM,S
Holy Rood Church,715 West 179th Street,New York,NY,10033,"40.8492702,-73.9382266,10,"washington heights                  (:i)",Tuesdays,7:30 PM,8:30 PM,O
St. Jude's School,431 West 204th Street,New York,NY,10034,"40.8620966104922,-73.9190004613749,10,"dyckman",Sundays,12:00 PM,1:00 PM,O
St. Jude's School,431 West 204th Street,New York,NY,10034,"40.8620966104922,-73.9190004613749,10,"dyckman",Wednesdays,7:00 PM,8:00 PM,S
Church of the Intercession,550 West 155th Street,New York,NY,10032,"40.8321897,-73.945059,10,"found-a-way",Saturdays,12:30 PM,2:00 PM,C
Casita Esperanza,557 West 156th Street,New York,NY,10032,"40.8333254,-73.9446563,10,"grupo despertar",Wednesdays,8:00 PM,10:00 PM,C
Casita Esperanza,557 West 156th Street,New York,NY,10032,"40.8333254,-73.9446563,10,"grupo despertar",Fridays,8:00 PM,10:00 PM,OD
35 Thayer Street,35 Thayer Street,New York,NY,10040,"40.8626147,-73.9263819,10,"grupo la flama panamericana",Sundays,5:00 PM,7:00 PM,O
35 Thayer Street,35 Thayer Street,New York,NY,10040,"40.8626147,-73.9263819,10,"grupo la flama panamericana",Tuesdays,8:00 PM,10:00 PM,O
35 Thayer Street,35 Thayer Street,New York,NY,10040,"40.8626147,-73.9263819,10,"grupo la flama panamericana",Thursdays,8:00 PM,10:00 PM,O
35 Thayer Street,35 Thayer Street,New York,NY,10040,"40.8626147,-73.9263819,10,"grupo la flama panamericana",Saturdays,8:00 PM,10:00 PM,O
Episcopal Holy Rood Church,715 West 179th Street,New York,NY,10033,"40.8492702,-73.9382266,10,"grupo libertad",Tuesdays,7:30 PM,8:30 PM,BB
Episcopal Holy Rood Church,715 West 179th Street,New York,NY,10033,"40.8492702,-73.9382266,10,"grupo libertad",Thursdays,7:30 PM,8:30 PM,BB
Episcopal Holy Rood Church,715 West 179th Street,New York,NY,10033,"40.8492702,-73.9382266,10,"grupo libertad",Thursdays,9:30 PM,10:30 AM,C
Episcopal Holy Rood Church,715 West 179th Street,New York,NY,10033,"40.8492702,-73.9382266,10,"grupo libertad",Tuesdays,9:30 PM,10:30 PM,C
Church Santa Rosa de Lima,502 West165th Street,New York,NY,10032,"40.83668,-73.939944,10,"grupo recuperacion",Sundays,2:30 PM,3:30 PM,O
Church Santa Rosa de Lima,502 West165th Street,New York,NY,10032,"40.83668,-73.939944,10,"grupo recuperacion",Tuesdays,8:00 PM,9:00 PM,C
Church Santa Rosa de Lima,502 West165th Street,New York,NY,10032,"40.83668,-73.939944,10,"grupo recuperacion",Thursdays,8:00 PM,9:00 PM,O
Our Lady Queen of Martyrs,91 Arden Street,New York,NY,10034,"40.8639073,-73.9282532,10,"grupo un nuevo amanecer",Mondays,8:00 PM,9:00 PM,C
Our Lady Queen of Martyrs,91 Arden Street,New York,NY,10034,"40.8639073,-73.9282532,10,"grupo un nuevo amanecer",Fridays,8:00 PM,9:00 PM,OD
Our Lady Queen of Martyrs,91 Arden Street,New York,NY,10034,"40.8639073,-73.9282532,10,"upper manhattan",Thursdays,7:30 PM,8:30 PM,OD
Holy Trinity Episcopal Church,20 Cumming Street,New York,NY,10034,"40.8664723,-73.9264521,10,"happy destiny",Sundays,7:30 PM,8:30 PM,C
Holy Trinity Episcopal Church,20 Cumming Street,New York,NY,10034,"40.8664723,-73.9264521,10,"happy destiny",Wednesdays,7:30 PM,8:30 PM,B
Mount Washington Presbyterian Church,84 Vermilyea Avenue,New York,NY,10034,"40.86596,-73.9231447,10,"inwood fort tryon",Saturdays,11:00 AM,12:00 PM,B
Mount Washington Presbyterian Church,84 Vermilyea Avenue,New York,NY,10034,"40.86596,-73.9231447,10,"inwood fort tryon",Saturdays,11:00 AM,12:00 PM,C
Mount Washington Presbyterian Church,84 Vermilyea Avenue,New York,NY,10034,"40.86596,-73.9231447,10,"inwood fort tryon",Tuesdays,12:30 PM,1:30 PM,C
Church of the Good Shepherd,620 Isham Street,New York,NY,10034,"40.7430963,-73.9780494,10,"isham park",Mondays,8:00 PM,9:00 PM,C
Church of the Good Shepherd,620 Isham Street,New York,NY,10034,"40.7430963,-73.9780494,10,"saturday east",Saturdays,4:00 PM,5:00 PM,C
COATHA Church on the Hill Senior Center,2005 Amsterdam Avenue,New York,NY,10032,"40.8342553,-73.9407968,10,"progress not perfection",Fridays,7:30 PM,8:30 PM,OD
Our Saviour's Atonement Lutheran Church,178 Bennett Avenue,New York,NY,10040,"40.8560069,-73.9342762,10,"the men upstairs",Mondays,8:00 PM,9:00 PM,C
Our Saviour's Atonement Church,178 Bennett Avenue,New York,NY,10040,"40.8560069,-73.9342762,10,"the missing link",Fridays,7:00 PM,8:00 PM,BB
Holy Trinity Church,20 Cummings Street,New York,NY,10034,"40.7760114,-73.9550312,10,"uptown saturday night",Saturdays,7:00 PM,8:00 PM,C
Holy Trinity Church,20 Cummings Street,New York,NY,10034,"40.7760114,-73.9550312,10,"trinity",Fridays,7:00 PM,8:00 PM,S
Holy Trinity Church,20 Cummings Street,New York,NY,10034,"40.7760114,-73.9550312,10,"trinity",Tuesdays,7:15 PM,8:15 PM,B
Holy Trinity Church,20 Cummings Street,New York,NY,10034,"40.7760114,-73.9550312,10,"trinity",Fridays,8:30 PM,9:30 PM,B
Holy Trinity Church,20 Cummings Street,New York,NY,10034,"40.7760114,-73.9550312,10,"trinity",Tuesdays,8:30 PM,9:30 PM,C
Holy Trinity Church,20 Cummings Street,New York,NY,10034,"40.7760114,-73.9550312,10,"women west aa",Fridays,7:00 PM,8:00 PM,C
Cornerstone Center,189th Street & Bennett Avenue,New York,NY,10040,"40.8560069,-73.9342762,10,"washington heights                 (:ii)",Thursdays,7:30 PM,8:30 PM,C
Cornerstone Center,189th Street & Bennett Avenue,New York,NY,10040,"40.8560069,-73.9342762,10,"women's nite",Mondays,7:30 PM,8:30 PM,BB
The Corner Stone Center,178 Bennett Avenue,New York,NY,10040,"40.8560069,-73.9342762,10,"what we are like now",Sundays,6:00 PM,7:00 PM,C
122 East 37th Street,122 East 37th Street,New York,NY,10016,"40.7483929,-73.9787906,05,"aa literature",Sundays,6:15 PM,7:15 PM,C
122 East 37th Street,122 East 37th Street,New York,NY,10016,"40.7483929,-73.9787906,05,"courage to change",Sundays,12:45 PM,1:45 PM,S
122 East 37th Street,122 East 37th Street,New York,NY,10016,"40.7483929,-73.9787906,05,"courage to change",Sundays,6:15 PM,7:15 PM,B
122 East 37th Street,122 East 37th Street,New York,NY,10016,"40.7483929,-73.9787906,05,"courage to change",Sundays,6:15 PM,7:15 PM,C
122 East 37th Street,122 East 37th Street,New York,NY,10016,"40.7483929,-73.9787906,05,"courage to change",Mondays,6:15 PM,7:15 PM,B
122 East 37th Street,122 East 37th Street,New York,NY,10016,"40.7483929,-73.9787906,05,"courage to change",Tuesdays,6:15 PM,7:15 PM,B
122 East 37th Street,122 East 37th Street,New York,NY,10016,"40.7483929,-73.9787906,05,"courage to change",Tuesdays,6:15 PM,7:15 PM,S
122 East 37th Street,122 East 37th Street,New York,NY,10016,"40.7483929,-73.9787906,05,"courage to change",Wednesdays,6:15 PM,7:15 PM,BB
122 East 37th Street,122 East 37th Street,New York,NY,10016,"40.7483929,-73.9787906,05,"courage to change",Wednesdays,6:15 PM,7:15 PM,C
122 East 37th Street,122 East 37th Street,New York,NY,10016,"40.7483929,-73.9787906,05,"courage to change",Thursdays,6:15 PM,7:15 PM,C
122 East 37th Street,122 East 37th Street,New York,NY,10016,"40.7483929,-73.9787906,05,"courage to change",Fridays,6:15 PM,7:15 PM,B
122 East 37th Street,122 East 37th Street,New York,NY,10016,"40.7483929,-73.9787906,05,"courage to change",Fridays,7:30 PM,8:30 PM,OD
122 East 37th Street,122 East 37th Street,New York,NY,10016,"40.7483929,-73.9787906,05,"grupo brasil",Wednesdays,8:00 PM,9:00 PM,S
122 East 37th Street,122 East 37th Street,New York,NY,10016,"40.7483929,-73.9787906,05,"grupo brasil",Fridays,8:00 PM,9:00 PM,OD
122 East 37th Street,122 East 37th Street,New York,NY,10016,"40.7483929,-73.9787906,05,"mustard seed",Tuesdays,6:15 AM,7:15 AM,BB
122 East 37th Street,122 East 37th Street,New York,NY,10016,"40.7483929,-73.9787906,05,"mustard seed",Thursdays,7:30 AM,8:30 AM,C
122 East 37th Street,122 East 37th Street,New York,NY,10016,"40.7483929,-73.9787906,05,"mustard seed",Wednesdays,7:30 AM,8:30 AM,C
122 East 37th Street,122 East 37th Street,New York,NY,10016,"40.7483929,-73.9787906,05,"mustard seed",Thursdays,7:30 AM,8:30 AM,C
122 East 37th Street,122 East 37th Street,New York,NY,10016,"40.7483929,-73.9787906,05,"mustard seed",Wednesdays,7:30 AM,8:30 AM,C
122 East 37th Street,122 East 37th Street,New York,NY,10016,"40.7483929,-73.9787906,05,"mustard seed",Tuesdays,7:30 AM,8:30 AM,C
122 East 37th Street,122 East 37th Street,New York,NY,10016,"40.7483929,-73.9787906,05,"mustard seed",Mondays,7:30 AM,8:30 AM,C
122 East 37th Street,122 East 37th Street,New York,NY,10016,"40.7483929,-73.9787906,05,"mustard seed",Tuesdays,7:30 AM,8:30 AM,C
122 East 37th Street,122 East 37th Street,New York,NY,10016,"40.7483929,-73.9787906,05,"mustard seed",Sundays,7:30 AM,8:30 AM,C
122 East 37th Street,122 East 37th Street,New York,NY,10016,"40.7483929,-73.9787906,05,"mustard seed",Mondays,7:30 AM,8:30 AM,C
122 East 37th Street,122 East 37th Street,New York,NY,10016,"40.7483929,-73.9787906,05,"mustard seed",Fridays,7:30 AM,8:30 AM,C
122 East 37th Street,122 East 37th Street,New York,NY,10016,"40.7483929,-73.9787906,05,"mustard seed",Thursdays,7:30 AM,8:30 AM,C
122 East 37th Street,122 East 37th Street,New York,NY,10016,"40.7483929,-73.9787906,05,"mustard seed",Saturdays,8:00 AM,9:00 AM,C
122 East 37th Street,122 East 37th Street,New York,NY,10016,"40.7483929,-73.9787906,05,"mustard seed",Saturdays,8:00 AM,9:00 AM,C
122 East 37th Street,122 East 37th Street,New York,NY,10016,"40.7483929,-73.9787906,05,"mustard seed",Thursdays,8:00 AM,9:00 AM,C
122 East 37th Street,122 East 37th Street,New York,NY,10016,"40.7483929,-73.9787906,05,"mustard seed",Sundays,8:15 AM,9:15 AM,C
122 East 37th Street,122 East 37th Street,New York,NY,10016,"40.7483929,-73.9787906,05,"mustard seed",Thursdays,9:30 AM,10:30 AM,C
122 East 37th Street,122 East 37th Street,New York,NY,10016,"40.7483929,-73.9787906,05,"mustard seed",Wednesdays,9:30 AM,10:30 AM,C
122 East 37th Street,122 East 37th Street,New York,NY,10016,"40.7483929,-73.9787906,05,"mustard seed",Tuesdays,9:30 AM,10:30 AM,C
122 East 37th Street,122 East 37th Street,New York,NY,10016,"40.7483929,-73.9787906,05,"mustard seed",Mondays,9:30 AM,10:30 AM,C
122 East 37th Street,122 East 37th Street,New York,NY,10016,"40.7483929,-73.9787906,05,"mustard seed",Sundays,9:30 AM,10:30 AM,C
122 East 37th Street,122 East 37th Street,New York,NY,10016,"40.7483929,-73.9787906,05,"mustard seed",Sundays,9:30 AM,10:30 AM,S
122 East 37th Street,122 East 37th Street,New York,NY,10016,"40.7483929,-73.9787906,05,"mustard seed",Saturdays,9:30 AM,10:30 AM,C
122 East 37th Street,122 East 37th Street,New York,NY,10016,"40.7483929,-73.9787906,05,"mustard seed",Fridays,9:30 AM,10:30 AM,C
122 East 37th Street,122 East 37th Street,New York,NY,10016,"40.7483929,-73.9787906,05,"mustard seed",Saturdays,10:00 AM,11:00 AM,BB
122 East 37th Street,122 East 37th Street,New York,NY,10016,"40.7483929,-73.9787906,05,"mustard seed",Sundays,11:00 AM,12:00 PM,BB
122 East 37th Street,122 East 37th Street,New York,NY,10016,"40.7483929,-73.9787906,05,"mustard seed",Fridays,11:30 AM,12:30 PM,C
122 East 37th Street,122 East 37th Street,New York,NY,10016,"40.7483929,-73.9787906,05,"mustard seed",Thursdays,11:30 AM,12:30 PM,C
122 East 37th Street,122 East 37th Street,New York,NY,10016,"40.7483929,-73.9787906,05,"mustard seed",Wednesdays,11:30 AM,12:30 PM,C
122 East 37th Street,122 East 37th Street,New York,NY,10016,"40.7483929,-73.9787906,05,"mustard seed",Tuesdays,11:30 AM,12:30 PM,C
122 East 37th Street,122 East 37th Street,New York,NY,10016,"40.7483929,-73.9787906,05,"mustard seed",Mondays,11:30 AM,12:30 PM,C
122 East 37th Street,122 East 37th Street,New York,NY,10016,"40.7483929,-73.9787906,05,"mustard seed",Saturdays,12:45 PM,1:45 PM,C
122 East 37th Street,122 East 37th Street,New York,NY,10016,"40.7483929,-73.9787906,05,"mustard seed",Fridays,12:45 PM,1:45 PM,C
122 East 37th Street,122 East 37th Street,New York,NY,10016,"40.7483929,-73.9787906,05,"mustard seed",Thursdays,12:45 PM,1:45 PM,C
122 East 37th Street,122 East 37th Street,New York,NY,10016,"40.7483929,-73.9787906,05,"mustard seed",Wednesdays,12:45 PM,1:45 PM,C
122 East 37th Street,122 East 37th Street,New York,NY,10016,"40.7483929,-73.9787906,05,"mustard seed",Tuesdays,12:45 PM,1:45 PM,C
122 East 37th Street,122 East 37th Street,New York,NY,10016,"40.7483929,-73.9787906,05,"mustard seed",Mondays,12:45 PM,1:45 PM,C
122 East 37th Street,122 East 37th Street,New York,NY,10016,"40.7483929,-73.9787906,05,"mustard seed",Sundays,12:45 PM,1:45 PM,S
122 East 37th Street,122 East 37th Street,New York,NY,10016,"40.7483929,-73.9787906,05,"mustard seed",Sundays,3:00 PM,4:00 PM,C
122 East 37th Street,122 East 37th Street,New York,NY,10016,"40.7483929,-73.9787906,05,"mustard seed",Fridays,3:15 PM,4:15 PM,C
122 East 37th Street,122 East 37th Street,New York,NY,10016,"40.7483929,-73.9787906,05,"mustard seed",Thursdays,3:15 PM,4:15 PM,C
122 East 37th Street,122 East 37th Street,New York,NY,10016,"40.7483929,-73.9787906,05,"mustard seed",Wednesdays,3:15 PM,4:15 PM,C
122 East 37th Street,122 East 37th Street,New York,NY,10016,"40.7483929,-73.9787906,05,"mustard seed",Tuesdays,3:15 PM,4:15 PM,C
122 East 37th Street,122 East 37th Street,New York,NY,10016,"40.7483929,-73.9787906,05,"mustard seed",Mondays,3:15 PM,4:15 PM,C
122 East 37th Street,122 East 37th Street,New York,NY,10016,"40.7483929,-73.9787906,05,"mustard seed",Saturdays,5:30 PM,6:30 PM,B
122 East 37th Street,122 East 37th Street,New York,NY,10016,"40.7483929,-73.9787906,05,"mustard seed",Sundays,6:15 PM,7:00 PM,B
122 East 37th Street,122 East 37th Street,New York,NY,10016,"40.7483929,-73.9787906,05,"mustard seed",Fridays,6:15 PM,7:15 PM,B
122 East 37th Street,122 East 37th Street,New York,NY,10016,"40.7483929,-73.9787906,05,"mustard seed",Thursdays,6:15 PM,7:15 PM,C
122 East 37th Street,122 East 37th Street,New York,NY,10016,"40.7483929,-73.9787906,05,"mustard seed",Wednesdays,6:15 PM,7:15 PM,C
122 East 37th Street,122 East 37th Street,New York,NY,10016,"40.7483929,-73.9787906,05,"mustard seed",Tuesdays,6:15 PM,7:15 PM,B
122 East 37th Street,122 East 37th Street,New York,NY,10016,"40.7483929,-73.9787906,05,"mustard seed",Wednesdays,6:15 PM,7:15 PM,BB
122 East 37th Street,122 East 37th Street,New York,NY,10016,"40.7483929,-73.9787906,05,"mustard seed",Mondays,6:15 PM,7:15 PM,B
122 East 37th Street,122 East 37th Street,New York,NY,10016,"40.7483929,-73.9787906,05,"mustard seed",Tuesdays,6:15 PM,7:15 PM,S
122 East 37th Street,122 East 37th Street,New York,NY,10016,"40.7483929,-73.9787906,05,"mustard seed",Fridays,7:30 PM,8:30 PM,OD
122 East 37th Street,122 East 37th Street,New York,NY,10016,"40.7483929,-73.9787906,05,"mustard seed",Saturdays,7:30 PM,8:30 PM,Meditation
122 East 37th Street,122 East 37th Street,New York,NY,10016,"40.7483929,-73.9787906,05,"mustard seed",Tuesdays,8:00 PM,9:00 PM,C
122 East 37th Street,122 East 37th Street,New York,NY,10016,"40.7483929,-73.9787906,05,"mustard seed",Sundays,8:00 PM,9:00 PM,B
122 East 37th Street,122 East 37th Street,New York,NY,10016,"40.7483929,-73.9787906,05,"mustard seed",Thursdays,8:00 PM,9:00 PM,C
122 East 37th Street,122 East 37th Street,New York,NY,10016,"40.7483929,-73.9787906,05,"mustard seed",Wednesdays,8:00 PM,9:00 PM,S
122 East 37th Street,122 East 37th Street,New York,NY,10016,"40.7483929,-73.9787906,05,"mustard seed",Mondays,8:00 PM,9:00 PM,B
122 East 37th Street,122 East 37th Street,New York,NY,10016,"40.7483929,-73.9787906,05,"mustard seed",Fridays,10:00 PM,11:00 PM,OD
30 East 35th Street,30 East 35th Street,New York,NY,10016,"40.7496221,-73.9855348,05,"breakfast club",Tuesdays,7:30 AM,8:30 AM,S
30 East 35th Street,30 East 35th Street,New York,NY,10016,"40.7496221,-73.9855348,05,"breakfast club",Wednesdays,7:30 AM,8:30 AM,OD
30 East 35th Street,30 East 35th Street,New York,NY,10016,"40.7496221,-73.9855348,05,"breakfast club",Thursdays,7:30 AM,8:30 AM,O
30 East 35th Street,30 East 35th Street,New York,NY,10016,"40.7496221,-73.9855348,05,"breakfast club",Fridays,7:30 AM,8:30 AM,OD
30 East 35th Street,30 East 35th Street,New York,NY,10016,"40.7496221,-73.9855348,05,"breakfast club",Mondays,7:30 AM,8:30 AM,OD
Cathedral High School,350 East 56th Street,New York,NY,10022,"40.757654,-73.963834,05,"carlyle",Mondays,5:45 PM,6:45 PM,B
Cathedral High School,350 East 56th Street,New York,NY,10022,"40.757654,-73.963834,05,"carlyle",Wednesdays,5:45 PM,6:45 PM,B
St. Peter's Lutheran Church @ Citicorp Center,619 Lexington Avenue,New York,NY,10022,"40.7588016,-73.9704542,05,"city group",Thursdays,7:30 AM,8:30 AM,OD
St. Peter's Lutheran Church @ Citicorp Center,619 Lexington Avenue,New York,NY,10022,"40.7588016,-73.9704542,05,"city group",Mondays,7:30 AM,8:30 AM,S
St. Peter's Lutheran Church @ Citicorp Center,619 Lexington Avenue,New York,NY,10022,"40.7588016,-73.9704542,05,"city group",Wednesdays,7:30 AM,8:30 AM,OD
St. Peter's Lutheran Church @ Citicorp Center,619 Lexington Avenue,New York,NY,10022,"40.7588016,-73.9704542,05,"city group",Fridays,7:45 AM,8:45 AM,B
St. Peter's Lutheran Church @ Citicorp Center,619 Lexington Avenue,New York,NY,10022,"40.7588016,-73.9704542,05,"city group",Mondays,12:30 PM,1:30 PM,B
St. Peter's Lutheran Church @ Citicorp Center,619 Lexington Avenue,New York,NY,10022,"40.7588016,-73.9704542,05,"city group",Mondays,12:30 PM,1:30 PM,S
St. Peter's Lutheran Church @ Citicorp Center,619 Lexington Avenue,New York,NY,10022,"40.7588016,-73.9704542,05,"city group",Tuesdays,12:30 PM,1:30 PM,B
St. Peter's Lutheran Church @ Citicorp Center,619 Lexington Avenue,New York,NY,10022,"40.7588016,-73.9704542,05,"city group",Thursdays,12:30 PM,1:30 PM,O
St. Peter's Lutheran Church @ Citicorp Center,619 Lexington Avenue,New York,NY,10022,"40.7588016,-73.9704542,05,"city group",Wednesdays,12:30 PM,1:30 PM,B
St. Peter's Lutheran Church @ Citicorp Center,619 Lexington Avenue,New York,NY,10022,"40.7588016,-73.9704542,05,"city group",Wednesdays,12:30 PM,1:30 PM,S
St. Peter's Lutheran Church @ Citicorp Center,619 Lexington Avenue,New York,NY,10022,"40.7588016,-73.9704542,05,"city group",Thursdays,12:30 PM,1:30 PM,B
St. Peter's Lutheran Church @ Citicorp Center,619 Lexington Avenue,New York,NY,10022,"40.7588016,-73.9704542,05,"city group",Fridays,12:30 PM,1:30 PM,B
St. Peter's Lutheran Church @ Citicorp Center,619 Lexington Avenue,New York,NY,10022,"40.7588016,-73.9704542,05,"city group",Fridays,12:30 PM,1:30 PM,BB
St. Peter's Lutheran Church @ Citicorp Center,619 Lexington Avenue,New York,NY,10022,"40.7588016,-73.9704542,05,"city group",Tuesdays,12:30 PM,1:30 PM,S
J.H. Holmes Community House,28 East 35th Street,New York,NY,10016,"40.7496065,-73.9854965,05,"empire state",Mondays,12:15 PM,1:15 PM,C
J.H. Holmes Community House,28 East 35th Street,New York,NY,10016,"40.7496065,-73.9854965,05,"empire state",Wednesdays,12:15 PM,1:15 PM,S
J.H. Holmes Community House,28 East 35th Street,New York,NY,10016,"40.7496065,-73.9854965,05,"empire state",Fridays,12:15 PM,1:15 PM,B
Cathedral High School ,350 East 56th Street,New York,NY,10022,"40.757654,-73.963834,05,"gotham",Sundays,5:30 PM,6:30 PM,B
Cathedral High School ,350 East 56th Street,New York,NY,10022,"40.757654,-73.963834,05,"gotham",Sundays,5:30 PM,6:30 PM,S
Cathedral High School ,350 East 56th Street,New York,NY,10022,"40.757654,-73.963834,05,"gotham",Tuesdays,5:45 PM,6:45 PM,OD
Soldiers, Sailors, Marines & Airmen's Club,283 Lexington Avenue,New York,NY,10016,"40.7479969,-73.9783809,05,"grand central",Mondays,5:30 PM,6:30 PM,B
Soldiers, Sailors, Marines & Airmen's Club,283 Lexington Avenue,New York,NY,10016,"40.7479969,-73.9783809,05,"grand central",Tuesdays,5:30 PM,6:30 PM,S
Soldiers, Sailors, Marines & Airmen's Club,283 Lexington Avenue,New York,NY,10016,"40.7479969,-73.9783809,05,"grand central",Fridays,5:30 PM,6:30 PM,C
Soldiers, Sailors, Marines & Airmen's Club,283 Lexington Avenue,New York,NY,10016,"40.7479969,-73.9783809,05,"grand central",Wednesdays,5:30 PM,6:30 PM,BB
Soldiers, Sailors, Marines & Airmen's Club,283 Lexington Avenue,New York,NY,10016,"40.7479969,-73.9783809,05,"grand central",Thursdays,5:30 PM,6:30 PM,OD
St. Peter's Lutheran Church @ CitiCorp Center,619 Lexington Avenue,New York,NY,10022,"40.7588016,-73.9704542,05,"life line",Mondays,5:30 PM,6:30 PM,B
St. Peter's Lutheran Church @ CitiCorp Center,619 Lexington Avenue,New York,NY,10022,"40.7588016,-73.9704542,05,"life line",Fridays,5:30 PM,6:30 PM,OD
St. Peter's Lutheran Church @ CitiCorp Center,619 Lexington Avenue,New York,NY,10022,"40.7588016,-73.9704542,05,"rebellion dogs",Tuesdays,7:30 AM,8:30 AM,C
St. Peter's Lutheran Church @ CitiCorp Center,619 Lexington Avenue,New York,NY,10022,"40.7588016,-73.9704542,05,"silkworth women's",Thursdays,12:30 PM,1:30 PM,C
Saint Agnes Church,141 East 43rd Street,New York,NY,10017,"40.7518754,-73.9747248,05,"lunch bunch",Mondays,12:30 PM,1:30 PM,B
Saint Agnes Church,141 East 43rd Street,New York,NY,10017,"40.7518754,-73.9747248,05,"lunch bunch",Tuesdays,12:30 PM,1:30 PM,C
Saint Agnes Church,141 East 43rd Street,New York,NY,10017,"40.7518754,-73.9747248,05,"lunch bunch",Wednesdays,12:30 PM,1:30 PM,S
Saint Agnes Church,141 East 43rd Street,New York,NY,10017,"40.7518754,-73.9747248,05,"lunch bunch",Thursdays,12:30 PM,1:30 PM,C
Saint Agnes Church,141 East 43rd Street,New York,NY,10017,"40.7518754,-73.9747248,05,"lunch bunch",Fridays,12:30 PM,1:30 PM,B
MUSTARD SEED,122 East 37TH St.,New York,NY,10016,"40.7483929,-73.9787906,05,"lunchtime express at the mustard seed",Wednesdays,12:30 PM,1:15 PM,O
Mustard Seed,122 East 37th Street,New York,NY,10016,"40.7483929,-73.9787906,05,"meditation saturday night",Saturdays,7:30 PM,8:30 PM,Eleventh
St. Agnes Church,141 East 43rd Street,New York,NY,10017,"40.7518754,-73.9747248,05,"monday men",Mondays,6:15 PM,7:15 PM,B
St. Agnes Church,141 East 43rd Street,New York,NY,10017,"40.7518754,-73.9747248,05,"monday men",Thursdays,6:15 PM,7:15 PM,S
St. Agnes Church,141 East 43rd Street,New York,NY,10017,"40.7518754,-73.9747248,05,"monday men",Mondays,7:15 PM,8:15 PM,C
Church of the Incarnation,209 Madison Avenue,New York,NY,10016,"40.7486487,-73.9821254,05,"murray hill",Mondays,6:15 PM,7:15 PM,B
The New York New Church,114 East 35th Street,New York,NY,10016,"40.7473169,-73.9800724,05,"saturday step",Saturdays,10:00 AM,11:00 AM,S
ALL SAINTS CHURCH,230 East 60th Street,New York,NY,10022,"40.7615607,-73.9649474,05,"serenity east",Tuesdays,7:30 AM,8:30 AM,BB
ALL SAINTS CHURCH,230 East 60th Street,New York,NY,10022,"40.7615607,-73.9649474,05,"serenity east",Fridays,6:30 PM,7:30 PM,S
ALL SAINTS CHURCH,230 East 60th Street,New York,NY,10022,"40.7615607,-73.9649474,05,"serenity east",Fridays,8:00 PM,9:00 PM,B
Caron Foundation,244 East 58th Street,New York,NY,10022,"40.7600925,-73.9653811,05,"serenity east (:i)",Tuesdays,5:30 PM,6:30 PM,BB
Caron Foundation,244 East 58th Street,New York,NY,10022,"40.7600925,-73.9653811,05,"tudor",Thursdays,6:15 PM,7:15 PM,OD
St. Bartholomew's Church,325 Park Avenue,New York,NY,10022,"40.7574552,-73.9733937,05,"st. bart's twelve-thirties",Fridays,12:30 PM,1:30 PM,BB
St. Bartholomew's Church,325 Park Avenue,New York,NY,10022,"40.7574552,-73.9733937,05,"st. bart's twelve-thirties",Mondays,12:30 PM,1:30 PM,C
St. Bartholomew's Church,325 Park Avenue,New York,NY,10022,"40.7574552,-73.9733937,05,"st. bart's twelve-thirties",Wednesdays,12:30 PM,1:30 PM,S
CHURCH OF THE GOOD SHEPARD,236 EAST 31st STREET,New York,NY,10016,"40.74314,-73.9781525,05,"straight 12",Saturdays,6:00 PM,7:00 PM,C
CHURCH OF THE GOOD SHEPARD,236 EAST 31st STREET,New York,NY,10016,"40.74314,-73.9781525,05,"straight 12",Saturdays,7:15 PM,8:15 PM,B
CHURCH OF THE GOOD SHEPARD,236 EAST 31st STREET,New York,NY,10016,"40.74314,-73.9781525,05,"straight 12",Saturdays,8:30 PM,9:30 PM,OD
Conservative Synagogue,308 East 55th Street,New York,NY,10022,"40.7576943,-73.9657436,05,"templeton",Wednesdays,6:15 PM,7:15 PM,OD
The Caron Foundation,244 East 58th Street,New York,NY,10022,"40.7600925,-73.9653811,05,"trafalgar",Tuesdays,6:45 PM,7:45 PM,OD
109 East 50th Street,109 East 50th Street,New York,NY,10022,"40.7569178,-73.97309,05,"women's eleventh step",Wednesdays,5:45 PM,7:15 PM,S
University Settlement,273 Bowery,New York,NY,10002,"40.7236736,-73.9924832,02,"a.a. on the bowery",Fridays,6:00 PM,7:00 PM,C
Manhattan Seventh-Day Adventist Church,232 West 11th Street,New York,NY,10014,"40.736193,-74.0028632,02,"after five",Thursdays,6:15 PM,7:15 PM,S
Manhattan Seventh-Day Adventist Church,232 West 11th Street,New York,NY,10014,"40.736193,-74.0028632,02,"together we can",Tuesdays,6:45 PM,8:00 PM,S
Seventh Day Adventist Church,232 West 11th Street,New York,NY,10014,"40.736193,-74.0028632,02,"artists in recovery (a.r.t.)",Sundays,6:30 PM,7:45 PM,B
Seventh Day Adventist Church,232 West 11th Street,New York,NY,10014,"40.736193,-74.0028632,02,"primetime nyc (i)",Thursdays,6:30 PM,7:45 PM,OD
Seventh Day Adventist Church,232 West 11th Street,New York,NY,10014,"40.736193,-74.0028632,02,"primetime nyc (i)",Tuesdays,6:30 PM,7:45 PM,S
220 West Houston Street,220 West Houston Street,New York,NY,10014,"40.7286385,-74.0045871,02,"bagels and big book",Sundays,10:30 AM,12:00 PM,OD
220 West Houston Street,220 West Houston Street,New York,NY,10014,"40.7286385,-74.0045871,02,"midnite",Mondays,12:00 AM,1:15 AM,S
220 West Houston Street,220 West Houston Street,New York,NY,10014,"40.7286385,-74.0045871,02,"midnite",Sundays,12:00 AM,1:15 AM,S
220 West Houston Street,220 West Houston Street,New York,NY,10014,"40.7286385,-74.0045871,02,"midnite",Wednesdays,12:00 AM,1:15 AM,B
220 West Houston Street,220 West Houston Street,New York,NY,10014,"40.7286385,-74.0045871,02,"midnite",Saturdays,12:00 AM,1:15 AM,C
220 West Houston Street,220 West Houston Street,New York,NY,10014,"40.7286385,-74.0045871,02,"midnite",Tuesdays,12:00 AM,1:15 AM,C
220 West Houston Street,220 West Houston Street,New York,NY,10014,"40.7286385,-74.0045871,02,"midnite",Fridays,12:00 AM,1:15 AM,C
220 West Houston Street,220 West Houston Street,New York,NY,10014,"40.7286385,-74.0045871,02,"midnite",Thursdays,12:00 AM,1:15 AM,C
220 West Houston Street,220 West Houston Street,New York,NY,10014,"40.7286385,-74.0045871,02,"midnite",Saturdays,2:00 AM,3:15 AM,OD
220 West Houston Street,220 West Houston Street,New York,NY,10014,"40.7286385,-74.0045871,02,"midnite",Tuesdays,2:00 AM,3:15 AM,OD
220 West Houston Street,220 West Houston Street,New York,NY,10014,"40.7286385,-74.0045871,02,"midnite",Fridays,2:00 AM,3:15 AM,OD
220 West Houston Street,220 West Houston Street,New York,NY,10014,"40.7286385,-74.0045871,02,"midnite",Mondays,2:00 AM,3:15 AM,OD
220 West Houston Street,220 West Houston Street,New York,NY,10014,"40.7286385,-74.0045871,02,"midnite",Thursdays,2:00 AM,3:15 AM,OD
220 West Houston Street,220 West Houston Street,New York,NY,10014,"40.7286385,-74.0045871,02,"midnite",Sundays,2:00 AM,3:15 AM,OD
220 West Houston Street,220 West Houston Street,New York,NY,10014,"40.7286385,-74.0045871,02,"midnite",Wednesdays,2:00 AM,3:15 AM,OD
220 West Houston Street,220 West Houston Street,New York,NY,10014,"40.7286385,-74.0045871,02,"midnite",Saturdays,12:30 PM,1:30 PM,C
220 West Houston Street,220 West Houston Street,New York,NY,10014,"40.7286385,-74.0045871,02,"midnite",Tuesdays,12:30 PM,1:30 PM,C
220 West Houston Street,220 West Houston Street,New York,NY,10014,"40.7286385,-74.0045871,02,"midnite",Mondays,12:30 PM,1:30 PM,C
220 West Houston Street,220 West Houston Street,New York,NY,10014,"40.7286385,-74.0045871,02,"midnite",Thursdays,12:30 PM,1:30 PM,S
220 West Houston Street,220 West Houston Street,New York,NY,10014,"40.7286385,-74.0045871,02,"midnite",Wednesdays,12:30 PM,1:30 PM,C
220 West Houston Street,220 West Houston Street,New York,NY,10014,"40.7286385,-74.0045871,02,"midnite",Fridays,12:30 PM,1:30 PM,C
220 West Houston Street,220 West Houston Street,New York,NY,10014,"40.7286385,-74.0045871,02,"midnite",Sundays,12:30 PM,1:30 PM,C
220 West Houston Street,220 West Houston Street,New York,NY,10014,"40.7286385,-74.0045871,02,"midnite",Tuesdays,5:15 PM,6:15 PM,C
220 West Houston Street,220 West Houston Street,New York,NY,10014,"40.7286385,-74.0045871,02,"midnite",Fridays,5:15 PM,6:15 PM,C
220 West Houston Street,220 West Houston Street,New York,NY,10014,"40.7286385,-74.0045871,02,"midnite",Thursdays,5:15 PM,6:15 PM,C
220 West Houston Street,220 West Houston Street,New York,NY,10014,"40.7286385,-74.0045871,02,"midnite",Sundays,5:15 PM,6:15 PM,S
220 West Houston Street,220 West Houston Street,New York,NY,10014,"40.7286385,-74.0045871,02,"midnite",Wednesdays,5:15 PM,6:15 PM,C
220 West Houston Street,220 West Houston Street,New York,NY,10014,"40.7286385,-74.0045871,02,"midnite",Mondays,5:15 PM,6:15 PM,C
220 West Houston Street,220 West Houston Street,New York,NY,10014,"40.7286385,-74.0045871,02,"midnite",Wednesdays,6:30 PM,7:30 PM,C
220 West Houston Street,220 West Houston Street,New York,NY,10014,"40.7286385,-74.0045871,02,"midnite",Saturdays,6:30 PM,7:30 PM,C
220 West Houston Street,220 West Houston Street,New York,NY,10014,"40.7286385,-74.0045871,02,"midnite",Tuesdays,6:30 PM,7:30 PM,C
220 West Houston Street,220 West Houston Street,New York,NY,10014,"40.7286385,-74.0045871,02,"midnite",Fridays,6:30 PM,7:30 PM,C
220 West Houston Street,220 West Houston Street,New York,NY,10014,"40.7286385,-74.0045871,02,"midnite",Mondays,6:30 PM,7:30 PM,B
220 West Houston Street,220 West Houston Street,New York,NY,10014,"40.7286385,-74.0045871,02,"midnite",Thursdays,6:30 PM,7:30 PM,C
220 West Houston Street,220 West Houston Street,New York,NY,10014,"40.7286385,-74.0045871,02,"midnite",Sundays,6:30 PM,7:30 PM,C
220 West Houston Street,220 West Houston Street,New York,NY,10014,"40.7286385,-74.0045871,02,"midnite",Sundays,8:00 PM,9:15 PM,BB
220 West Houston Street,220 West Houston Street,New York,NY,10014,"40.7286385,-74.0045871,02,"midnite",Wednesdays,8:00 PM,9:15 PM,C
220 West Houston Street,220 West Houston Street,New York,NY,10014,"40.7286385,-74.0045871,02,"midnite",Saturdays,8:00 PM,9:15 PM,O
220 West Houston Street,220 West Houston Street,New York,NY,10014,"40.7286385,-74.0045871,02,"midnite",Tuesdays,8:00 PM,9:15 PM,C
220 West Houston Street,220 West Houston Street,New York,NY,10014,"40.7286385,-74.0045871,02,"midnite",Mondays,8:00 PM,9:15 PM,C
220 West Houston Street,220 West Houston Street,New York,NY,10014,"40.7286385,-74.0045871,02,"midnite",Fridays,8:00 PM,9:15 PM,S
220 West Houston Street,220 West Houston Street,New York,NY,10014,"40.7286385,-74.0045871,02,"midnite",Thursdays,8:00 PM,9:15 PM,B
220 West Houston Street,220 West Houston Street,New York,NY,10014,"40.7286385,-74.0045871,02,"midnite",Sundays,10:00 PM,11:15 PM,C
220 West Houston Street,220 West Houston Street,New York,NY,10014,"40.7286385,-74.0045871,02,"midnite",Wednesdays,10:00 PM,11:15 PM,C
220 West Houston Street,220 West Houston Street,New York,NY,10014,"40.7286385,-74.0045871,02,"midnite",Saturdays,10:00 PM,11:15 PM,C
220 West Houston Street,220 West Houston Street,New York,NY,10014,"40.7286385,-74.0045871,02,"midnite",Tuesdays,10:00 PM,11:15 PM,S
220 West Houston Street,220 West Houston Street,New York,NY,10014,"40.7286385,-74.0045871,02,"midnite",Mondays,10:00 PM,11:15 PM,C
220 West Houston Street,220 West Houston Street,New York,NY,10014,"40.7286385,-74.0045871,02,"midnite",Fridays,10:00 PM,11:15 PM,B
220 West Houston Street,220 West Houston Street,New York,NY,10014,"40.7286385,-74.0045871,02,"midnite",Thursdays,10:00 PM,11:15 PM,C
220 West Houston Street,220 West Houston Street,New York,NY,10014,"40.7286385,-74.0045871,02,"women into action",Saturdays,4:45 PM,5:45 PM,C
Golden Bridge Yoga Center,253 Center Street,New York,NY,10013,"40.7206323,-73.9979756,02,"center meeting",Mondays,5:15 PM,6:15 PM,OD
University Settlement (The Chinatown YMCA),273 Bowery,New York,NY,10002,"40.7236736,-73.9924832,02,"east village sober agnostics",Fridays,6:45 PM,8:00 PM,OD
University Settlement (The Chinatown YMCA),273 Bowery,New York,NY,10002,"40.7236736,-73.9924832,02,"the captain's table",Thursdays,7:00 PM,8:00 PM,BB
St. Luke's Episcopal School,487 Hudson Street,New York,NY,10014,"40.7326,-74.0067,02,"greenwich village",Mondays,7:15 PM,8:15 PM,B
St. Luke's Episcopal School,487 Hudson Street,New York,NY,10014,"40.7326,-74.0067,02,"greenwich village",Tuesdays,7:15 PM,8:15 PM,BB
St. Luke's Episcopal School,487 Hudson Street,New York,NY,10014,"40.7326,-74.0067,02,"greenwich village",Wednesdays,7:15 PM,8:15 PM,OD
St. Luke's Episcopal School,487 Hudson Street,New York,NY,10014,"40.7326,-74.0067,02,"greenwich village",Fridays,8:00 PM,9:00 PM,S
St. Luke's Episcopal School,487 Hudson Street,New York,NY,10014,"40.7326,-74.0067,02,"greenwich village",Mondays,8:30 PM,9:30 PM,S
St. Augustine's Church,292 Henry Street,New York,NY,10002,"40.7137143,-73.983033,02,"grupo central",Sundays,3:00 PM,4:00 PM,O
St. Augustine's Church,292 Henry Street,New York,NY,10002,"40.7137143,-73.983033,02,"grupo central",Tuesdays,7:30 PM,8:30 PM,C
St. Augustine's Church,292 Henry Street,New York,NY,10002,"40.7137143,-73.983033,02,"grupo central",Fridays,8:00 PM,9:00 PM,O
Manhattan Church of The Seventh-day Adventist,232 West 11th Street,New York,NY,10014,"40.736193,-74.0028632,02,"happy, joyous and free",s,12:00 AM,12:00 AM,undefined
Manhattan Church of The Seventh-day Adventist,232 West 11th Street,New York,NY,10014,"40.736193,-74.0028632,02,"happy, joyous and free",Mondays,7:00 PM,8:00 PM,C
Manhattan Church of The Seventh-day Adventist,232 West 11th Street,New York,NY,10014,"40.736193,-74.0028632,02,"wednesday focus",Wednesdays,6:15 PM,7:15 PM,C
Church of Saint Theresa Rectory,141 Henry Street,New York,NY,10002,"40.7134487,-73.9906625,02,"lower east side",Tuesdays,7:00 PM,8:00 PM,C
St. John's Lutheran Church,83 Christopher Street,New York,NY,10014,"40.7335702,-74.0037456,02,"new group",Sundays,12:30 PM,1:30 PM,O
St. John's Lutheran Church,83 Christopher Street,New York,NY,10014,"40.7335702,-74.0037456,02,"new group",Wednesdays,6:30 PM,7:30 PM,B
St. John's Lutheran Church,83 Christopher Street,New York,NY,10014,"40.7335702,-74.0037456,02,"new group",Fridays,7:30 PM,8:30 PM,B
St. John's Lutheran Church,83 Christopher Street,New York,NY,10014,"40.7335702,-74.0037456,02,"ten plus",Tuesdays,8:00 PM,9:00 PM,C
St. John's Lutheran Church,83 Christopher Street,New York,NY,10014,"40.7335702,-74.0037456,02,"west village women",Thursdays,6:30 PM,7:45 PM,C
50 Perry Street,50 Perry Street,New York,NY,10014,"40.7354854,-74.0031569,02,"perry street workshop",Wednesdays,7:30 AM,8:30 AM,C
50 Perry Street,50 Perry Street,New York,NY,10014,"40.7354854,-74.0031569,02,"perry street workshop",Tuesdays,7:30 AM,8:30 AM,C
50 Perry Street,50 Perry Street,New York,NY,10014,"40.7354854,-74.0031569,02,"perry street workshop",Mondays,7:30 AM,8:30 AM,C
50 Perry Street,50 Perry Street,New York,NY,10014,"40.7354854,-74.0031569,02,"perry street workshop",Sundays,7:30 AM,8:30 AM,OD
50 Perry Street,50 Perry Street,New York,NY,10014,"40.7354854,-74.0031569,02,"perry street workshop",Saturdays,7:30 AM,8:30 AM,C
50 Perry Street,50 Perry Street,New York,NY,10014,"40.7354854,-74.0031569,02,"perry street workshop",Fridays,7:30 AM,8:30 AM,C
50 Perry Street,50 Perry Street,New York,NY,10014,"40.7354854,-74.0031569,02,"perry street workshop",Thursdays,7:30 AM,8:30 AM,S
50 Perry Street,50 Perry Street,New York,NY,10014,"40.7354854,-74.0031569,02,"perry street workshop",Thursdays,9:00 AM,10:00 AM,C
50 Perry Street,50 Perry Street,New York,NY,10014,"40.7354854,-74.0031569,02,"perry street workshop",Wednesdays,9:00 AM,10:00 AM,C
50 Perry Street,50 Perry Street,New York,NY,10014,"40.7354854,-74.0031569,02,"perry street workshop",Tuesdays,9:00 AM,10:00 AM,C
50 Perry Street,50 Perry Street,New York,NY,10014,"40.7354854,-74.0031569,02,"perry street workshop",Mondays,9:00 AM,10:00 AM,OD
50 Perry Street,50 Perry Street,New York,NY,10014,"40.7354854,-74.0031569,02,"perry street workshop",Sundays,9:00 AM,10:00 AM,C
50 Perry Street,50 Perry Street,New York,NY,10014,"40.7354854,-74.0031569,02,"perry street workshop",Fridays,9:00 AM,10:00 AM,C
50 Perry Street,50 Perry Street,New York,NY,10014,"40.7354854,-74.0031569,02,"perry street workshop",Saturdays,9:30 AM,10:00 AM,C
50 Perry Street,50 Perry Street,New York,NY,10014,"40.7354854,-74.0031569,02,"perry street workshop",Fridays,10:30 AM,11:30 AM,C
50 Perry Street,50 Perry Street,New York,NY,10014,"40.7354854,-74.0031569,02,"perry street workshop",Sundays,11:00 AM,12:00 PM,C
50 Perry Street,50 Perry Street,New York,NY,10014,"40.7354854,-74.0031569,02,"perry street workshop",Saturdays,12:00 PM,1:00 PM,C
50 Perry Street,50 Perry Street,New York,NY,10014,"40.7354854,-74.0031569,02,"perry street workshop",Fridays,12:15 PM,1:15 PM,C
50 Perry Street,50 Perry Street,New York,NY,10014,"40.7354854,-74.0031569,02,"perry street workshop",Thursdays,12:15 PM,1:15 PM,C
50 Perry Street,50 Perry Street,New York,NY,10014,"40.7354854,-74.0031569,02,"perry street workshop",Wednesdays,12:15 PM,1:15 PM,C
50 Perry Street,50 Perry Street,New York,NY,10014,"40.7354854,-74.0031569,02,"perry street workshop",Tuesdays,12:15 PM,1:15 PM,S
50 Perry Street,50 Perry Street,New York,NY,10014,"40.7354854,-74.0031569,02,"perry street workshop",Mondays,12:15 PM,1:15 PM,B
50 Perry Street,50 Perry Street,New York,NY,10014,"40.7354854,-74.0031569,02,"perry street workshop",Sundays,1:00 PM,2:00 PM,C
50 Perry Street,50 Perry Street,New York,NY,10014,"40.7354854,-74.0031569,02,"perry street workshop",Saturdays,2:30 PM,3:30 PM,C
50 Perry Street,50 Perry Street,New York,NY,10014,"40.7354854,-74.0031569,02,"perry street workshop",Fridays,2:30 PM,3:30 PM,OD
50 Perry Street,50 Perry Street,New York,NY,10014,"40.7354854,-74.0031569,02,"perry street workshop",Thursdays,2:30 PM,3:30 PM,C
50 Perry Street,50 Perry Street,New York,NY,10014,"40.7354854,-74.0031569,02,"perry street workshop",Tuesdays,2:30 PM,3:30 PM,C
50 Perry Street,50 Perry Street,New York,NY,10014,"40.7354854,-74.0031569,02,"perry street workshop",Mondays,2:30 PM,3:30 PM,C
50 Perry Street,50 Perry Street,New York,NY,10014,"40.7354854,-74.0031569,02,"perry street workshop",Wednesdays,2:30 PM,3:30 PM,B
50 Perry Street,50 Perry Street,New York,NY,10014,"40.7354854,-74.0031569,02,"perry street workshop",Sundays,3:00 PM,4:30 PM,C
50 Perry Street,50 Perry Street,New York,NY,10014,"40.7354854,-74.0031569,02,"perry street workshop",Mondays,4:00 PM,5:00 PM,C
50 Perry Street,50 Perry Street,New York,NY,10014,"40.7354854,-74.0031569,02,"perry street workshop",Saturdays,4:00 PM,5:00 PM,C
50 Perry Street,50 Perry Street,New York,NY,10014,"40.7354854,-74.0031569,02,"perry street workshop",Thursdays,4:00 PM,5:00 PM,C
50 Perry Street,50 Perry Street,New York,NY,10014,"40.7354854,-74.0031569,02,"perry street workshop",Wednesdays,4:00 PM,5:00 PM,OD
50 Perry Street,50 Perry Street,New York,NY,10014,"40.7354854,-74.0031569,02,"perry street workshop",Tuesdays,4:00 PM,5:00 PM,C
50 Perry Street,50 Perry Street,New York,NY,10014,"40.7354854,-74.0031569,02,"perry street workshop",Fridays,4:00 PM,6:00 PM,C
50 Perry Street,50 Perry Street,New York,NY,10014,"40.7354854,-74.0031569,02,"perry street workshop",Thursdays,5:30 PM,6:30 PM,BB
50 Perry Street,50 Perry Street,New York,NY,10014,"40.7354854,-74.0031569,02,"perry street workshop",Mondays,6:00 PM,7:00 PM,C
50 Perry Street,50 Perry Street,New York,NY,10014,"40.7354854,-74.0031569,02,"perry street workshop",Saturdays,6:00 PM,7:00 PM,OD
50 Perry Street,50 Perry Street,New York,NY,10014,"40.7354854,-74.0031569,02,"perry street workshop",Sundays,6:00 PM,7:00 PM,C
50 Perry Street,50 Perry Street,New York,NY,10014,"40.7354854,-74.0031569,02,"perry street workshop",Fridays,6:00 PM,7:00 PM,C
50 Perry Street,50 Perry Street,New York,NY,10014,"40.7354854,-74.0031569,02,"perry street workshop",Wednesdays,6:00 PM,7:00 PM,S
50 Perry Street,50 Perry Street,New York,NY,10014,"40.7354854,-74.0031569,02,"perry street workshop",Tuesdays,6:00 PM,7:00 PM,C
50 Perry Street,50 Perry Street,New York,NY,10014,"40.7354854,-74.0031569,02,"perry street workshop",Thursdays,7:00 PM,8:00 PM,B
50 Perry Street,50 Perry Street,New York,NY,10014,"40.7354854,-74.0031569,02,"perry street workshop",Tuesdays,8:30 PM,9:30 PM,C
50 Perry Street,50 Perry Street,New York,NY,10014,"40.7354854,-74.0031569,02,"perry street workshop",Mondays,8:30 PM,9:30 PM,C
50 Perry Street,50 Perry Street,New York,NY,10014,"40.7354854,-74.0031569,02,"perry street workshop",Saturdays,8:30 PM,9:30 PM,C
50 Perry Street,50 Perry Street,New York,NY,10014,"40.7354854,-74.0031569,02,"perry street workshop",Sundays,8:30 PM,9:30 PM,C
50 Perry Street,50 Perry Street,New York,NY,10014,"40.7354854,-74.0031569,02,"perry street workshop",Thursdays,8:30 PM,9:30 PM,OD
50 Perry Street,50 Perry Street,New York,NY,10014,"40.7354854,-74.0031569,02,"perry street workshop",Fridays,8:30 PM,10:30 PM,S
50 Perry Street,50 Perry Street,New York,NY,10014,"40.7354854,-74.0031569,02,"perry street workshop",Wednesdays,8:30 PM,9:30 PM,C
50 Perry Street,50 Perry Street,New York,NY,10014,"40.7354854,-74.0031569,02,"perry street workshop",Tuesdays,10:15 PM,11:15 PM,C
50 Perry Street,50 Perry Street,New York,NY,10014,"40.7354854,-74.0031569,02,"perry street workshop",Mondays,10:15 PM,11:15 PM,C
50 Perry Street,50 Perry Street,New York,NY,10014,"40.7354854,-74.0031569,02,"perry street workshop",Thursdays,10:15 PM,11:15 PM,C
50 Perry Street,50 Perry Street,New York,NY,10014,"40.7354854,-74.0031569,02,"perry street workshop",Wednesdays,10:15 PM,11:15 PM,BB
50 Perry Street,50 Perry Street,New York,NY,10014,"40.7354854,-74.0031569,02,"perry street workshop",Sundays,10:30 PM,11:30 PM,C
50 Perry Street,50 Perry Street,New York,NY,10014,"40.7354854,-74.0031569,02,"perry street workshop",Saturdays,11:00 PM,12:00 AM,C
50 Perry Street,50 Perry Street,New York,NY,10014,"40.7354854,-74.0031569,02,"perry street workshop",Fridays,11:00 PM,12:00 AM,C
St. John's Episcopal Church,224 Waverly Place,New York,NY,10014,"40.7360657,-74.0019452,02,"red door",Sundays,7:00 PM,8:00 PM,S
St. John's Episcopal Church,224 Waverly Place,New York,NY,10014,"40.7360657,-74.0019452,02,"red door",Thursdays,7:00 PM,8:00 PM,B
St. John's Episcopal Church,224 Waverly Place,New York,NY,10014,"40.7360657,-74.0019452,02,"red door",Fridays,7:00 PM,8:00 PM,OD
St. John's Episcopal Church,224 Waverly Place,New York,NY,10014,"40.7360657,-74.0019452,02,"red door",Sundays,8:30 PM,9:30 PM,OD
St. John's Episcopal Church,224 Waverly Place,New York,NY,10014,"40.7360657,-74.0019452,02,"red door",Fridays,8:30 PM,9:30 PM,OD
St. Anthony's of Padua,154 Sullivan Street,New York,NY,10012,"40.7273786,-74.0017414,02,"room for improvement     (:i)",Mondays,7:30 AM,8:30 AM,BB
St. Anthony's of Padua,154 Sullivan Street,New York,NY,10012,"40.7273786,-74.0017414,02,"room for improvement     (:i)",Tuesdays,7:30 AM,8:30 AM,B
St. Anthony's of Padua,154 Sullivan Street,New York,NY,10012,"40.7273786,-74.0017414,02,"room for improvement     (:i)",Wednesdays,7:30 AM,8:30 AM,C
St. Anthony's of Padua,154 Sullivan Street,New York,NY,10012,"40.7273786,-74.0017414,02,"room for improvement     (:i)",Thursdays,7:30 AM,8:30 AM,C
St. Anthony's of Padua,154 Sullivan Street,New York,NY,10012,"40.7273786,-74.0017414,02,"room for improvement     (:i)",Fridays,7:30 AM,8:30 AM,S
Chinatown YMCA,273 Bowery Street,New York,NY,10012,"40.7236736,-73.9924832,02,"room for improvement     (:ii)",Sundays,7:30 AM,8:30 AM,Topic
Chinatown YMCA,273 Bowery Street,New York,NY,10012,"40.7236736,-73.9924832,02,"room for improvement     (:ii)",Saturdays,7:30 AM,8:30 AM,Topic
St. Joseph's Church,371 6th Avenue,New York,NY,10014,"40.6701581,-73.9819879,02,"sheridan square follies",Saturdays,6:00 PM,7:00 PM,B
St. Anthony of Padua Church,155 Sullivan Street,New York,NY,10012,"40.7272525,-74.0015782,02,"soho    (:i)",Fridays,6:30 PM,7:30 PM,B
St. Anthony of Padua Church,155 Sullivan Street,New York,NY,10012,"40.7272525,-74.0015782,02,"soho    (:i)",Mondays,7:00 PM,8:00 PM,B
St. Anthony of Padua Church,155 Sullivan Street,New York,NY,10012,"40.7272525,-74.0015782,02,"soho    (:i)",Fridays,8:00 PM,9:00 PM,C
St. Anthony of Padua Church,155 Sullivan Street,New York,NY,10012,"40.7272525,-74.0015782,02,"soho    (:i)",Mondays,8:30 PM,9:30 PM,S
The Bronfman Cernter @ NYU,7 East 10th Strert,New York,NY,10003,"40.7332068,-73.9946888,02,"spiritual workshop",Sundays,11:00 AM,12:15 PM,C
Seventh Adventist Church,232 West 11th Street,New York,NY,,"40.736193,-74.0028632,02,"t&a-togetherness & action",Mondays,6:30 PM,7:30 PM,Women
University Settlement @ Houston Street Center,273 Bowery,New York,NY,10002,"40.7236736,-73.9924832,02,"women together      (:ii)",Fridays,6:15 PM,7:30 PM,C
Jan Hus Church,351 East 74th Street,New York,NY,10021,"40.7694194,-73.9555151,07,"a baffled lot",Saturdays,7:30 AM,8:30 AM,OD
Jan Hus Church,351 East 74th Street,New York,NY,10021,"40.7694194,-73.9555151,07,"afternoon awakening",Mondays,2:30 PM,3:30 PM,B
Jan Hus Church,351 East 74th Street,New York,NY,10021,"40.7694194,-73.9555151,07,"afternoon awakening",Tuesdays,2:30 PM,3:30 PM,S
Jan Hus Church,351 East 74th Street,New York,NY,10021,"40.7694194,-73.9555151,07,"afternoon awakening",Wednesdays,2:30 PM,3:30 PM,BB
Jan Hus Church,351 East 74th Street,New York,NY,10021,"40.7694194,-73.9555151,07,"afternoon awakening",Thursdays,2:30 PM,3:30 PM,S
Jan Hus Church,351 East 74th Street,New York,NY,10021,"40.7694194,-73.9555151,07,"afternoon awakening",Fridays,2:30 PM,3:30 PM,S
Jan Hus Church,351 East 74th Street,New York,NY,10021,"40.7694194,-73.9555151,07,"eleventh step at jan hus",Sundays,9:00 AM,10:00 AM,S
Jan Hus Church,351 East 74th Street,New York,NY,10021,"40.7694194,-73.9555151,07,"friday central",Fridays,6:30 PM,7:30 PM,C
Jan Hus Church,351 East 74th Street,New York,NY,10021,"40.7694194,-73.9555151,07,"friday night gay men & women",Fridays,8:00 PM,9:00 PM,S
Jan Hus Church,351 East 74th Street,New York,NY,10021,"40.7694194,-73.9555151,07,"i'm all in",Tuesdays,12:30 PM,1:30 PM,B
Jan Hus Church,351 East 74th Street,New York,NY,10021,"40.7694194,-73.9555151,07,"i'm all in",Wednesdays,12:30 PM,1:30 PM,B
Jan Hus Church,351 East 74th Street,New York,NY,10021,"40.7694194,-73.9555151,07,"i'm all in",Thursdays,12:30 PM,1:30 PM,B
Jan Hus Church,351 East 74th Street,New York,NY,10021,"40.7694194,-73.9555151,07,"i'm all in",Fridays,12:30 PM,1:30 PM,B
Jan Hus Church,351 East 74th Street,New York,NY,10021,"40.7694194,-73.9555151,07,"i'm all in",Saturdays,12:30 PM,1:30 PM,B
Jan Hus Church,351 East 74th Street,New York,NY,10021,"40.7694194,-73.9555151,07,"i'm all in",Mondays,12:30 PM,1:30 PM,B
Jan Hus Church,351 East 74th Street,New York,NY,10021,"40.7694194,-73.9555151,07,"meditation (expect miracles)",Thursdays,11:00 AM,12:00 PM,OD
Jan Hus Church,351 East 74th Street,New York,NY,10021,"40.7694194,-73.9555151,07,"meditation (expect miracles)",Fridays,11:00 AM,12:00 PM,OD
Jan Hus Church,351 East 74th Street,New York,NY,10021,"40.7694194,-73.9555151,07,"meditation (expect miracles)",Mondays,11:00 AM,12:00 PM,OD
Jan Hus Church,351 East 74th Street,New York,NY,10021,"40.7694194,-73.9555151,07,"meditation (expect miracles)",Tuesdays,11:00 AM,12:00 PM,OD
Jan Hus Church,351 East 74th Street,New York,NY,10021,"40.7694194,-73.9555151,07,"meditation (expect miracles)",Wednesdays,11:00 AM,12:00 PM,OD
Jan Hus Church,351 East 74th Street,New York,NY,10021,"40.7694194,-73.9555151,07,"meditation (expect miracles)",Wednesdays,8:00 PM,9:00 PM,OD
Jan Hus Church,351 East 74th Street,New York,NY,10021,"40.7694194,-73.9555151,07,"monday women",Mondays,7:15 PM,8:15 PM,C
Jan Hus Church,351 East 74th Street,New York,NY,10021,"40.7694194,-73.9555151,07,"morning reflections",Wednesdays,9:30 AM,10:30 AM,OD
Jan Hus Church,351 East 74th Street,New York,NY,10021,"40.7694194,-73.9555151,07,"morning reflections",Thursdays,9:30 AM,10:30 AM,OD
Jan Hus Church,351 East 74th Street,New York,NY,10021,"40.7694194,-73.9555151,07,"morning reflections",Fridays,9:30 AM,10:30 AM,OD
Jan Hus Church,351 East 74th Street,New York,NY,10021,"40.7694194,-73.9555151,07,"morning reflections",Mondays,9:30 AM,10:30 AM,OD
Jan Hus Church,351 East 74th Street,New York,NY,10021,"40.7694194,-73.9555151,07,"morning reflections",Tuesdays,9:30 AM,10:30 AM,OD
Jan Hus Church,351 East 74th Street,New York,NY,10021,"40.7694194,-73.9555151,07,"open book",Mondays,7:15 PM,8:15 PM,BB
Jan Hus Church,351 East 74th Street,New York,NY,10021,"40.7694194,-73.9555151,07,"our primary purpose",Saturdays,9:30 AM,10:30 AM,S
Jan Hus Church,351 East 74th Street,New York,NY,10021,"40.7694194,-73.9555151,07,"perseverance",Saturdays,11:00 AM,12:00 PM,OD
Jan Hus Church,351 East 74th Street,New York,NY,10021,"40.7694194,-73.9555151,07,"sober women",Saturdays,9:15 AM,10:15 AM,C
Jan Hus Church,351 East 74th Street,New York,NY,10021,"40.7694194,-73.9555151,07,"we humanists",Wednesdays,6:15 PM,7:15 PM,C
Jan Hus Church,351 East 74th Street,New York,NY,10021,"40.7694194,-73.9555151,07,"wednesday east on thursday",Thursdays,8:00 PM,9:00 PM,C
Jan Hus Church,351 East 74th Street,New York,NY,10021,"40.7694194,-73.9555151,07,"yorkville-butterfield",Thursdays,8:00 PM,9:00 PM,C
Manhattan Church of Christ,48 East 80th Street,New York,NY,10021,"40.7767263,-73.9612366,07,"a.a. traditions and history",Tuesdays,7:00 PM,8:00 PM,T
St. Jean Baptiste Church,184 East 76th Street,New York,NY,10021,"40.7729024777959,-73.960301601538,07,"active",Wednesdays,6:00 PM,7:00 PM,S
Church of the Epiphany,1393 York Avenue,New York,NY,10021,"40.768415,-73.9528341,07,"atlantic eleventh step meditation",Mondays,7:15 PM,8:15 PM,S
Christ United Methodist Church,520 Park Avenue,New York,NY,10021,"40.7639426,-73.9700429,07,"atlantic group (:i)",Tuesdays,7:00 PM,8:00 PM,O
Archdiocian Cathedral of the Holy Trinity,337 East 74th St.,New York,NY,10021,"40.7696836,-73.9561119,07,"atlantic group (:ii)",Thursdays,7:00 PM,8:00 PM,B
All Souls Church,1157 Lexington Avenue,New York,NY,10075,"40.7754455,-73.9583638,07,"atlantic group (:iii)",Saturdays,6:00 PM,7:00 PM,O
Gracie Square Hospital,420 East 76th Street,New York,NY,10021,"40.7697705,-73.9529077,07,"breaking through",Fridays,6:30 PM,7:30 PM,B
Gracie Square Hospital,420 East 76th Street,New York,NY,10021,"40.7697705,-73.9529077,07,"live and let live",Tuesdays,7:00 PM,8:00 PM,B
Gracie Square Hospital,420 East 76th Street,New York,NY,10021,"40.7697705,-73.9529077,07,"live and let live",Thursdays,7:00 PM,8:00 PM,OD
Gracie Square Hospital,420 East 76th Street,New York,NY,10021,"40.7697705,-73.9529077,07,"live and let live",Tuesdays,8:30 PM,9:30 PM,C
Our Lady of Good Counsel Church,230 East 90th Street,New York,NY,10128,"40.780841,-73.9510956,07,"came to believe",Sundays,3:30 PM,4:30 PM,B
St. Thomas More Church,65 East 89th Street,New York,NY,10128,"40.78259,-73.9566571,07,"carnegie hill",Tuesdays,6:15 PM,7:15 PM,C
St. Thomas More Church,65 East 89th Street,New York,NY,10128,"40.78259,-73.9566571,07,"renewal north",Thursdays,6:30 PM,7:30 PM,OD
St. James Episcopal Church,865 Madison Avenue,New York,NY,10021,"40.7713251,-73.9655852,07,"central",Sundays,5:00 PM,5:45 PM,O
St. James Episcopal Church,865 Madison Avenue,New York,NY,10021,"40.7713251,-73.9655852,07,"central",Sundays,6:00 PM,7:00 PM,S
St. James Episcopal Church,865 Madison Avenue,New York,NY,10021,"40.7713251,-73.9655852,07,"central",Sundays,6:00 PM,7:00 PM,OD
St. James Episcopal Church,865 Madison Avenue,New York,NY,10021,"40.7713251,-73.9655852,07,"central",Sundays,7:15 PM,8:15 PM,B
St. James Episcopal Church,865 Madison Avenue,New York,NY,10021,"40.7713251,-73.9655852,07,"rhinelander",Mondays,6:00 PM,7:00 PM,OD
St. James Episcopal Church,865 Madison Avenue,New York,NY,10021,"40.7713251,-73.9655852,07,"rhinelander",Thursdays,6:00 PM,7:00 PM,S
St. James Episcopal Church,865 Madison Avenue,New York,NY,10021,"40.7713251,-73.9655852,07,"rhinelander",Thursdays,7:00 PM,8:00 PM,B
St. James Episcopal Church,865 Madison Avenue,New York,NY,10021,"40.7713251,-73.9655852,07,"rhinelander",Mondays,7:00 PM,8:00 PM,B
Immanuel Lutheran Church,1296 Lexington Avenue,New York,NY,10128,"40.7803300287851,-73.9550885355201,07,"chapter five",Mondays,7:15 AM,8:15 AM,BB
Immanuel Lutheran Church,1296 Lexington Avenue,New York,NY,10128,"40.7803300287851,-73.9550885355201,07,"chapter five",Tuesdays,7:15 AM,8:15 AM,OD
Immanuel Lutheran Church,1296 Lexington Avenue,New York,NY,10128,"40.7803300287851,-73.9550885355201,07,"chapter five",Wednesdays,7:15 AM,8:15 AM,S
Immanuel Lutheran Church,1296 Lexington Avenue,New York,NY,10128,"40.7803300287851,-73.9550885355201,07,"chapter five",Thursdays,7:15 AM,8:15 AM,OD
Immanuel Lutheran Church,1296 Lexington Avenue,New York,NY,10128,"40.7803300287851,-73.9550885355201,07,"chapter five",Fridays,7:15 AM,8:15 AM,OD
Immanuel Lutheran Church,1296 Lexington Avenue,New York,NY,10128,"40.7803300287851,-73.9550885355201,07,"chapter five",Sundays,8:00 AM,9:00 AM,OD
Immanuel Lutheran Church,1296 Lexington Avenue,New York,NY,10128,"40.7803300287851,-73.9550885355201,07,"chapter five",Saturdays,8:00 AM,9:00 AM,OD
Immanuel Lutheran Church,1296 Lexington Avenue,New York,NY,10128,"40.7803300287851,-73.9550885355201,07,"chapter five",Fridays,6:15 PM,7:30 PM,S
Immanuel Lutheran Church,1296 Lexington Avenue,New York,NY,10128,"40.7803300287851,-73.9550885355201,07,"chapter five",Sundays,7:00 PM,8:00 PM,C
Immanuel Lutheran Church,1296 Lexington Avenue,New York,NY,10128,"40.7803300287851,-73.9550885355201,07,"chapter five",Wednesdays,7:30 PM,9:00 PM,B
Immanuel Lutheran Church,1296 Lexington Avenue,New York,NY,10128,"40.7803300287851,-73.9550885355201,07,"chapter five",Thursdays,8:00 PM,9:15 PM,BB
All Souls Uniterian Church,1157 Lexington Avenue,New York,NY,10028,"40.7754455,-73.9583638,07,"fearless",Fridays,7:30 PM,8:30 PM,C
All Souls Uniterian Church,1157 Lexington Avenue,New York,NY,10028,"40.7754455,-73.9583638,07,"lex 80 step",Wednesdays,6:30 PM,7:30 PM,S
St. Thomas More Church Rectory,65 East 89th Street,New York,NY,10128,"40.78259,-73.9566571,07,"friday night men's step",Fridays,6:15 PM,7:15 PM,S
Church of Saint Thomas Moore,65 East 89th Street,New York,NY,10128,"40.78259,-73.9566571,07,"humanists too",Mondays,6:15 PM,7:15 PM,Agnostic
St. Francis de Sales Church,135 East 96th Street,New York,NY,10128,"40.7862757,-73.951491,07,"into action manhattan",Wednesdays,6:30 PM,7:30 PM,S
Jan Hus Presbyterian Church,351 East 74th Street,New York,NY,10021,"40.7694194,-73.9555151,07,"kitchen table meeting",Saturdays,11:00 AM,12:00 PM,C
Jan Hus Presbyterian Church,351 East 74th Street,New York,NY,10021,"40.7694194,-73.9555151,07,"madison 73",Saturdays,7:00 PM,8:00 PM,B
Jan Hus Presbyterian Church,351 East 74th Street,New York,NY,10021,"40.7694194,-73.9555151,07,"madison 73",Saturdays,7:00 PM,8:00 PM,S
Church of the Heavenly Rest,2 East 90th Street,New York,NY,10128,"40.7836928,-73.9578694,07,"lenox hill",Mondays,7:00 PM,8:00 PM,B
Church of the Heavenly Rest,2 East 90th Street,New York,NY,10128,"40.7836928,-73.9578694,07,"lenox hill",Mondays,7:00 PM,8:00 PM,S
Church of the Heavenly Rest,2 East 90th Street,New York,NY,10128,"40.7836928,-73.9578694,07,"lenox hill",Thursdays,7:00 PM,8:00 PM,O
Church of the Heavenly Rest,2 East 90th Street,New York,NY,10128,"40.7836928,-73.9578694,07,"lenox hill",Thursdays,8:15 PM,9:00 PM,B
Church of the Heavenly Rest,2 East 90th Street,New York,NY,10128,"40.7836928,-73.9578694,07,"lenox hill",Mondays,8:15 PM,9:00 PM,C
Church of the Heavenly Rest,2 East 90th Street,New York,NY,10128,"40.7836928,-73.9578694,07,"three twelves",Tuesdays,12:00 PM,1:00 PM,C
Church of the Heavenly Rest,2 East 90th Street,New York,NY,10128,"40.7836928,-73.9578694,07,"three twelves",Thursdays,12:00 PM,1:00 PM,C
Philomathist Center,1285 Madison Avenue,New York,NY,10128,"40.7843189,-73.9560924,07,"men's nyc big book step study",Wednesdays,7:00 PM,8:30 PM,BB
St. Ignatius Loyola School,48 East 84th Street,New York,NY,10028,"40.7790604,-73.9588788,07,"metropolitan",Saturdays,3:15 PM,4:15 PM,S
St. Ignatius Loyola School,48 East 84th Street,New York,NY,10028,"40.7790604,-73.9588788,07,"metropolitan",Sundays,6:15 PM,7:15 PM,B
St. Ignatius Loyola School,48 East 84th Street,New York,NY,10028,"40.7790604,-73.9588788,07,"metropolitan",Tuesdays,6:30 PM,7:30 PM,undefined
St. Ignatius Loyola School,48 East 84th Street,New York,NY,10028,"40.7790604,-73.9588788,07,"metropolitan",Sundays,7:30 PM,8:30 PM,S
St. Ignatius Loyola School,48 East 84th Street,New York,NY,10028,"40.7790604,-73.9588788,07,"metropolitan",Tuesdays,7:45 PM,8:45 PM,B
St. Stephen of Hungary Church,408 East 82nd Street,New York,NY,10028,"40.7738528,-73.9504699,07,"monday east topic",Mondays,7:00 PM,8:00 PM,C
Congregational Kehilath Jeshurun,125 East 85th Street,New York,NY,10028,"40.7790514,-73.956386,07,"new choices",Mondays,6:30 PM,7:30 PM,C
Congregational Kehilath Jeshurun,125 East 85th Street,New York,NY,10028,"40.7790514,-73.956386,07,"new choices",Wednesdays,6:30 PM,7:30 PM,S
Brick Church Parish House,62 East 92nd Street,New York,NY,10128,"40.7842393,-73.955258,07,"park madison",Fridays,6:45 PM,7:45 PM,C
Brick Church Parish House,62 East 92nd Street,New York,NY,10128,"40.7842393,-73.955258,07,"park madison",Tuesdays,6:45 PM,7:45 PM,B
Brick Church Parish House,62 East 92nd Street,New York,NY,10128,"40.7842393,-73.955258,07,"park madison",Tuesdays,8:00 PM,9:00 PM,C
Brick Church Parish House,62 East 92nd Street,New York,NY,10128,"40.7842393,-73.955258,07,"park madison",Fridays,8:00 PM,9:00 PM,S
St. Joseph's School,420 East 87th Street,New York,NY,10128,"40.7770465,-73.9479432,07,"recovery room",Wednesdays,7:00 PM,8:00 PM,B
Central Presbyterian Church,593 Park Avenue,New York,NY,10128,"40.765841,-73.9673386,07,"renewal east",Wednesdays,6:30 PM,7:30 PM,C
Church of the Good Shepard 543 Main St.,Church of the Good Shepard 543 Main St.,New York,NY,10044,"40.760799,-73.945729,07,"roosevelt island serenity",Saturdays,6:30 PM,7:30 PM,C
St. Monica's Church,413 East 79th Street,New York,NY,10021,"40.7721222,-73.9517608,07,"seventy-ninth street workshop",Tuesdays,6:00 AM,7:00 AM,C
St. Monica's Church,413 East 79th Street,New York,NY,10021,"40.7721222,-73.9517608,07,"seventy-ninth street workshop",Mondays,6:00 AM,7:00 AM,C
St. Monica's Church,413 East 79th Street,New York,NY,10021,"40.7721222,-73.9517608,07,"seventy-ninth street workshop",Fridays,6:00 AM,7:00 AM,BB
St. Monica's Church,413 East 79th Street,New York,NY,10021,"40.7721222,-73.9517608,07,"seventy-ninth street workshop",Thursdays,6:00 AM,7:00 AM,S
St. Monica's Church,413 East 79th Street,New York,NY,10021,"40.7721222,-73.9517608,07,"seventy-ninth street workshop",Wednesdays,6:00 AM,7:00 AM,C
St. Monica's Church,413 East 79th Street,New York,NY,10021,"40.7721222,-73.9517608,07,"seventy-ninth street workshop",Tuesdays,7:15 AM,8:15 AM,C
St. Monica's Church,413 East 79th Street,New York,NY,10021,"40.7721222,-73.9517608,07,"seventy-ninth street workshop",Mondays,7:15 AM,8:15 AM,C
St. Monica's Church,413 East 79th Street,New York,NY,10021,"40.7721222,-73.9517608,07,"seventy-ninth street workshop",Fridays,7:15 AM,8:15 AM,C
St. Monica's Church,413 East 79th Street,New York,NY,10021,"40.7721222,-73.9517608,07,"seventy-ninth street workshop",Thursdays,7:15 AM,8:15 AM,C
St. Monica's Church,413 East 79th Street,New York,NY,10021,"40.7721222,-73.9517608,07,"seventy-ninth street workshop",Wednesdays,7:15 AM,8:15 AM,C
St. Monica's Church,413 East 79th Street,New York,NY,10021,"40.7721222,-73.9517608,07,"seventy-ninth street workshop",Saturdays,8:00 AM,9:00 AM,C
St. Monica's Church,413 East 79th Street,New York,NY,10021,"40.7721222,-73.9517608,07,"seventy-ninth street workshop",Sundays,8:00 AM,9:00 AM,C
St. Monica's Church,413 East 79th Street,New York,NY,10021,"40.7721222,-73.9517608,07,"seventy-ninth street workshop",Wednesdays,8:30 AM,9:30 AM,T
St. Monica's Church,413 East 79th Street,New York,NY,10021,"40.7721222,-73.9517608,07,"seventy-ninth street workshop",Tuesdays,8:30 AM,9:30 AM,C
St. Monica's Church,413 East 79th Street,New York,NY,10021,"40.7721222,-73.9517608,07,"seventy-ninth street workshop",Mondays,8:30 AM,9:30 AM,C
St. Monica's Church,413 East 79th Street,New York,NY,10021,"40.7721222,-73.9517608,07,"seventy-ninth street workshop",Fridays,8:30 AM,9:30 AM,S
St. Monica's Church,413 East 79th Street,New York,NY,10021,"40.7721222,-73.9517608,07,"seventy-ninth street workshop",Thursdays,8:30 AM,9:30 AM,BB
St. Monica's Church,413 East 79th Street,New York,NY,10021,"40.7721222,-73.9517608,07,"seventy-ninth street workshop",Thursdays,10:00 AM,11:00 AM,T
St. Monica's Church,413 East 79th Street,New York,NY,10021,"40.7721222,-73.9517608,07,"seventy-ninth street workshop",Wednesdays,10:00 AM,11:00 AM,C
St. Monica's Church,413 East 79th Street,New York,NY,10021,"40.7721222,-73.9517608,07,"seventy-ninth street workshop",Tuesdays,10:00 AM,11:00 AM,S
St. Monica's Church,413 East 79th Street,New York,NY,10021,"40.7721222,-73.9517608,07,"seventy-ninth street workshop",Mondays,10:00 AM,11:00 AM,B
St. Monica's Church,413 East 79th Street,New York,NY,10021,"40.7721222,-73.9517608,07,"seventy-ninth street workshop",Saturdays,10:00 AM,11:00 AM,C
St. Monica's Church,413 East 79th Street,New York,NY,10021,"40.7721222,-73.9517608,07,"seventy-ninth street workshop",Sundays,10:00 AM,11:00 AM,S
St. Monica's Church,413 East 79th Street,New York,NY,10021,"40.7721222,-73.9517608,07,"seventy-ninth street workshop",Fridays,10:00 AM,11:00 AM,BB
St. Monica's Church,413 East 79th Street,New York,NY,10021,"40.7721222,-73.9517608,07,"seventy-ninth street workshop",Thursdays,12:30 PM,1:30 PM,C
St. Monica's Church,413 East 79th Street,New York,NY,10021,"40.7721222,-73.9517608,07,"seventy-ninth street workshop",Wednesdays,12:30 PM,1:30 PM,S
St. Monica's Church,413 East 79th Street,New York,NY,10021,"40.7721222,-73.9517608,07,"seventy-ninth street workshop",Tuesdays,12:30 PM,1:30 PM,C
St. Monica's Church,413 East 79th Street,New York,NY,10021,"40.7721222,-73.9517608,07,"seventy-ninth street workshop",Mondays,12:30 PM,1:30 PM,B
St. Monica's Church,413 East 79th Street,New York,NY,10021,"40.7721222,-73.9517608,07,"seventy-ninth street workshop",Saturdays,12:30 PM,1:30 PM,C
St. Monica's Church,413 East 79th Street,New York,NY,10021,"40.7721222,-73.9517608,07,"seventy-ninth street workshop",Sundays,12:30 PM,1:30 PM,C
St. Monica's Church,413 East 79th Street,New York,NY,10021,"40.7721222,-73.9517608,07,"seventy-ninth street workshop",Fridays,12:30 PM,1:30 PM,C
St. Monica's Church,413 East 79th Street,New York,NY,10021,"40.7721222,-73.9517608,07,"seventy-ninth street workshop",Saturdays,2:00 PM,3:00 PM,C
St. Monica's Church,413 East 79th Street,New York,NY,10021,"40.7721222,-73.9517608,07,"seventy-ninth street workshop",Sundays,2:00 PM,3:00 PM,C
St. Monica's Church,413 East 79th Street,New York,NY,10021,"40.7721222,-73.9517608,07,"seventy-ninth street workshop",Fridays,4:00 PM,5:00 PM,S
St. Monica's Church,413 East 79th Street,New York,NY,10021,"40.7721222,-73.9517608,07,"seventy-ninth street workshop",Thursdays,4:00 PM,5:00 PM,C
St. Monica's Church,413 East 79th Street,New York,NY,10021,"40.7721222,-73.9517608,07,"seventy-ninth street workshop",Wednesdays,4:00 PM,5:00 PM,B
St. Monica's Church,413 East 79th Street,New York,NY,10021,"40.7721222,-73.9517608,07,"seventy-ninth street workshop",Tuesdays,4:00 PM,5:00 PM,BB
St. Monica's Church,413 East 79th Street,New York,NY,10021,"40.7721222,-73.9517608,07,"seventy-ninth street workshop",Mondays,4:00 PM,5:00 PM,B
St. Monica's Church,413 East 79th Street,New York,NY,10021,"40.7721222,-73.9517608,07,"seventy-ninth street workshop",Saturdays,4:00 PM,5:00 PM,S
St. Monica's Church,413 East 79th Street,New York,NY,10021,"40.7721222,-73.9517608,07,"seventy-ninth street workshop",Sundays,4:00 PM,5:00 PM,C
St. Monica's Church,413 East 79th Street,New York,NY,10021,"40.7721222,-73.9517608,07,"seventy-ninth street workshop",Fridays,6:15 PM,7:15 PM,C
St. Monica's Church,413 East 79th Street,New York,NY,10021,"40.7721222,-73.9517608,07,"seventy-ninth street workshop",Thursdays,6:15 PM,7:15 PM,O
St. Monica's Church,413 East 79th Street,New York,NY,10021,"40.7721222,-73.9517608,07,"seventy-ninth street workshop",Wednesdays,6:15 PM,7:15 PM,B
St. Monica's Church,413 East 79th Street,New York,NY,10021,"40.7721222,-73.9517608,07,"seventy-ninth street workshop",Tuesdays,6:15 PM,7:15 PM,S
St. Monica's Church,413 East 79th Street,New York,NY,10021,"40.7721222,-73.9517608,07,"seventy-ninth street workshop",Mondays,6:15 PM,7:15 PM,T
St. Monica's Church,413 East 79th Street,New York,NY,10021,"40.7721222,-73.9517608,07,"seventy-ninth street workshop",Saturdays,6:15 PM,7:15 PM,B
St. Monica's Church,413 East 79th Street,New York,NY,10021,"40.7721222,-73.9517608,07,"seventy-ninth street workshop",Sundays,6:15 PM,7:15 PM,OD
St. Monica's Church,413 East 79th Street,New York,NY,10021,"40.7721222,-73.9517608,07,"seventy-ninth street workshop",Sundays,8:00 PM,9:00 PM,C
St. Monica's Church,413 East 79th Street,New York,NY,10021,"40.7721222,-73.9517608,07,"seventy-ninth street workshop",Fridays,8:00 PM,9:00 PM,B
St. Monica's Church,413 East 79th Street,New York,NY,10021,"40.7721222,-73.9517608,07,"seventy-ninth street workshop",Wednesdays,8:00 PM,9:00 PM,BB
St. Monica's Church,413 East 79th Street,New York,NY,10021,"40.7721222,-73.9517608,07,"seventy-ninth street workshop",Tuesdays,8:00 PM,9:00 PM,C
St. Monica's Church,413 East 79th Street,New York,NY,10021,"40.7721222,-73.9517608,07,"seventy-ninth street workshop",Saturdays,8:00 PM,9:00 PM,O
St. Monica's Church,413 East 79th Street,New York,NY,10021,"40.7721222,-73.9517608,07,"seventy-ninth street workshop",Saturdays,10:00 PM,11:00 PM,C
St. Monica's Church,413 East 79th Street,New York,NY,10021,"40.7721222,-73.9517608,07,"seventy-ninth street workshop",Sundays,10:00 PM,11:00 PM,C
St. Monica's Church,413 East 79th Street,New York,NY,10021,"40.7721222,-73.9517608,07,"seventy-ninth street workshop",Fridays,10:00 PM,11:00 PM,C
St. Monica's Church,413 East 79th Street,New York,NY,10021,"40.7721222,-73.9517608,07,"seventy-ninth street workshop",Thursdays,10:00 PM,11:00 PM,S
St. Monica's Church,413 East 79th Street,New York,NY,10021,"40.7721222,-73.9517608,07,"seventy-ninth street workshop",Tuesdays,10:00 PM,11:00 PM,C
St. Monica's Church,413 East 79th Street,New York,NY,10021,"40.7721222,-73.9517608,07,"seventy-ninth street workshop",Mondays,10:00 PM,11:00 PM,B
St. Monica's Church,413 East 79th Street,New York,NY,10021,"40.7721222,-73.9517608,07,"seventy-ninth street workshop",Wednesdays,10:00 PM,11:00 PM,C
New York Blood Center,310 East 67th Street,New York,NY,10065,"40.7651821,-73.9599207,07,"step by step",Saturdays,10:00 AM,11:00 AM,S
Lenox Hill Neighborhood House,331 East 70th St,New York,NY,10021,"40.766948,-73.9577722,07,"sunday on 70th",Sundays,10:00 AM,11:00 AM,B
Church of St. Catherine of Siena,411 East 68th Street,New York,NY,10021,"40.7651081,-73.957215,07,"sutton",Saturdays,6:30 PM,7:30 PM,OD
Holy Name Church,207 West 96th Street,New York,NY,10025,"40.7945161,-73.9710419,06,"a new day",Mondays,3:00 PM,4:00 PM,C
Holy Name Church,207 West 96th Street,New York,NY,10025,"40.7945161,-73.9710419,06,"a new day",Wednesdays,3:00 PM,4:00 PM,C
Holy Name Church,207 West 96th Street,New York,NY,10025,"40.7945161,-73.9710419,06,"altered attitudes",Fridays,9:30 PM,10:30 PM,OD
Holy Name Church,207 West 96th Street,New York,NY,10025,"40.7945161,-73.9710419,06,"broadway at 96th",Mondays,7:30 PM,8:30 PM,BB
Holy Name Church,207 West 96th Street,New York,NY,10025,"40.7945161,-73.9710419,06,"broadway at 96th",Fridays,7:30 PM,8:30 PM,O
Holy Name Church,207 West 96th Street,New York,NY,10025,"40.7945161,-73.9710419,06,"first things first",Mondays,6:00 AM,7:00 AM,OD
Holy Name Church,207 West 96th Street,New York,NY,10025,"40.7945161,-73.9710419,06,"first things first",Wednesdays,6:00 AM,7:00 AM,OD
Holy Name Church,207 West 96th Street,New York,NY,10025,"40.7945161,-73.9710419,06,"first things first",Saturdays,6:00 AM,7:00 AM,OD
Holy Name Church,207 West 96th Street,New York,NY,10025,"40.7945161,-73.9710419,06,"first things first",Thursdays,6:00 AM,7:00 AM,S
Holy Name Church,207 West 96th Street,New York,NY,10025,"40.7945161,-73.9710419,06,"first things first",Sundays,6:00 AM,7:00 AM,OD
Holy Name Church,207 West 96th Street,New York,NY,10025,"40.7945161,-73.9710419,06,"first things first",Tuesdays,6:00 AM,7:00 AM,OD
Holy Name Church,207 West 96th Street,New York,NY,10025,"40.7945161,-73.9710419,06,"first things first",Fridays,6:00 AM,7:00 AM,BB
Holy Name Church,207 West 96th Street,New York,NY,10025,"40.7945161,-73.9710419,06,"first things first",Fridays,7:15 AM,8:15 AM,C
Holy Name Church,207 West 96th Street,New York,NY,10025,"40.7945161,-73.9710419,06,"first things first",Wednesdays,7:15 AM,8:15 AM,C
Holy Name Church,207 West 96th Street,New York,NY,10025,"40.7945161,-73.9710419,06,"first things first",Saturdays,7:15 AM,8:15 AM,S
Holy Name Church,207 West 96th Street,New York,NY,10025,"40.7945161,-73.9710419,06,"first things first",Mondays,7:15 AM,8:15 AM,C
Holy Name Church,207 West 96th Street,New York,NY,10025,"40.7945161,-73.9710419,06,"first things first",Thursdays,7:15 AM,8:15 AM,C
Holy Name Church,207 West 96th Street,New York,NY,10025,"40.7945161,-73.9710419,06,"first things first",Sundays,7:15 AM,8:15 AM,C
Holy Name Church,207 West 96th Street,New York,NY,10025,"40.7945161,-73.9710419,06,"first things first",Tuesdays,7:15 AM,8:15 AM,C
Holy Name Church,207 West 96th Street,New York,NY,10025,"40.7945161,-73.9710419,06,"first things first",Fridays,8:45 AM,9:45 AM,B
Holy Name Church,207 West 96th Street,New York,NY,10025,"40.7945161,-73.9710419,06,"first things first",Wednesdays,8:45 AM,9:45 AM,B
Holy Name Church,207 West 96th Street,New York,NY,10025,"40.7945161,-73.9710419,06,"first things first",Saturdays,8:45 AM,9:45 AM,B
Holy Name Church,207 West 96th Street,New York,NY,10025,"40.7945161,-73.9710419,06,"first things first",Mondays,8:45 AM,9:45 AM,B
Holy Name Church,207 West 96th Street,New York,NY,10025,"40.7945161,-73.9710419,06,"first things first",Thursdays,8:45 AM,9:45 AM,B
Holy Name Church,207 West 96th Street,New York,NY,10025,"40.7945161,-73.9710419,06,"first things first",Sundays,8:45 AM,9:45 AM,B
Holy Name Church,207 West 96th Street,New York,NY,10025,"40.7945161,-73.9710419,06,"first things first",Tuesdays,8:45 AM,9:45 AM,B
Holy Name Church,207 West 96th Street,New York,NY,10025,"40.7945161,-73.9710419,06,"first things first",Tuesdays,10:15 AM,11:15 AM,C
Holy Name Church,207 West 96th Street,New York,NY,10025,"40.7945161,-73.9710419,06,"first things first",Fridays,10:15 AM,11:15 AM,BB
Holy Name Church,207 West 96th Street,New York,NY,10025,"40.7945161,-73.9710419,06,"first things first",Wednesdays,10:15 AM,11:15 AM,S
Holy Name Church,207 West 96th Street,New York,NY,10025,"40.7945161,-73.9710419,06,"first things first",Saturdays,10:15 AM,11:15 AM,S
Holy Name Church,207 West 96th Street,New York,NY,10025,"40.7945161,-73.9710419,06,"first things first",Mondays,10:15 AM,11:15 AM,C
Holy Name Church,207 West 96th Street,New York,NY,10025,"40.7945161,-73.9710419,06,"first things first",Thursdays,10:15 AM,11:15 AM,OD
Holy Name Church,207 West 96th Street,New York,NY,10025,"40.7945161,-73.9710419,06,"first things first",Sundays,10:15 AM,11:15 AM,T
Holy Name Church,207 West 96th Street,New York,NY,10025,"40.7945161,-73.9710419,06,"metropolis men's meeting",Sundays,5:45 PM,7:00 PM,C
Holy Name Church,207 West 96th Street,New York,NY,10025,"40.7945161,-73.9710419,06,"ninety-sixth street workshop",Sundays,10:00 PM,11:00 PM,T
Holy Name Church,207 West 96th Street,New York,NY,10025,"40.7945161,-73.9710419,06,"ninety-sixth street workshop",Mondays,10:00 PM,11:00 PM,BB
Holy Name Church,207 West 96th Street,New York,NY,10025,"40.7945161,-73.9710419,06,"ninety-sixth street workshop",Tuesdays,10:00 PM,11:00 PM,S
Holy Name Church,207 West 96th Street,New York,NY,10025,"40.7945161,-73.9710419,06,"ninety-sixth street workshop",Wednesdays,10:00 PM,11:00 PM,BB
Holy Name Church,207 West 96th Street,New York,NY,10025,"40.7945161,-73.9710419,06,"ninety-sixth street workshop",Thursdays,10:00 PM,11:00 PM,B
Holy Name Church,207 West 96th Street,New York,NY,10025,"40.7945161,-73.9710419,06,"ninety-sixth street workshop",Saturdays,10:00 PM,11:00 PM,C
Holy Name Church,207 West 96th Street,New York,NY,10025,"40.7945161,-73.9710419,06,"ninety-sixth street workshop",Fridays,11:00 PM,12:00 AM,C
Holy Name Church,207 West 96th Street,New York,NY,10025,"40.7945161,-73.9710419,06,"turn it over",Thursdays,3:30 PM,4:30 PM,B
Holy Name Church,207 West 96th Street,New York,NY,10025,"40.7945161,-73.9710419,06,"turn it over",Tuesdays,3:30 PM,4:30 PM,B
Holy Name Church,207 West 96th Street,New York,NY,10025,"40.7945161,-73.9710419,06,"turn it over",Tuesdays,4:30 PM,5:30 PM,C
Holy Name Church,207 West 96th Street,New York,NY,10025,"40.7945161,-73.9710419,06,"turn it over",Thursdays,4:30 PM,5:30 PM,C
Holy Name Church,207 West 96th Street,New York,NY,10025,"40.7945161,-73.9710419,06,"turn it over",Fridays,4:30 PM,5:30 PM,S
Holy Name Church,207 West 96th Street,New York,NY,10025,"40.7945161,-73.9710419,06,"we are not doctors (westside)",Wednesdays,4:45 PM,5:45 PM,OD
Holy Name Church,207 West 96th Street,New York,NY,10025,"40.7945161,-73.9710419,06,"writing sober",Wednesdays,6:00 PM,7:00 PM,C
Christ & St. Stephen's Church,120 West 69th Street,New York,NY,10023,"40.7756982,-73.9810333,06,"a vision for you",Fridays,7:45 PM,8:45 PM,OD
Christ & St. Stephen's Church,120 West 69th Street,New York,NY,10023,"40.7756982,-73.9810333,06,"a vision for you",Fridays,9:00 PM,10:00 PM,BB
Trinity Presbyterian Church,422 West 57th Street,New York,NY,10023,"40.7682311,-73.9868768,06,"after eight (:i)",Tuesdays,6:30 PM,7:45 PM,C
Trinity Presbyterian Church,422 West 57th Street,New York,NY,10023,"40.7682311,-73.9868768,06,"clean and dry",Sundays,5:00 PM,5:45 PM,B
Trinity Presbyterian Church,422 West 57th Street,New York,NY,10023,"40.7682311,-73.9868768,06,"clean and dry",Sundays,6:00 PM,7:00 PM,OD
Trinity Presbyterian Church,422 West 57th Street,New York,NY,10023,"40.7682311,-73.9868768,06,"fireside  (:i)  weekday meetings only",Wednesdays,12:00 PM,1:00 PM,B
Trinity Presbyterian Church,422 West 57th Street,New York,NY,10023,"40.7682311,-73.9868768,06,"fireside  (:i)  weekday meetings only",Thursdays,12:00 PM,1:00 PM,B
Trinity Presbyterian Church,422 West 57th Street,New York,NY,10023,"40.7682311,-73.9868768,06,"fireside  (:i)  weekday meetings only",Fridays,12:00 PM,1:00 PM,B
Trinity Presbyterian Church,422 West 57th Street,New York,NY,10023,"40.7682311,-73.9868768,06,"fireside  (:i)  weekday meetings only",Mondays,12:00 PM,1:00 PM,B
Trinity Presbyterian Church,422 West 57th Street,New York,NY,10023,"40.7682311,-73.9868768,06,"fireside  (:i)  weekday meetings only",Tuesdays,12:00 PM,1:00 PM,B
Trinity Presbyterian Church,422 West 57th Street,New York,NY,10023,"40.7682311,-73.9868768,06,"fireside  (:i)  weekday meetings only",Wednesdays,12:30 PM,1:30 PM,BB
Trinity Presbyterian Church,422 West 57th Street,New York,NY,10023,"40.7682311,-73.9868768,06,"fireside  (:i)  weekday meetings only",Thursdays,12:30 PM,1:30 PM,S
Trinity Presbyterian Church,422 West 57th Street,New York,NY,10023,"40.7682311,-73.9868768,06,"fireside  (:i)  weekday meetings only",Fridays,12:30 PM,1:30 PM,OD
Trinity Presbyterian Church,422 West 57th Street,New York,NY,10023,"40.7682311,-73.9868768,06,"fireside  (:i)  weekday meetings only",Mondays,12:30 PM,1:30 PM,OD
Trinity Presbyterian Church,422 West 57th Street,New York,NY,10023,"40.7682311,-73.9868768,06,"fireside  (:i)  weekday meetings only",Tuesdays,12:30 PM,1:30 PM,OD
Trinity Presbyterian Church,422 West 57th Street,New York,NY,10023,"40.7682311,-73.9868768,06,"steps and traditions on wednesday",Wednesdays,7:00 PM,8:15 PM,S
Phoenix House,164 West 74th Street,New York,NY,10023,"40.7796117,-73.9801807,06,"after eight (:ii)",Thursdays,6:30 PM,7:30 PM,C
Phoenix House,164 West 74th Street,New York,NY,10023,"40.7796117,-73.9801807,06,"routes",Saturdays,6:00 PM,7:00 PM,B
Phoenix House,164 West 74th Street,New York,NY,10023,"40.7796117,-73.9801807,06,"routes",Tuesdays,7:00 PM,8:00 PM,B
St. Gregory's Church,144 West 90th Street,New York,NY,10024,"40.7898068,-73.9723737,06,"amsterdam",Saturdays,1:00 PM,2:30 PM,B
St. Gregory's Church,144 West 90th Street,New York,NY,10024,"40.7898068,-73.9723737,06,"amsterdam",Saturdays,2:30 PM,4:00 PM,O
St. Gregory's Church,144 West 90th Street,New York,NY,10024,"40.7898068,-73.9723737,06,"amsterdam",Mondays,4:00 PM,5:30 PM,BB
St. Gregory's Church,144 West 90th Street,New York,NY,10024,"40.7898068,-73.9723737,06,"amsterdam",Tuesdays,4:00 PM,5:30 PM,OD
St. Gregory's Church,144 West 90th Street,New York,NY,10024,"40.7898068,-73.9723737,06,"amsterdam",Wednesdays,4:00 PM,5:30 PM,O
St. Gregory's Church,144 West 90th Street,New York,NY,10024,"40.7898068,-73.9723737,06,"amsterdam",Fridays,4:00 PM,5:30 PM,S
Hamilton House,141 West 73rd Street,New York,NY,10023,"40.7789036,-73.9799533,06,"ansonia",Mondays,7:00 PM,8:00 PM,C
Hamilton House,141 West 73rd Street,New York,NY,10023,"40.7789036,-73.9799533,06,"hargrave",Thursdays,7:00 PM,8:00 PM,B
Hamilton House,141 West 73rd Street,New York,NY,10023,"40.7789036,-73.9799533,06,"hargrave",Fridays,7:00 PM,8:00 PM,B
Hamilton House,141 West 73rd Street,New York,NY,10023,"40.7789036,-73.9799533,06,"hargrave",Thursdays,8:15 PM,9:15 PM,C
Fourth Universalist Church,4 West 76th Street. Meeting in the gym.,New York,NY,10023,"40.7788736,-73.9745891,06,"atlantic west step & tradition",Fridays,7:00 PM,8:00 PM,S
Church of the Ascension,221 West 107th Street,New York,NY,10025,"40.8017795,-73.9665393,06,"bloomingdale",Tuesdays,6:15 PM,7:15 PM,S
Church of the Ascension,221 West 107th Street,New York,NY,10025,"40.8017795,-73.9665393,06,"bloomingdale",Tuesdays,7:30 PM,8:30 PM,B
Holy Trinity Rectory,215 West 82nd Street,New York,NY,10024,"40.7852818734432,-73.9771060064311,06,"cadillacs for everyone",Thursdays,7:00 PM,8:00 PM,OD
Broadway Presbyterian Church,601 West 114th Street,New York,NY,10025,"40.8069051,-73.965058,06,"campus cheer",Tuesdays,12:30 PM,1:30 PM,C
Broadway Presbyterian Church,601 West 114th Street,New York,NY,10025,"40.8069051,-73.965058,06,"campus cheer",Thursdays,12:30 PM,1:30 PM,C
Universalist Church,Central Park West & 76th Street,New York,NY,10023,"40.7787712,-73.9743066,06,"central park west",Tuesdays,8:15 PM,9:30 PM,C
Universalist Church,Central Park West & 76th Street,New York,NY,10023,"40.7787712,-73.9743066,06,"chock full of sobriety",Fridays,6:30 PM,7:30 PM,C
Universalist Church,Central Park West & 76th Street,New York,NY,10023,"40.7787712,-73.9743066,06,"women's westside topic",Tuesdays,6:30 PM,7:30 PM,C
West Side YMCA at 63rd Street,5 West 63rd Street,New York,NY,10023,"40.7708644,-73.9806413,06,"chelsea riverside",Mondays,7:30 PM,8:45 PM,O
West Side YMCA at 63rd Street,5 West 63rd Street,New York,NY,10023,"40.7708644,-73.9806413,06,"chelsea riverside",Mondays,9:00 PM,10:00 PM,B
West Side YMCA at 63rd Street,5 West 63rd Street,New York,NY,10023,"40.7708644,-73.9806413,06,"chelsea riverside",Mondays,10:15 PM,11:15 PM,C
Fourth Universalist Society,160 Central Park West,New York,NY,10023,"40.7787712,-73.9743066,06,"classen hall     (:ii)",Sundays,6:00 PM,7:00 PM,B
Good Shepherd Faith Church,152 West 66th Street,New York,NY,10023,"40.7744405,-73.9838262,06,"classen hall step meeting  ( :i )",Sundays,6:15 PM,7:45 PM,S
Second Presbyterian Church,3 West 95th Street,New York,NY,10025,"40.7912379,-73.9655109,06,"columbus at five",Saturdays,5:00 PM,6:00 PM,C
Second Presbyterian Church,3 West 95th Street,New York,NY,10025,"40.7912379,-73.9655109,06,"columbus at five",Sundays,5:00 PM,6:00 PM,C
Second Presbyterian Church,3 West 95th Street,New York,NY,10025,"40.7912379,-73.9655109,06,"columbus at five",Fridays,7:00 PM,8:00 PM,C
All Angels Church,251 West 80th Street,New York,NY,10024,"40.7848713,-73.9800524,06,"eightieth street beginners",Fridays,7:30 PM,8:45 PM,C
Hargrave House,111 West 71st Street,New York,NY,10023,"40.7769516,-73.9795507,06,"fast break",Fridays,7:00 AM,8:00 AM,C
Hargrave House,111 West 71st Street,New York,NY,10023,"40.7769516,-73.9795507,06,"fast break",Mondays,7:00 AM,8:00 AM,C
Hargrave House,111 West 71st Street,New York,NY,10023,"40.7769516,-73.9795507,06,"fast break",Tuesdays,7:00 AM,8:00 AM,C
Hargrave House,111 West 71st Street,New York,NY,10023,"40.7769516,-73.9795507,06,"fast break",Wednesdays,7:00 AM,8:00 AM,C
Hargrave House,111 West 71st Street,New York,NY,10023,"40.7769516,-73.9795507,06,"fast break",Thursdays,7:00 AM,8:00 AM,S
Hargrave House,111 West 71st Street,New York,NY,10023,"40.7769516,-73.9795507,06,"fast break",Fridays,8:15 AM,9:15 AM,C
Hargrave House,111 West 71st Street,New York,NY,10023,"40.7769516,-73.9795507,06,"fast break",Mondays,8:15 AM,9:15 AM,C
Hargrave House,111 West 71st Street,New York,NY,10023,"40.7769516,-73.9795507,06,"fast break",Tuesdays,8:15 AM,9:15 AM,C
Hargrave House,111 West 71st Street,New York,NY,10023,"40.7769516,-73.9795507,06,"fast break",Wednesdays,8:15 AM,9:15 AM,C
Hargrave House,111 West 71st Street,New York,NY,10023,"40.7769516,-73.9795507,06,"fast break",Thursdays,8:15 AM,9:15 AM,C
West Side YMCA,5 West 63rd Street,New York,NY,10023,"40.7708644,-73.9806413,06,"fast break weekend",Sundays,8:00 AM,9:00 AM,C
West Side YMCA,5 West 63rd Street,New York,NY,10023,"40.7708644,-73.9806413,06,"fast break weekend",Saturdays,8:00 AM,9:00 AM,C
West Side YMCA,5 West 63rd Street,New York,NY,10023,"40.7708644,-73.9806413,06,"fireside  (:ii)  weekend meetings only",Saturdays,10:30 AM,11:30 AM,S
West Side YMCA,5 West 63rd Street,New York,NY,10023,"40.7708644,-73.9806413,06,"fireside  (:ii)  weekend meetings only",Sundays,12:30 PM,1:30 PM,B
West Side YMCA,5 West 63rd Street,New York,NY,10023,"40.7708644,-73.9806413,06,"fireside  (:ii)  weekend meetings only",Saturdays,12:30 PM,1:30 PM,S
West Side YMCA,5 West 63rd Street,New York,NY,10023,"40.7708644,-73.9806413,06,"promises promises",Saturdays,6:30 PM,7:30 PM,C
West Side YMCA,5 West 63rd Street,New York,NY,10023,"40.7708644,-73.9806413,06,"sunday men's topic",Sundays,10:30 AM,11:30 AM,C
Church of St. Matthew and St. Timothy,26 West 84th Street,New York,NY,10024,"40.7844228,-73.9716168,06,"friday night step",Fridays,6:30 PM,7:45 PM,S
Holy Name School,200 West 97th Street,New York,NY,10025,"40.7946604892952,-73.9699229082063,06,"grupo camino real",Sundays,4:30 PM,5:30 PM,OD
Holy Name School,200 West 97th Street,New York,NY,10025,"40.7946604892952,-73.9699229082063,06,"grupo camino real",Thursdays,7:00 PM,8:00 PM,C
Grace House,218 West 108th Street,New York,NY,10025,"40.8021037,-73.9658778,06,"grupo dulces 24",Mondays,7:30 PM,8:30 PM,OD
Grace House,218 West 108th Street,New York,NY,10025,"40.8021037,-73.9658778,06,"grupo dulces 24",Wednesdays,7:30 PM,8:30 PM,C
Grace House,218 West 108th Street,New York,NY,10025,"40.8021037,-73.9658778,06,"grupo dulces 24",Fridays,7:30 PM,8:30 PM,OD
Grace House,218 West 108th Street,New York,NY,10025,"40.8021037,-73.9658778,06,"grupo dulces 24",Sundays,7:30 PM,8:30 PM,O
Iglesia Metodista Grace,125 West 104th Street,New York,NY,10025,"40.7985878,-73.9649967,06,"grupo luz divina",Tuesdays,7:30 PM,8:30 PM,O
Rutgers Church,236 West 73rd Street,New York,NY,10023,"40.7796494,-73.982239,06,"lambda west",Saturdays,6:00 PM,7:00 PM,S
Rutgers Church,236 West 73rd Street,New York,NY,10023,"40.7796494,-73.982239,06,"lambda west",Wednesdays,6:00 PM,7:00 PM,OD
Rutgers Church,236 West 73rd Street,New York,NY,10023,"40.7796494,-73.982239,06,"lambda west",Wednesdays,7:15 PM,8:15 PM,B
Rutgers Church,236 West 73rd Street,New York,NY,10023,"40.7796494,-73.982239,06,"lambda west",Wednesdays,8:30 PM,9:30 PM,C
West End Presbyterian Church,165 West 105th Street,New York,NY,10025,"40.7996866,-73.9657282,06,"manhattan valley",Wednesdays,7:00 PM,8:00 PM,B
Holy Name Church Rectory,207 West 96th Street,New York,NY,10025,"40.7945161,-73.9710419,06,"mid-day cheer",Fridays,1:00 PM,2:00 PM,S
Holy Name Church Rectory,207 West 96th Street,New York,NY,10025,"40.7945161,-73.9710419,06,"mid-day cheer",Mondays,1:00 PM,2:15 PM,S
Holy Name Church Rectory,207 West 96th Street,New York,NY,10025,"40.7945161,-73.9710419,06,"mid-day cheer",Tuesdays,1:00 PM,2:15 PM,BB
Holy Name Church Rectory,207 West 96th Street,New York,NY,10025,"40.7945161,-73.9710419,06,"mid-day cheer",Wednesdays,1:00 PM,2:15 PM,OD
Holy Name Church Rectory,207 West 96th Street,New York,NY,10025,"40.7945161,-73.9710419,06,"mid-day cheer",Thursdays,1:00 PM,2:15 PM,C
Advent Lutheran Church,2504 Broadway,New York,NY,10025,"40.7927534,-73.972842,06,"morningside",Saturdays,6:30 PM,7:30 PM,B
Advent Lutheran Church,2504 Broadway,New York,NY,10025,"40.7927534,-73.972842,06,"morningside",Saturdays,8:00 PM,9:00 PM,OD
Advent Lutheran Church,2504 Broadway,New York,NY,10025,"40.7927534,-73.972842,06,"morningside",Saturdays,8:00 PM,9:00 PM,S
Advent Lutheran Church,2504 Broadway,New York,NY,10025,"40.7927534,-73.972842,06,"morningside",Saturdays,9:15 PM,10:15 PM,OD
Church of Notre Dame,405 West 114th Street,New York,NY,10025,"40.7946083,-73.9358608,06,"morningside heights beginners",Wednesdays,6:30 PM,7:30 PM,B
Church of Notre Dame,405 West 114th Street,New York,NY,10025,"40.7946083,-73.9358608,06,"morningside heights beginners",Fridays,6:30 PM,7:30 PM,B
West End Collegiate Church,368 West End Ave,New York,NY,10024,"40.783225,-73.9817572,06,"never too late",Tuesdays,7:30 PM,8:30 PM,C
West End Collegiate Church,368 West End Ave,New York,NY,10024,"40.783225,-73.9817572,06,"smithereens",Wednesdays,7:00 PM,8:00 PM,B
West End Collegiate Church,368 West End Ave,New York,NY,10024,"40.783225,-73.9817572,06,"smithereens",Wednesdays,8:15 PM,9:15 PM,S
St. Michael's Parish House,225 West 99th Street,New York,NY,10025,"40.7964452,-73.9694226,06,"night light",Mondays,6:30 PM,7:30 PM,S
Anshe Chesed Synagogue,251 West 100th Street,New York,NY,10025,"40.7977791,-73.9709911,06,"night light beginners",Thursdays,6:00 PM,7:00 PM,B
Church of St. Matthew & St. Timothy,26 West 84th Street,New York,NY,10024,"40.7844228,-73.9716168,06,"oxford  (:i)",s,12:00 AM,12:00 AM,undefined
Church of St. Matthew & St. Timothy,26 West 84th Street,New York,NY,10024,"40.7844228,-73.9716168,06,"oxford  (:i)",Mondays,7:30 PM,8:30 PM,C
Church of St. Matthew & St. Timothy,26 West 84th Street,New York,NY,10024,"40.7844228,-73.9716168,06,"oxford  (:i)",Wednesdays,7:30 PM,8:30 PM,O
Church of St. Matthew & St. Timothy,26 West 84th Street,New York,NY,10024,"40.7844228,-73.9716168,06,"oxford  (:i)",Thursdays,7:30 PM,8:30 PM,BB
St. Ignatius Church,552 West End Avenue,New York,NY,10024,"40.78931,-73.9773114,06,"renewal west",Sundays,7:00 PM,8:00 PM,B
Volunteers of America,340 West 85th Street,New York,NY,10024,"40.7887343,-73.9798639,06,"rude awakening",Wednesdays,8:30 PM,9:30 PM,C
Blessed Sacrament Church Rectory,152 West 71st Street,New York,NY,10023,"40.7774259,-73.9812051,06,"sober stepping",Saturdays,6:30 PM,7:30 PM,S
Blessed Sacrament Church Rectory,152 West 71st Street,New York,NY,10023,"40.7774259,-73.9812051,06,"way of life",Saturdays,10:00 AM,11:00 AM,C
Blessed Sacrament Church Rectory,152 West 71st Street,New York,NY,10023,"40.7774259,-73.9812051,06,"way of life",Saturdays,11:15 AM,12:15 PM,C
Blessed Sacrament Church Rectory,152 West 71st Street,New York,NY,10023,"40.7774259,-73.9812051,06,"westside step",Fridays,7:00 PM,8:00 PM,S
131 West 72nd Street,131 West 72nd Street,New York,NY,10023,"40.7780247,-73.9798344,06,"sunday west",Sundays,12:00 PM,1:00 PM,C
Stephen Wise Free Synagogue,30 West 68th Street,New York,NY,10023,"40.7740859,-73.979107,06,"we agnostics of nyc",Thursdays,6:15 PM,7:15 PM,C
Church of St. Paul & St. Andrew,263 West 86th Street,New York,NY,10024,"40.7887918,-73.9772649,06,"west end",Thursdays,7:00 PM,8:00 PM,B
Church of St. Paul & St. Andrew,263 West 86th Street,New York,NY,10024,"40.7887918,-73.9772649,06,"west end",Thursdays,7:00 PM,8:00 PM,S
Church of St. Paul & St. Andrew,263 West 86th Street,New York,NY,10024,"40.7887918,-73.9772649,06,"west end",Tuesdays,7:00 PM,8:00 PM,B
Church of St. Paul & St. Andrew,263 West 86th Street,New York,NY,10024,"40.7887918,-73.9772649,06,"west end",Tuesdays,7:00 PM,8:00 PM,BB
Addiction Institute,306 West 102nd Street,New York,NY,10025,"40.7992334,-73.9710638,06,"westside 11th step meditation workshop",Wednesdays,7:00 PM,8:00 PM,C
Church of St.Matthew & St. Timothy,26 West 84th Street,New York,NY,10024,"40.7844228,-73.9716168,06,"westside young people",Saturdays,7:00 PM,8:00 PM,B
Goddard Riverside Community Center,595 Columbus Avenue,New York,NY,10024,"40.7879892,-73.9707609,06,"without a prayer",Saturdays,5:00 PM,6:00 PM,OD
Trinity Halfway House,306 West 102nd Street,New York,NY,10025,"40.7992334,-73.9710638,06,"women living sober",Wednesdays,9:00 AM,10:00 AM,C
Trinity Halfway House,306 West 102nd Street,New York,NY,10025,"40.7992334,-73.9710638,06,"women living sober",Saturdays,9:00 AM,10:00 AM,C
Blessed Sacrament (Rectory),152 West 71st Street,New York,NY,10023,"40.7774259,-73.9812051,06,"women's beginning literature",Thursdays,12:00 PM,1:00 PM,C
Blessed Sacrament (Rectory),152 West 71st Street,New York,NY,10023,"40.7774259,-73.9812051,06,"women's beginning literature",Mondays,12:00 PM,1:15 PM,C
Blessed Sacrament (Rectory),152 West 71st Street,New York,NY,10023,"40.7774259,-73.9812051,06,"women's beginning literature",Wednesdays,12:30 PM,1:30 PM,B
Blessed Sacrament (Rectory),152 West 71st Street,New York,NY,10023,"40.7774259,-73.9812051,06,"women's tell it like it is",Mondays,12:00 PM,1:15 PM,C
152 west 71st street,152 west 71st street,New York,NY,,"40.7774259,-73.9812051,06,"women's eleventh step meeting",Mondays,12:00 PM,1:00 PM,OD
46th Street Club House,252 West 46th Street,New York,NY,10036,"40.7593831,-73.9872329,04,"4 the grace",Sundays,4:00 PM,5:00 PM,BB
46th Street Club House,252 West 46th Street,New York,NY,10036,"40.7593831,-73.9872329,04,"4 the grace",Mondays,4:00 PM,5:00 PM,BB
46th Street Club House,252 West 46th Street,New York,NY,10036,"40.7593831,-73.9872329,04,"4 the grace",Tuesdays,4:00 PM,5:00 PM,BB
46th Street Club House,252 West 46th Street,New York,NY,10036,"40.7593831,-73.9872329,04,"4 the grace",Wednesdays,4:00 PM,5:00 PM,BB
46th Street Club House,252 West 46th Street,New York,NY,10036,"40.7593831,-73.9872329,04,"4 the grace",Thursdays,4:00 PM,5:00 PM,BB
46th Street Club House,252 West 46th Street,New York,NY,10036,"40.7593831,-73.9872329,04,"4 the grace",Fridays,4:00 PM,5:00 PM,BB
46th Street Club House,252 West 46th Street,New York,NY,10036,"40.7593831,-73.9872329,04,"4 the grace",Saturdays,4:00 PM,5:00 PM,BB
46th Street Club House,252 West 46th Street,New York,NY,10036,"40.7593831,-73.9872329,04,"beginners",Mondays,1:30 PM,2:30 PM,B
46th Street Club House,252 West 46th Street,New York,NY,10036,"40.7593831,-73.9872329,04,"beginners",Tuesdays,1:30 PM,2:30 PM,B
46th Street Club House,252 West 46th Street,New York,NY,10036,"40.7593831,-73.9872329,04,"beginners",Wednesdays,1:30 PM,2:30 PM,B
46th Street Club House,252 West 46th Street,New York,NY,10036,"40.7593831,-73.9872329,04,"beginners",Thursdays,1:30 PM,2:30 PM,B
46th Street Club House,252 West 46th Street,New York,NY,10036,"40.7593831,-73.9872329,04,"beginners",Fridays,1:30 PM,2:30 PM,B
46th Street Club House,252 West 46th Street,New York,NY,10036,"40.7593831,-73.9872329,04,"beginners",Saturdays,1:30 PM,2:30 PM,B
46th Street Club House,252 West 46th Street,New York,NY,10036,"40.7593831,-73.9872329,04,"beginners",Sundays,2:45 PM,3:45 PM,B
46th Street Club House,252 West 46th Street,New York,NY,10036,"40.7593831,-73.9872329,04,"beginners",Mondays,2:45 PM,3:45 PM,B
46th Street Club House,252 West 46th Street,New York,NY,10036,"40.7593831,-73.9872329,04,"beginners",Tuesdays,2:45 PM,3:45 PM,B
46th Street Club House,252 West 46th Street,New York,NY,10036,"40.7593831,-73.9872329,04,"beginners",Wednesdays,2:45 PM,3:45 PM,B
46th Street Club House,252 West 46th Street,New York,NY,10036,"40.7593831,-73.9872329,04,"beginners",Thursdays,2:45 PM,3:45 PM,B
46th Street Club House,252 West 46th Street,New York,NY,10036,"40.7593831,-73.9872329,04,"beginners",Fridays,2:45 PM,3:45 PM,B
46th Street Club House,252 West 46th Street,New York,NY,10036,"40.7593831,-73.9872329,04,"beginners",Saturdays,2:45 PM,3:45 PM,B
46th Street Club House,252 West 46th Street,New York,NY,10036,"40.7593831,-73.9872329,04,"d.i.v.a.  (divinely inspired vivacious alcoholics)",Saturdays,12:00 PM,1:00 PM,C
46th Street Club House,252 West 46th Street,New York,NY,10036,"40.7593831,-73.9872329,04,"forty-five solutions",Saturdays,10:30 PM,11:30 PM,C
46th Street Club House,252 West 46th Street,New York,NY,10036,"40.7593831,-73.9872329,04,"forty-five solutions",Sundays,10:30 PM,11:30 PM,C
46th Street Club House,252 West 46th Street,New York,NY,10036,"40.7593831,-73.9872329,04,"forty-five solutions",Mondays,10:30 PM,11:30 PM,C
46th Street Club House,252 West 46th Street,New York,NY,10036,"40.7593831,-73.9872329,04,"forty-five solutions",Tuesdays,10:30 PM,11:30 PM,C
46th Street Club House,252 West 46th Street,New York,NY,10036,"40.7593831,-73.9872329,04,"forty-five solutions",Wednesdays,10:30 PM,11:30 PM,C
46th Street Club House,252 West 46th Street,New York,NY,10036,"40.7593831,-73.9872329,04,"forty-five solutions",Thursdays,10:30 PM,11:30 PM,C
46th Street Club House,252 West 46th Street,New York,NY,10036,"40.7593831,-73.9872329,04,"forty-five solutions",Fridays,10:30 PM,11:30 PM,C
46th Street Club House,252 West 46th Street,New York,NY,10036,"40.7593831,-73.9872329,04,"joe and charlie cd meeting",Mondays,9:15 PM,10:15 PM,B
46th Street Club House,252 West 46th Street,New York,NY,10036,"40.7593831,-73.9872329,04,"promises",Thursdays,9:15 PM,10:15 PM,S
46th Street Club House,252 West 46th Street,New York,NY,10036,"40.7593831,-73.9872329,04,"rainbow room",Saturdays,5:30 PM,6:30 PM,C
46th Street Club House,252 West 46th Street,New York,NY,10036,"40.7593831,-73.9872329,04,"rainbow room",Wednesdays,5:30 PM,6:30 PM,C
46th Street Club House,252 West 46th Street,New York,NY,10036,"40.7593831,-73.9872329,04,"rainbow room",Sundays,5:30 PM,6:30 PM,S
46th Street Club House,252 West 46th Street,New York,NY,10036,"40.7593831,-73.9872329,04,"rainbow room",Thursdays,5:30 PM,6:30 PM,C
46th Street Club House,252 West 46th Street,New York,NY,10036,"40.7593831,-73.9872329,04,"rainbow room",Mondays,5:30 PM,6:30 PM,C
46th Street Club House,252 West 46th Street,New York,NY,10036,"40.7593831,-73.9872329,04,"rainbow room",Fridays,5:30 PM,6:30 PM,C
46th Street Club House,252 West 46th Street,New York,NY,10036,"40.7593831,-73.9872329,04,"rainbow room",Tuesdays,5:30 PM,6:30 PM,C
46th Street Club House,252 West 46th Street,New York,NY,10036,"40.7593831,-73.9872329,04,"rainbow room",Saturdays,6:45 PM,7:45 PM,B
46th Street Club House,252 West 46th Street,New York,NY,10036,"40.7593831,-73.9872329,04,"rainbow room",Wednesdays,6:45 PM,7:45 PM,OD
46th Street Club House,252 West 46th Street,New York,NY,10036,"40.7593831,-73.9872329,04,"rainbow room",Sundays,6:45 PM,7:45 PM,C
46th Street Club House,252 West 46th Street,New York,NY,10036,"40.7593831,-73.9872329,04,"rainbow room",Mondays,6:45 PM,7:45 PM,OD
46th Street Club House,252 West 46th Street,New York,NY,10036,"40.7593831,-73.9872329,04,"rainbow room",Fridays,6:45 PM,7:45 PM,OD
46th Street Club House,252 West 46th Street,New York,NY,10036,"40.7593831,-73.9872329,04,"rainbow room",Tuesdays,6:45 PM,7:45 PM,OD
46th Street Club House,252 West 46th Street,New York,NY,10036,"40.7593831,-73.9872329,04,"rainbow room",Thursdays,6:45 PM,7:45 PM,OD
46th Street Club House,252 West 46th Street,New York,NY,10036,"40.7593831,-73.9872329,04,"rainbow room",Tuesdays,8:00 PM,9:00 PM,BB
46th Street Club House,252 West 46th Street,New York,NY,10036,"40.7593831,-73.9872329,04,"rainbow room",Saturdays,8:00 PM,9:00 PM,O
46th Street Club House,252 West 46th Street,New York,NY,10036,"40.7593831,-73.9872329,04,"rainbow room",Sundays,8:00 PM,9:00 PM,BB
46th Street Club House,252 West 46th Street,New York,NY,10036,"40.7593831,-73.9872329,04,"rainbow room",Thursdays,8:00 PM,9:00 PM,O
46th Street Club House,252 West 46th Street,New York,NY,10036,"40.7593831,-73.9872329,04,"rainbow room",Mondays,8:00 PM,9:00 PM,O
46th Street Club House,252 West 46th Street,New York,NY,10036,"40.7593831,-73.9872329,04,"rainbow room",Fridays,8:00 PM,9:00 PM,S
46th Street Club House,252 West 46th Street,New York,NY,10036,"40.7593831,-73.9872329,04,"rainbow room",Wednesdays,8:00 PM,9:00 PM,C
46th Street Club House,252 West 46th Street,New York,NY,10036,"40.7593831,-73.9872329,04,"saturday rotating 12 step",Saturdays,9:15 PM,10:15 PM,S
46th Street Club House,252 West 46th Street,New York,NY,10036,"40.7593831,-73.9872329,04,"sunday night beginners",Sundays,9:15 PM,10:15 PM,B
46th Street Club House,252 West 46th Street,New York,NY,10036,"40.7593831,-73.9872329,04,"young people's meeting",Fridays,9:15 PM,10:15 PM,BB
303 West 42nd Street,303 West 42nd Street,New York,NY,10036,"40.7575385,-73.9901368,04,"42nd at 9:00pm",Mondays,9:15 PM,10:15 PM,BB
303 West 42nd Street,303 West 42nd Street,New York,NY,10036,"40.7575385,-73.9901368,04,"42nd at 9:00pm",Wednesdays,9:15 PM,10:15 PM,C
303 West 42nd Street,303 West 42nd Street,New York,NY,10036,"40.7575385,-73.9901368,04,"42nd at 9:00pm",Thursdays,9:15 PM,10:15 PM,S
303 West 42nd Street,303 West 42nd Street,New York,NY,10036,"40.7575385,-73.9901368,04,"42nd at 9:00pm",Fridays,9:15 PM,10:15 PM,S
303 West 42nd Street,303 West 42nd Street,New York,NY,10036,"40.7575385,-73.9901368,04,"42nd at 9:00pm",Saturdays,9:15 PM,10:15 PM,C
303 West 42nd Street,303 West 42nd Street,New York,NY,10036,"40.7575385,-73.9901368,04,"42nd at 9:00pm",Sundays,9:15 PM,10:15 PM,OD
303 West 42nd Street,303 West 42nd Street,New York,NY,10036,"40.7575385,-73.9901368,04,"42nd at 9:00pm",Tuesdays,9:15 PM,10:30 PM,S
303 West 42nd Street,303 West 42nd Street,New York,NY,10036,"40.7575385,-73.9901368,04,"a new freedom",Wednesdays,8:00 AM,9:00 AM,OD
303 West 42nd Street,303 West 42nd Street,New York,NY,10036,"40.7575385,-73.9901368,04,"a new freedom",Thursdays,8:00 AM,9:00 AM,C
303 West 42nd Street,303 West 42nd Street,New York,NY,10036,"40.7575385,-73.9901368,04,"a new freedom",Fridays,8:00 AM,9:00 AM,T
303 West 42nd Street,303 West 42nd Street,New York,NY,10036,"40.7575385,-73.9901368,04,"a new freedom",Saturdays,8:00 AM,9:00 AM,OD
303 West 42nd Street,303 West 42nd Street,New York,NY,10036,"40.7575385,-73.9901368,04,"a new freedom",Sundays,8:00 AM,9:00 AM,S
303 West 42nd Street,303 West 42nd Street,New York,NY,10036,"40.7575385,-73.9901368,04,"a new freedom",Mondays,8:00 AM,9:00 AM,S
303 West 42nd Street,303 West 42nd Street,New York,NY,10036,"40.7575385,-73.9901368,04,"a new freedom",Tuesdays,8:00 AM,9:00 AM,BB
303 West 42nd Street,303 West 42nd Street,New York,NY,10036,"40.7575385,-73.9901368,04,"alanon house   (aa meetings only)",Mondays,12:00 PM,1:00 PM,C
303 West 42nd Street,303 West 42nd Street,New York,NY,10036,"40.7575385,-73.9901368,04,"alanon house   (aa meetings only)",Thursdays,12:00 PM,1:00 PM,C
303 West 42nd Street,303 West 42nd Street,New York,NY,10036,"40.7575385,-73.9901368,04,"alanon house   (aa meetings only)",Saturdays,12:00 PM,1:00 PM,B
303 West 42nd Street,303 West 42nd Street,New York,NY,10036,"40.7575385,-73.9901368,04,"alanon house   (aa meetings only)",Tuesdays,12:00 PM,1:00 PM,C
303 West 42nd Street,303 West 42nd Street,New York,NY,10036,"40.7575385,-73.9901368,04,"alanon house   (aa meetings only)",Sundays,12:00 PM,1:00 PM,C
303 West 42nd Street,303 West 42nd Street,New York,NY,10036,"40.7575385,-73.9901368,04,"alanon house   (aa meetings only)",Wednesdays,12:00 PM,1:00 PM,C
303 West 42nd Street,303 West 42nd Street,New York,NY,10036,"40.7575385,-73.9901368,04,"alanon house   (aa meetings only)",Fridays,12:00 PM,1:00 PM,C
303 West 42nd Street,303 West 42nd Street,New York,NY,10036,"40.7575385,-73.9901368,04,"alanon house   (aa meetings only)",Sundays,2:00 PM,3:00 PM,C
303 West 42nd Street,303 West 42nd Street,New York,NY,10036,"40.7575385,-73.9901368,04,"alanon house   (aa meetings only)",Mondays,2:30 PM,3:30 PM,C
303 West 42nd Street,303 West 42nd Street,New York,NY,10036,"40.7575385,-73.9901368,04,"alanon house   (aa meetings only)",Saturdays,2:30 PM,3:30 PM,C
303 West 42nd Street,303 West 42nd Street,New York,NY,10036,"40.7575385,-73.9901368,04,"alanon house   (aa meetings only)",Thursdays,2:30 PM,3:30 PM,C
303 West 42nd Street,303 West 42nd Street,New York,NY,10036,"40.7575385,-73.9901368,04,"alanon house   (aa meetings only)",Tuesdays,2:30 PM,3:30 PM,C
303 West 42nd Street,303 West 42nd Street,New York,NY,10036,"40.7575385,-73.9901368,04,"alanon house   (aa meetings only)",Wednesdays,2:30 PM,3:30 PM,C
303 West 42nd Street,303 West 42nd Street,New York,NY,10036,"40.7575385,-73.9901368,04,"alanon house   (aa meetings only)",Fridays,2:30 PM,3:30 PM,C
303 West 42nd Street,303 West 42nd Street,New York,NY,10036,"40.7575385,-73.9901368,04,"alanon house   (aa meetings only)",Mondays,6:15 PM,7:15 PM,C
303 West 42nd Street,303 West 42nd Street,New York,NY,10036,"40.7575385,-73.9901368,04,"alanon house   (aa meetings only)",Saturdays,6:15 PM,7:15 PM,C
303 West 42nd Street,303 West 42nd Street,New York,NY,10036,"40.7575385,-73.9901368,04,"alanon house   (aa meetings only)",Thursdays,6:15 PM,7:15 PM,S
303 West 42nd Street,303 West 42nd Street,New York,NY,10036,"40.7575385,-73.9901368,04,"alanon house   (aa meetings only)",Tuesdays,6:15 PM,7:15 PM,C
303 West 42nd Street,303 West 42nd Street,New York,NY,10036,"40.7575385,-73.9901368,04,"alanon house   (aa meetings only)",Sundays,6:15 PM,7:15 PM,C
303 West 42nd Street,303 West 42nd Street,New York,NY,10036,"40.7575385,-73.9901368,04,"alanon house   (aa meetings only)",Wednesdays,6:15 PM,7:15 PM,C
303 West 42nd Street,303 West 42nd Street,New York,NY,10036,"40.7575385,-73.9901368,04,"alanon house   (aa meetings only)",Fridays,6:15 PM,7:15 PM,C
303 West 42nd Street,303 West 42nd Street,New York,NY,10036,"40.7575385,-73.9901368,04,"alanon house   (aa meetings only)",Fridays,8:00 PM,9:00 PM,C
303 West 42nd Street,303 West 42nd Street,New York,NY,10036,"40.7575385,-73.9901368,04,"alanon house   (aa meetings only)",Mondays,8:00 PM,9:00 PM,C
303 West 42nd Street,303 West 42nd Street,New York,NY,10036,"40.7575385,-73.9901368,04,"alanon house   (aa meetings only)",Saturdays,8:00 PM,9:00 PM,C
303 West 42nd Street,303 West 42nd Street,New York,NY,10036,"40.7575385,-73.9901368,04,"alanon house   (aa meetings only)",Thursdays,8:00 PM,9:00 PM,C
303 West 42nd Street,303 West 42nd Street,New York,NY,10036,"40.7575385,-73.9901368,04,"alanon house   (aa meetings only)",Sundays,8:00 PM,9:00 PM,C
303 West 42nd Street,303 West 42nd Street,New York,NY,10036,"40.7575385,-73.9901368,04,"alanon house   (aa meetings only)",Wednesdays,8:00 PM,9:00 PM,C
303 West 42nd Street,303 West 42nd Street,New York,NY,10036,"40.7575385,-73.9901368,04,"henry hudson",Tuesdays,7:30 PM,8:30 PM,BB
303 West 42nd Street,303 West 42nd Street,New York,NY,10036,"40.7575385,-73.9901368,04,"midnight in midtown",Sundays,12:00 AM,1:00 AM,S
303 West 42nd Street,303 West 42nd Street,New York,NY,10036,"40.7575385,-73.9901368,04,"midnight in midtown",Mondays,12:00 AM,1:00 AM,C
303 West 42nd Street,303 West 42nd Street,New York,NY,10036,"40.7575385,-73.9901368,04,"midnight in midtown",Tuesdays,12:00 AM,1:00 AM,BB
303 West 42nd Street,303 West 42nd Street,New York,NY,10036,"40.7575385,-73.9901368,04,"midnight in midtown",Wednesdays,12:00 AM,1:00 AM,C
303 West 42nd Street,303 West 42nd Street,New York,NY,10036,"40.7575385,-73.9901368,04,"midnight in midtown",Thursdays,12:00 AM,1:00 AM,C
303 West 42nd Street,303 West 42nd Street,New York,NY,10036,"40.7575385,-73.9901368,04,"midnight in midtown",Fridays,12:00 AM,1:00 AM,B
303 West 42nd Street,303 West 42nd Street,New York,NY,10036,"40.7575385,-73.9901368,04,"midnight in midtown",Saturdays,12:00 AM,1:00 AM,O
303 West 42nd Street,303 West 42nd Street,New York,NY,10036,"40.7575385,-73.9901368,04,"new phoenix",Sundays,10:30 AM,11:30 AM,C
303 West 42nd Street,303 West 42nd Street,New York,NY,10036,"40.7575385,-73.9901368,04,"new phoenix",Mondays,10:30 AM,11:30 AM,C
303 West 42nd Street,303 West 42nd Street,New York,NY,10036,"40.7575385,-73.9901368,04,"new phoenix",Tuesdays,10:30 AM,11:30 AM,C
303 West 42nd Street,303 West 42nd Street,New York,NY,10036,"40.7575385,-73.9901368,04,"new phoenix",Wednesdays,10:30 AM,11:30 AM,C
303 West 42nd Street,303 West 42nd Street,New York,NY,10036,"40.7575385,-73.9901368,04,"new phoenix",Thursdays,10:30 AM,11:30 AM,C
303 West 42nd Street,303 West 42nd Street,New York,NY,10036,"40.7575385,-73.9901368,04,"new phoenix",Fridays,10:30 AM,11:30 AM,C
303 West 42nd Street,303 West 42nd Street,New York,NY,10036,"40.7575385,-73.9901368,04,"new phoenix",Saturdays,10:30 AM,11:30 AM,C
Saint Thomas Church,1 West 53rd Street,New York,NY,10019,"40.7608523,-73.9765938,04,"adventures in sobriety",Fridays,7:00 PM,8:00 PM,O
St. Mary the Virgin Church,133 West 46th Street,New York,NY,10036,"40.6589343,-73.9348705,04,"amazing grace",Mondays,7:30 AM,8:30 AM,C
St. Mary the Virgin Church,133 West 46th Street,New York,NY,10036,"40.6589343,-73.9348705,04,"amazing grace",Tuesdays,7:30 AM,8:30 AM,C
St. Mary the Virgin Church,133 West 46th Street,New York,NY,10036,"40.6589343,-73.9348705,04,"amazing grace",Wednesdays,7:30 AM,8:30 AM,C
St. Mary the Virgin Church,133 West 46th Street,New York,NY,10036,"40.6589343,-73.9348705,04,"amazing grace",Thursdays,7:30 AM,8:30 AM,S
St. Mary the Virgin Church,133 West 46th Street,New York,NY,10036,"40.6589343,-73.9348705,04,"amazing grace",Fridays,7:30 AM,8:30 AM,C
St. Mary the Virgin Church,133 West 46th Street,New York,NY,10036,"40.6589343,-73.9348705,04,"morning call",Thursdays,6:00 AM,7:00 AM,B
St. Mary the Virgin Church,133 West 46th Street,New York,NY,10036,"40.6589343,-73.9348705,04,"morning call",Tuesdays,6:00 AM,7:00 AM,S
St. Mary the Virgin Church,133 West 46th Street,New York,NY,10036,"40.6589343,-73.9348705,04,"new but west",Saturdays,10:00 AM,11:00 AM,C
St. Mary the Virgin Church,133 West 46th Street,New York,NY,10036,"40.6589343,-73.9348705,04,"new but west",Mondays,12:30 PM,1:30 PM,B
St. Mary the Virgin Church,133 West 46th Street,New York,NY,10036,"40.6589343,-73.9348705,04,"new but west",Mondays,12:30 PM,1:30 PM,OD
St. Mary the Virgin Church,133 West 46th Street,New York,NY,10036,"40.6589343,-73.9348705,04,"new but west",Thursdays,12:30 PM,1:30 PM,S
St. Mary the Virgin Church,133 West 46th Street,New York,NY,10036,"40.6589343,-73.9348705,04,"new but west",Mondays,12:30 PM,1:30 PM,C
St. Mary the Virgin Church,133 West 46th Street,New York,NY,10036,"40.6589343,-73.9348705,04,"new but west",Thursdays,12:30 PM,1:30 PM,S
St. Mary the Virgin Church,133 West 46th Street,New York,NY,10036,"40.6589343,-73.9348705,04,"new but west",Tuesdays,12:30 PM,1:30 PM,B
St. Mary the Virgin Church,133 West 46th Street,New York,NY,10036,"40.6589343,-73.9348705,04,"new but west",Thursdays,12:30 PM,1:30 PM,S
St. Mary the Virgin Church,133 West 46th Street,New York,NY,10036,"40.6589343,-73.9348705,04,"new but west",Tuesdays,12:30 PM,1:30 PM,C
St. Mary the Virgin Church,133 West 46th Street,New York,NY,10036,"40.6589343,-73.9348705,04,"new but west",Tuesdays,12:30 PM,1:30 PM,S
St. Mary the Virgin Church,133 West 46th Street,New York,NY,10036,"40.6589343,-73.9348705,04,"new but west",Fridays,12:30 PM,1:30 PM,B
St. Mary the Virgin Church,133 West 46th Street,New York,NY,10036,"40.6589343,-73.9348705,04,"new but west",Fridays,12:30 PM,1:30 PM,BB
St. Mary the Virgin Church,133 West 46th Street,New York,NY,10036,"40.6589343,-73.9348705,04,"new but west",Fridays,12:30 PM,1:30 PM,S
St. Mary the Virgin Church,133 West 46th Street,New York,NY,10036,"40.6589343,-73.9348705,04,"new but west",Wednesdays,12:30 PM,1:30 PM,B
St. Mary the Virgin Church,133 West 46th Street,New York,NY,10036,"40.6589343,-73.9348705,04,"new but west",Wednesdays,12:30 PM,1:30 PM,OD
St. Mary the Virgin Church,133 West 46th Street,New York,NY,10036,"40.6589343,-73.9348705,04,"new but west",Wednesdays,12:30 PM,1:30 PM,C
St. Mary the Virgin Church,133 West 46th Street,New York,NY,10036,"40.6589343,-73.9348705,04,"new but west",Sundays,5:00 PM,6:00 PM,C
St. Mary the Virgin Church,133 West 46th Street,New York,NY,10036,"40.6589343,-73.9348705,04,"new but west",Wednesdays,5:30 PM,6:30 PM,C
St. Mary the Virgin Church,133 West 46th Street,New York,NY,10036,"40.6589343,-73.9348705,04,"new but west",Mondays,5:30 PM,6:30 PM,B
St. Mary the Virgin Church,133 West 46th Street,New York,NY,10036,"40.6589343,-73.9348705,04,"new but west",Thursdays,5:30 PM,6:30 PM,S
St. Mary the Virgin Church,133 West 46th Street,New York,NY,10036,"40.6589343,-73.9348705,04,"new but west",Tuesdays,5:30 PM,6:30 PM,BB
St. Mary the Virgin Church,133 West 46th Street,New York,NY,10036,"40.6589343,-73.9348705,04,"new but west",Fridays,5:30 PM,6:30 PM,OD
Hudson Guild,441 West 26th Street,New York,NY,10001,"40.7495486,-74.0015106,04,"annex                               (:i)",Saturdays,3:00 PM,4:00 PM,OD
GMHC,446 West 33rd Street,New York,NY,10001,"40.753496,-73.9989428,04,"annex    (:ii)",Tuesdays,8:00 PM,9:00 PM,O
GMHC,446 West 33rd Street,New York,NY,10001,"40.753496,-73.9989428,04,"women over forty",Fridays,6:30 PM,7:45 PM,C
46th Street Clubhouse,252 West 46th Street,New York,NY,10036,"40.7593831,-73.9872329,04,"artists in recovery",Tuesdays,9:15 PM,10:15 PM,C
The Actor's Temple,339 West 47th Street,New York,NY,10036,"40.7612077,-73.9891128,04,"between shows",Wednesdays,5:00 PM,6:00 PM,C
303 West 42nd Street Rm 306,303 West 42nd Street Rm 306,New York,NY,10036,"40.7575385,-73.9901368,04,"blueprint for living",Fridays,4:30 PM,5:30 AM,Living
303 West 42nd Street Rm 306,303 West 42nd Street Rm 306,New York,NY,10036,"40.7575385,-73.9901368,04,"blueprint for living",Tuesdays,4:30 PM,4:30 PM,BB
303 West 42nd Street Rm 306,303 West 42nd Street Rm 306,New York,NY,10036,"40.7575385,-73.9901368,04,"blueprint for living",Wednesdays,4:30 PM,5:30 PM,Meditation
303 West 42nd Street Rm 306,303 West 42nd Street Rm 306,New York,NY,10036,"40.7575385,-73.9901368,04,"blueprint for living",Thursdays,4:30 PM,5:30 PM,As
303 West 42nd Street Rm 306,303 West 42nd Street Rm 306,New York,NY,10036,"40.7575385,-73.9901368,04,"blueprint for living",Saturdays,4:30 PM,5:30 PM,S
303 West 42nd Street Rm 306,303 West 42nd Street Rm 306,New York,NY,10036,"40.7575385,-73.9901368,04,"blueprint for living",Mondays,4:30 PM,5:30 PM,Came
St. Francis of Assisi Education Center,139 West 31st Street,New York,NY,10001,"40.647412,-73.9480599,04,"bookshop at noon",Mondays,12:00 PM,1:00 PM,C
St. Francis of Assisi Education Center,139 West 31st Street,New York,NY,10001,"40.647412,-73.9480599,04,"bookshop at noon",Wednesdays,12:00 PM,1:00 PM,C
St. Francis of Assisi Education Center,139 West 31st Street,New York,NY,10001,"40.647412,-73.9480599,04,"bookshop at noon",Fridays,12:00 PM,1:00 PM,C
St. John's Hall,211 West 30th Street,New York,NY,10001,"40.7486793956479,-73.9927286472649,04,"commuters special",Wednesdays,6:00 PM,7:00 PM,C
St. John's Hall,211 West 30th Street,New York,NY,10001,"40.7486793956479,-73.9927286472649,04,"commuters special",Mondays,6:00 PM,7:00 PM,S
St. Thomas Church,1 West 53rd Street,New York,NY,10019,"40.7608523,-73.9765938,04,"fifth avenue step",Saturdays,10:00 AM,11:00 AM,S
St. Thomas Church,1 West 53rd Street,New York,NY,10019,"40.7608523,-73.9765938,04,"park bench   (:i)",Tuesdays,12:30 PM,1:30 PM,OD
Fifth Av Presbyterian Church,7 West 55th Street,New York,NY,10019,"40.7618823,-73.9751297,04,"foglifters-fifth avenue",s,12:00 AM,12:00 AM,undefined
Fifth Av Presbyterian Church,7 West 55th Street,New York,NY,10019,"40.7618823,-73.9751297,04,"foglifters-fifth avenue",s,12:00 AM,12:00 AM,undefined
Fifth Av Presbyterian Church,7 West 55th Street,New York,NY,10019,"40.7618823,-73.9751297,04,"foglifters-fifth avenue",Wednesdays,12:30 PM,1:30 PM,B
Fifth Av Presbyterian Church,7 West 55th Street,New York,NY,10019,"40.7618823,-73.9751297,04,"foglifters-fifth avenue",Wednesdays,12:30 PM,1:30 PM,S
Fifth Av Presbyterian Church,7 West 55th Street,New York,NY,10019,"40.7618823,-73.9751297,04,"foglifters-fifth avenue",Thursdays,12:30 PM,1:30 PM,B
Fifth Av Presbyterian Church,7 West 55th Street,New York,NY,10019,"40.7618823,-73.9751297,04,"foglifters-fifth avenue",Thursdays,12:30 PM,1:30 PM,OD
Fifth Av Presbyterian Church,7 West 55th Street,New York,NY,10019,"40.7618823,-73.9751297,04,"foglifters-fifth avenue",Mondays,12:30 PM,1:30 PM,B
Fifth Av Presbyterian Church,7 West 55th Street,New York,NY,10019,"40.7618823,-73.9751297,04,"foglifters-fifth avenue",Mondays,12:30 PM,1:30 PM,OD
Fifth Av Presbyterian Church,7 West 55th Street,New York,NY,10019,"40.7618823,-73.9751297,04,"foglifters-fifth avenue",Tuesdays,12:30 PM,1:30 PM,B
Fifth Av Presbyterian Church,7 West 55th Street,New York,NY,10019,"40.7618823,-73.9751297,04,"foglifters-fifth avenue",Tuesdays,12:30 PM,1:30 PM,OD
Fifth Av Presbyterian Church,7 West 55th Street,New York,NY,10019,"40.7618823,-73.9751297,04,"promises",Fridays,12:30 PM,1:30 PM,OD
The Actors Fund of America,729 7th Avenue,New York,NY,10019,"40.7601119,-73.9837538,04,"green room",Thursdays,5:30 PM,6:30 PM,C
Apartment Building,538 West 47th Street,New York,NY,10036,"40.7634021,-73.9948352,04,"grupo buena voluntad",Mondays,8:00 PM,9:00 PM,Sp
Apartment Building,538 West 47th Street,New York,NY,10036,"40.7634021,-73.9948352,04,"grupo buena voluntad",Wednesdays,8:00 PM,9:00 PM,Sp
Apartment Building,538 West 47th Street,New York,NY,10036,"40.7634021,-73.9948352,04,"grupo buena voluntad",Fridays,8:00 PM,9:00 PM,Sp
Mount Sinai - Roosevelt Hospital,1000 Tenth Avenue,New York,NY,10019,"40.7700536177104,-73.9877635987168,04,"hell's kitchen",Mondays,7:30 PM,8:30 PM,OD
Mount Sinai - Roosevelt Hospital,1000 Tenth Avenue,New York,NY,10019,"40.7700536177104,-73.9877635987168,04,"hell's kitchen",Thursdays,7:30 PM,8:30 PM,C
Mount Sinai - Roosevelt Hospital,1000 Tenth Avenue,New York,NY,10019,"40.7700536177104,-73.9877635987168,04,"west 58th street step",Fridays,7:30 PM,8:30 PM,S
Upright Citizens Brigade Theatre,307 West 26th Street,New York,NY,10001,"40.7474685,-73.9974137,04,"learning to live (:i)",Wednesdays,12:00 PM,1:00 PM,S
Upright Citizens Brigade Theatre,307 West 26th Street,New York,NY,10001,"40.7474685,-73.9974137,04,"learning to live (:i)",Thursdays,12:00 PM,1:00 PM,C
Upright Citizens Brigade Theatre,307 West 26th Street,New York,NY,10001,"40.7474685,-73.9974137,04,"learning to live (:i)",Fridays,12:00 PM,1:00 PM,OD
Upright Citizens Brigade Theatre,307 West 26th Street,New York,NY,10001,"40.7474685,-73.9974137,04,"learning to live (:i)",Mondays,12:00 PM,1:00 PM,B
Upright Citizens Brigade Theatre,307 West 26th Street,New York,NY,10001,"40.7474685,-73.9974137,04,"learning to live (:i)",Tuesdays,12:00 PM,1:00 PM,BB
St. Paul's Episcopal Parish House,405 West 59th Street,New York,NY,10019,"40.7697538,-73.9857965,04,"lucky ones",Wednesdays,1:00 PM,2:00 PM,BB
Trinity Presbyterian Church ,422 West 57th St.,New York,NY,10019,"40.7682311,-73.9868768,04,"miracle",Mondays,7:00 PM,8:00 PM,B
Holy Apostles Church Rectory,296 9th Avenue,New York,NY,10001,"40.7493642017494,-73.9991233310954,04,"ninth avenue           (:i)",Wednesdays,6:15 PM,7:15 PM,C
Holy Apostles Church Rectory,296 9th Avenue,New York,NY,10001,"40.7493642017494,-73.9991233310954,04,"ninth avenue           (:i)",Mondays,6:15 PM,7:15 PM,B
Holy Apostles Church Rectory,296 9th Avenue,New York,NY,10001,"40.7493642017494,-73.9991233310954,04,"ninth avenue           (:i)",Wednesdays,7:30 PM,8:45 PM,S
Holy Apostles Church Rectory,296 9th Avenue,New York,NY,10001,"40.7493642017494,-73.9991233310954,04,"ninth avenue           (:i)",Mondays,7:45 PM,8:45 PM,C
Holy Apostles Church Rectory,296 9th Avenue,New York,NY,10001,"40.7493642017494,-73.9991233310954,04,"ninth avenue           (:i)",Wednesdays,9:00 PM,10:00 PM,B
Holy Apostles Church Rectory,296 9th Avenue,New York,NY,10001,"40.7493642017494,-73.9991233310954,04,"ninth avenue           (:i)",Mondays,9:00 PM,10:00 PM,O
St. Francis of Assisi Center,139 West 31st Street,New York,NY,10001,"40.647412,-73.9480599,04,"nu garden",Sundays,6:00 PM,7:30 PM,S
St. Francis of Assisi Center,139 West 31st Street,New York,NY,10001,"40.647412,-73.9480599,04,"nu garden",Thursdays,6:00 PM,7:30 PM,OD
St. Francis of Assisi Center,139 West 31st Street,New York,NY,10001,"40.647412,-73.9480599,04,"nu garden",Saturdays,6:00 PM,7:30 PM,OD
Manhattan Plaza Health Club,484 West 43rd Street,New York,NY,10036,"40.7599913,-73.9948326,04,"powerless",Saturdays,7:00 PM,8:00 PM,C
Manhattan Plaza Health Club,484 West 43rd Street,New York,NY,10036,"40.7599913,-73.9948326,04,"powerless",Mondays,7:00 PM,8:00 PM,BB
Manhattan Plaza Health Club,484 West 43rd Street,New York,NY,10036,"40.7599913,-73.9948326,04,"powerless",Tuesdays,7:00 PM,8:00 PM,S
Manhattan Plaza Health Club,484 West 43rd Street,New York,NY,10036,"40.7599913,-73.9948326,04,"powerless",Thursdays,7:00 PM,8:00 PM,B
Manhattan Plaza Health Club,484 West 43rd Street,New York,NY,10036,"40.7599913,-73.9948326,04,"powerless",Fridays,7:00 PM,8:00 PM,C
The Learning Center,4 West 43rd Street,New York,NY,10017,"40.7543885,-73.9812083,04,"renaissance",Mondays,12:30 AM,1:30 PM,C
The Learning Center,4 West 43rd Street,New York,NY,10017,"40.7543885,-73.9812083,04,"renaissance",Tuesdays,12:30 PM,1:30 PM,C
The Learning Center,4 West 43rd Street,New York,NY,10017,"40.7543885,-73.9812083,04,"renaissance",Wednesdays,12:30 PM,1:30 PM,S
The Learning Center,4 West 43rd Street,New York,NY,10017,"40.7543885,-73.9812083,04,"renaissance",Thursdays,12:30 PM,1:30 PM,B
The Learning Center,4 West 43rd Street,New York,NY,10017,"40.7543885,-73.9812083,04,"renaissance",Fridays,12:30 PM,1:30 PM,C
Church of The Holy Apostles,296 Ninth Avenue,New York,NY,10001,"40.7493642017494,-73.9991233310954,04,"spiritual fridays",Fridays,6:30 PM,7:30 PM,OD
St. Thomas Church Parish House,1 West 53rd Street,New York,NY,10019,"40.7608523,-73.9765938,04,"st. thomas a.m.",Tuesdays,7:45 AM,8:45 AM,C
St. John the Baptist Church,210 West 31st Street,New York,NY,10001,"40.7434762,-73.9789404,04,"statler at noon",Tuesdays,12:00 PM,1:00 PM,C
St. John the Baptist Church,210 West 31st Street,New York,NY,10001,"40.7434762,-73.9789404,04,"statler at noon",Thursdays,12:00 PM,1:00 PM,C
134 West 29th Street,134 West 29th Street,New York,NY,10001,"40.7472463,-73.9917061,04,"tuesday sober agnostics",Tuesdays,6:00 PM,7:00 PM,OD
St. Clements Church,423 West 46th Street,New York,NY,10036,"40.6483729,-74.009462,04,"young in 164",Sundays,7:30 PM,8:30 PM,BB
N.Y.U Bronfman Center,7 East 10th Street,New York,NY,10003,"40.7332068,-73.9946888,03,"12 concepts workshop",Wednesdays,8:15 PM,9:15 PM,C
Gustavus Adolphus Church,155 East 22nd Street,New York,NY,10010,"40.7384244,-73.9840055,03,"22 below",Thursdays,12:15 PM,1:15 PM,OD
Gustavus Adolphus Church,155 East 22nd Street,New York,NY,10010,"40.7384244,-73.9840055,03,"22 below",Fridays,12:15 PM,1:15 PM,C
Gustavus Adolphus Church,155 East 22nd Street,New York,NY,10010,"40.7384244,-73.9840055,03,"22 below",Mondays,12:15 PM,1:15 PM,BB
Gustavus Adolphus Church,155 East 22nd Street,New York,NY,10010,"40.7384244,-73.9840055,03,"22 below",Tuesdays,12:15 PM,1:15 PM,B
Gustavus Adolphus Church,155 East 22nd Street,New York,NY,10010,"40.7384244,-73.9840055,03,"22 below",Wednesdays,12:15 PM,1:15 PM,S
Gustavus Adolphus Church,155 East 22nd Street,New York,NY,10010,"40.7384244,-73.9840055,03,"manhattan",Tuesdays,7:00 PM,8:00 PM,B
Gustavus Adolphus Church,155 East 22nd Street,New York,NY,10010,"40.7384244,-73.9840055,03,"manhattan",Fridays,7:00 PM,8:15 PM,S
Gustavus Adolphus Church,155 East 22nd Street,New York,NY,10010,"40.7384244,-73.9840055,03,"p.a.x",Mondays,6:45 PM,7:45 PM,B
Gustavus Adolphus Church,155 East 22nd Street,New York,NY,10010,"40.7384244,-73.9840055,03,"p.a.x",Mondays,6:45 PM,7:45 PM,BB
Gustavus Adolphus Church,155 East 22nd Street,New York,NY,10010,"40.7384244,-73.9840055,03,"p.a.x",Tuesdays,6:45 PM,7:45 PM,S
Gustavus Adolphus Church,155 East 22nd Street,New York,NY,10010,"40.7384244,-73.9840055,03,"p.a.x",Thursdays,6:45 PM,7:45 PM,C
Gustavus Adolphus Church,155 East 22nd Street,New York,NY,10010,"40.7384244,-73.9840055,03,"p.a.x",Tuesdays,6:45 PM,7:45 PM,C
Gustavus Adolphus Church,155 East 22nd Street,New York,NY,10010,"40.7384244,-73.9840055,03,"sunday morning meditation",Sundays,9:00 AM,10:00 AM,C
Three Jewels Community Center,61 Fourth Avenue,New York,NY,10003,"40.7307719,-73.9903164,03,"aa at the three jewels",Thursdays,6:00 PM,7:15 PM,Meditation
Three Jewels Community Center,61 Fourth Avenue,New York,NY,10003,"40.7307719,-73.9903164,03,"aa at the three jewels",Sundays,7:00 PM,8:30 PM,Meditation
Lesbian, Gay, Bi-Sexual & Transgender Community Center,208 West 13th Street,New York,NY,10011,"40.7381228,-74.0010304,03,"agnostics at noon",Thursdays,12:00 PM,1:00 PM,C
Lesbian, Gay, Bi-Sexual & Transgender Community Center,208 West 13th Street,New York,NY,10011,"40.7381228,-74.0010304,03,"high noon",Sundays,12:00 PM,1:00 PM,O
Lesbian, Gay, Bi-Sexual & Transgender Community Center,208 West 13th Street,New York,NY,10011,"40.7381228,-74.0010304,03,"living today",Sundays,6:45 PM,7:45 PM,S
Lesbian, Gay, Bi-Sexual & Transgender Community Center,208 West 13th Street,New York,NY,10011,"40.7381228,-74.0010304,03,"living today",Sundays,8:00 PM,9:00 PM,O
Lesbian, Gay, Bi-Sexual & Transgender Community Center,208 West 13th Street,New York,NY,10011,"40.7381228,-74.0010304,03,"sober miracles",Saturdays,9:30 PM,10:30 PM,OD
Lesbian, Gay, Bi-Sexual & Transgender Community Center,208 West 13th Street,New York,NY,10011,"40.7381228,-74.0010304,03,"village agnostics",Sundays,4:00 PM,5:00 PM,C
Lesbian, Gay, Bi-Sexual & Transgender Community Center,208 West 13th Street,New York,NY,10011,"40.7381228,-74.0010304,03,"village agnostics",Sundays,5:30 PM,6:30 PM,S
Lesbian, Gay, Bi-Sexual & Transgender Community Center,208 West 13th Street,New York,NY,10011,"40.7381228,-74.0010304,03,"westwingers",Tuesdays,7:30 PM,8:30 PM,OD
Lesbian, Gay, Bi-Sexual & Transgender Community Center,208 West 13th Street,New York,NY,10011,"40.7381228,-74.0010304,03,"westwingers",Thursdays,9:00 PM,10:00 PM,OD
Lesbian, Gay, Bi-Sexual & Transgender Community Center,208 West 13th Street,New York,NY,10011,"40.7381228,-74.0010304,03,"women together                      (:i)",Saturdays,6:00 PM,7:00 PM,C
Seafarers & Intl House,123 East 15th Street,New York,NY,10003,"40.7346341,-73.9879773,03,"alive again",Saturdays,1:00 PM,2:00 PM,S
Calvary Church Parish House,61 Gramercy Park North,New York,NY,10010,"40.7387068,-73.986572,03,"at bill's place",Wednesdays,6:30 PM,7:30 PM,C
Gustavus Adolphus Lutheran Church,155 East 22nd Street,New York,NY,10010,"40.7384244,-73.9840055,03,"atlantic by the book",Wednesdays,7:00 PM,8:00 PM,BB
Mabel Bacon High School of the Future,127 East 22nd Street,New York,NY,10010,"40.7390247,-73.9854161,03,"atlantic downtown",Sundays,7:00 PM,8:00 PM,O
Trinity Lower East Side Lutheran Parish,602 East 9th Street,New York,NY,10009,"40.7260409,-73.9800393,03,"avenue b clean and dry",Thursdays,7:00 PM,8:15 PM,C
McBurney YMCA,125 West 14th Street,New York,NY,10011,"40.7379244,-73.9976813,03,"big book magic",Thursdays,7:45 PM,8:45 PM,BB
McBurney YMCA,125 West 14th Street,New York,NY,10011,"40.7379244,-73.9976813,03,"chelsea nooners",Tuesdays,12:00 PM,1:00 PM,C
McBurney YMCA,125 West 14th Street,New York,NY,10011,"40.7379244,-73.9976813,03,"chelsea nooners",Thursdays,12:00 PM,1:00 PM,C
McBurney YMCA,125 West 14th Street,New York,NY,10011,"40.7379244,-73.9976813,03,"the fellowship club",Fridays,7:00 PM,8:00 PM,B
St. Peters Episcopal Church- Rectory,346 West 20th Street,New York,NY,10011,"40.7441452,-74.0019191,03,"chelsea mornings",Tuesdays,8:00 AM,9:00 AM,B
St. Peters Episcopal Church- Rectory,346 West 20th Street,New York,NY,10011,"40.7441452,-74.0019191,03,"chelsea mornings",Mondays,8:00 AM,9:00 AM,OD
St. Peters Episcopal Church- Rectory,346 West 20th Street,New York,NY,10011,"40.7441452,-74.0019191,03,"chelsea mornings",Wednesdays,8:00 AM,9:00 AM,S
St. Peters Episcopal Church- Rectory,346 West 20th Street,New York,NY,10011,"40.7441452,-74.0019191,03,"chelsea mornings",Thursdays,8:00 AM,9:00 AM,BB
St. Peters Episcopal Church- Rectory,346 West 20th Street,New York,NY,10011,"40.7441452,-74.0019191,03,"chelsea mornings",Fridays,8:00 AM,9:00 AM,C
St. Peters Episcopal Church- Rectory,346 West 20th Street,New York,NY,10011,"40.7441452,-74.0019191,03,"chelsea mornings",Saturdays,8:00 AM,9:00 AM,OD
Our Lady of Immaculate Conception,414 East 14th Street,New York,NY,10009,"40.7309298,-73.9819876,03,"complete abandon",Wednesdays,8:30 PM,9:30 PM,S
Fulton Senior Center,119 Ninth Avenue,New York,NY,10011,"40.7432442,-74.0039393,03,"completely sober",Mondays,6:45 PM,8:00 PM,OD
Christopher House,202 West 24 Street,New York,NY,10011,"40.7449478,-73.995862,03,"crossroads",Saturdays,4:00 PM,5:00 PM,O
Christopher House,202 West 24 Street,New York,NY,10011,"40.7449478,-73.995862,03,"crossroads",Sundays,4:00 PM,5:00 PM,O
Brotherhood Synagogue,28 Gramercy Park South,New York,NY,10003,"40.7371499,-73.9853123,03,"east meets west in sobriety",Wednesdays,7:00 PM,8:00 PM,C
Brotherhood Synagogue,28 Gramercy Park South,New York,NY,10003,"40.7371499,-73.9853123,03,"just for today",Tuesdays,7:00 PM,8:00 PM,S
Middle Collegiate Church,50 East 7th Street,New York,NY,10003,"40.7276522,-73.9875923,03,"east village group",Tuesdays,7:00 PM,8:00 PM,O
Middle Collegiate Church,50 East 7th Street,New York,NY,10003,"40.7276522,-73.9875923,03,"east village group",Saturdays,7:00 PM,8:00 PM,B
Middle Collegiate Church,50 East 7th Street,New York,NY,10003,"40.7276522,-73.9875923,03,"east village group",Saturdays,7:00 PM,8:00 PM,OD
Middle Collegiate Church,50 East 7th Street,New York,NY,10003,"40.7276522,-73.9875923,03,"east village group",Sundays,7:00 PM,8:00 PM,BB
Middle Collegiate Church,50 East 7th Street,New York,NY,10003,"40.7276522,-73.9875923,03,"east village group",Tuesdays,7:00 PM,8:15 PM,S
Middle Collegiate Church,50 East 7th Street,New York,NY,10003,"40.7276522,-73.9875923,03,"east village group",Tuesdays,8:30 PM,9:30 PM,C
Middle Collegiate Church,50 East 7th Street,New York,NY,10003,"40.7276522,-73.9875923,03,"east village group",Saturdays,8:30 PM,9:30 PM,C
University Settlement House,273 Bowery,New York,NY,10003,"40.7236736,-73.9924832,03,"experience strength and hope",Wednesdays,7:00 PM,8:00 PM,C
Grace Church Office Building,802 Broadway,New York,NY,10003,"40.7320395,-73.991189,03,"grace on broadway",Mondays,8:15 AM,9:15 AM,O
Grace Church Office Building,802 Broadway,New York,NY,10003,"40.7320395,-73.991189,03,"grace on broadway",Tuesdays,8:15 AM,9:15 AM,C
Grace Church Office Building,802 Broadway,New York,NY,10003,"40.7320395,-73.991189,03,"grace on broadway",Thursdays,8:15 AM,9:15 AM,C
Brothhood Synagogue,28 Grammercy Park South,New York,NY,10010,"40.7371499,-73.9853123,03,"gramercy",Mondays,6:30 PM,7:30 PM,C
Brothhood Synagogue,28 Grammercy Park South,New York,NY,10010,"40.7371499,-73.9853123,03,"gramercy",Thursdays,6:30 PM,7:30 PM,S
Saint George Episcopal Church,209 East 16th Street,New York,NY,10003,"40.7345135,-73.9854432,03,"grateful group of a.a.",Mondays,5:00 PM,6:00 PM,B
Saint George Episcopal Church,209 East 16th Street,New York,NY,10003,"40.7345135,-73.9854432,03,"grateful group of a.a.",Fridays,5:00 PM,6:00 PM,BB
Saint George Episcopal Church,209 East 16th Street,New York,NY,10003,"40.7345135,-73.9854432,03,"grateful group of a.a.",Tuesdays,5:00 PM,6:00 PM,O
Saint George Episcopal Church,209 East 16th Street,New York,NY,10003,"40.7345135,-73.9854432,03,"grateful group of a.a.",Thursdays,5:00 PM,6:00 PM,Meditation
Saint George Episcopal Church,209 East 16th Street,New York,NY,10003,"40.7345135,-73.9854432,03,"grateful group of a.a.",Sundays,5:00 PM,6:00 PM,O
Saint George Episcopal Church,209 East 16th Street,New York,NY,10003,"40.7345135,-73.9854432,03,"grateful group of a.a.",Wednesdays,5:00 PM,6:00 PM,S
Saint George Episcopal Church,209 East 16th Street,New York,NY,10003,"40.7345135,-73.9854432,03,"grateful group of a.a.",Mondays,6:15 PM,7:00 PM,S
Church of the Nativity,44 2nd Avenue,New York,NY,10003,"40.7251086,-73.9899858,03,"grupo el milagro",Sundays,8:00 PM,9:00 PM,O
Church of the Nativity,44 2nd Avenue,New York,NY,10003,"40.7251086,-73.9899858,03,"second avenue clean and dry",Sundays,5:00 PM,6:00 PM,C
Our Lady of Guadalupe Church,229 West 14th Street,New York,NY,10011,"40.7392489,-74.0008788,03,"grupo gratitud",Mondays,8:00 PM,9:00 PM,C
Our Lady of Guadalupe Church,229 West 14th Street,New York,NY,10011,"40.7392489,-74.0008788,03,"grupo gratitud",Tuesdays,8:00 PM,9:00 PM,O
Our Lady of Guadalupe Church,229 West 14th Street,New York,NY,10011,"40.7392489,-74.0008788,03,"grupo sobriedad",Tuesdays,1:00 PM,2:00 PM,C
Lesbian, Gay, Bisexual, & Transgender Community Center,208 West 13th Street,New York,NY,10001,"40.7381228,-74.0010304,03,"laex",Saturdays,8:00 PM,9:00 PM,O
The Upright Citizens Brigade Theatre,307 West 26th St.,New York,NY,10011,"40.7474685,-73.9974137,03,"learning to live ( :1)",Thursdays,12:00 PM,1:00 AM,C
The Upright Citizens Brigade Theatre,307 West 26th St.,New York,NY,10011,"40.7474685,-73.9974137,03,"learning to live ( :1)",Mondays,12:00 PM,1:00 PM,B
The Upright Citizens Brigade Theatre,307 West 26th St.,New York,NY,10011,"40.7474685,-73.9974137,03,"learning to live ( :1)",Tuesdays,12:00 PM,1:00 PM,BB
The Upright Citizens Brigade Theatre,307 West 26th St.,New York,NY,10011,"40.7474685,-73.9974137,03,"learning to live ( :1)",Wednesdays,12:00 PM,1:00 PM,S
The Upright Citizens Brigade Theatre,307 West 26th St.,New York,NY,10011,"40.7474685,-73.9974137,03,"learning to live ( :1)",Fridays,12:00 PM,1:00 PM,OD
St. Columba Church,343 West 25th Street,New York,NY,10001,"40.747411,-73.9992698,03,"learning to live ( :ii)",Mondays,7:00 PM,8:00 PM,O
Theatre 80,80 St. Mark's Place,New York,NY,10003,"40.7276521,-73.9857329,03,"living now",Saturdays,10:00 AM,11:00 AM,O
Theatre 80,80 St. Mark's Place,New York,NY,10003,"40.7276521,-73.9857329,03,"living now",Sundays,10:00 AM,11:00 AM,OD
Theatre 80,80 St. Mark's Place,New York,NY,10003,"40.7276521,-73.9857329,03,"living now",Sundays,10:15 AM,11:15 AM,C
Theatre 80,80 St. Mark's Place,New York,NY,10003,"40.7276521,-73.9857329,03,"living now",Thursdays,1:00 PM,2:00 PM,S
Theatre 80,80 St. Mark's Place,New York,NY,10003,"40.7276521,-73.9857329,03,"living now",Saturdays,1:00 PM,2:00 PM,OD
Theatre 80,80 St. Mark's Place,New York,NY,10003,"40.7276521,-73.9857329,03,"living now",Mondays,1:00 PM,2:00 PM,OD
Theatre 80,80 St. Mark's Place,New York,NY,10003,"40.7276521,-73.9857329,03,"living now",Tuesdays,1:00 PM,2:00 PM,O
Theatre 80,80 St. Mark's Place,New York,NY,10003,"40.7276521,-73.9857329,03,"living now",Wednesdays,1:00 PM,2:00 PM,OD
Theatre 80,80 St. Mark's Place,New York,NY,10003,"40.7276521,-73.9857329,03,"living now",Fridays,1:00 PM,2:00 PM,BB
Theatre 80,80 St. Mark's Place,New York,NY,10003,"40.7276521,-73.9857329,03,"living now",Sundays,2:00 PM,3:00 PM,BB
Theatre 80,80 St. Mark's Place,New York,NY,10003,"40.7276521,-73.9857329,03,"living now",Saturdays,5:30 PM,6:30 PM,B
Theatre 80,80 St. Mark's Place,New York,NY,10003,"40.7276521,-73.9857329,03,"living now",Wednesdays,6:00 PM,7:00 PM,B
Theatre 80,80 St. Mark's Place,New York,NY,10003,"40.7276521,-73.9857329,03,"living now",Thursdays,7:00 PM,8:00 PM,S
Theatre 80,80 St. Mark's Place,New York,NY,10003,"40.7276521,-73.9857329,03,"living now",Tuesdays,7:00 PM,8:00 PM,S
Intercare,51 East 25th Street,New York,NY,10010,"40.7419488,-73.9861549,03,"madison park beginners",Wednesdays,10:00 AM,11:00 AM,B
Intercare,51 East 25th Street,New York,NY,10010,"40.7419488,-73.9861549,03,"madison park beginners",Thursdays,5:30 PM,6:30 PM,B
Bronfman Center,7 East 10th Street,New York,NY,10003,"40.7332068,-73.9946888,03,"n.y.u. (now you understand)",Fridays,12:30 PM,1:30 PM,S
Bronfman Center,7 East 10th Street,New York,NY,10003,"40.7332068,-73.9946888,03,"n.y.u. (now you understand)",Mondays,12:30 PM,1:30 PM,C
Bronfman Center,7 East 10th Street,New York,NY,10003,"40.7332068,-73.9946888,03,"n.y.u. (now you understand)",Tuesdays,12:30 PM,1:30 PM,BB
Bronfman Center,7 East 10th Street,New York,NY,10003,"40.7332068,-73.9946888,03,"n.y.u. (now you understand)",Wednesdays,12:30 PM,1:30 PM,B
Bronfman Center,7 East 10th Street,New York,NY,10003,"40.7332068,-73.9946888,03,"n.y.u. (now you understand)",Thursdays,12:30 PM,1:30 PM,C
Bronfman Center,7 East 10th Street,New York,NY,10003,"40.7332068,-73.9946888,03,"n.y.u. (now you understand)",Fridays,2:00 PM,3:00 PM,B
Bronfman Center,7 East 10th Street,New York,NY,10003,"40.7332068,-73.9946888,03,"n.y.u. (now you understand)",Mondays,2:00 PM,3:00 PM,C
Bronfman Center,7 East 10th Street,New York,NY,10003,"40.7332068,-73.9946888,03,"n.y.u. (now you understand)",Tuesdays,2:00 PM,3:00 PM,S
Bronfman Center,7 East 10th Street,New York,NY,10003,"40.7332068,-73.9946888,03,"n.y.u. (now you understand)",Wednesdays,2:00 PM,3:00 PM,BB
Bronfman Center,7 East 10th Street,New York,NY,10003,"40.7332068,-73.9946888,03,"n.y.u. (now you understand)",Thursdays,2:00 PM,3:00 PM,C
German Evangelist Lutheran Church of St. Paul,315 West 22nd Street,New York,NY,10011,"40.7450587,-73.9997029,03,"never had a legal drink",Thursdays,8:00 PM,9:00 PM,OD
Friends Meeting House,15 Rutherford Place,New York,NY,10003,"40.7337834,-73.985098,03,"new life in sobriety",Fridays,7:00 PM,8:00 PM,B
Friends Meeting House,15 Rutherford Place,New York,NY,10003,"40.7337834,-73.985098,03,"new life in sobriety",Mondays,7:00 PM,8:30 PM,S
Friends Meeting House,15 Rutherford Place,New York,NY,10003,"40.7337834,-73.985098,03,"new life in sobriety",Fridays,8:30 PM,9:30 PM,C
The Realization Center,25 East 15th,New York,NY,10003,"40.7360864,-73.9912277,03,"ninjas in recovery",Wednesdays,8:00 PM,9:00 PM,S
The Realization Center,25 East 15th,New York,NY,10003,"40.7360864,-73.9912277,03,"oadw (once a drunk woman)",Tuesdays,8:00 PM,9:00 PM,C
General Theological Seminary,175 9th Avenue,New York,NY,10011,"40.6717748,-73.9913909,03,"ninth avenue           (:ii)",Fridays,6:00 PM,7:00 PM,B
General Theological Seminary,175 9th Avenue,New York,NY,10011,"40.6717748,-73.9913909,03,"ninth avenue           (:ii)",Fridays,6:00 PM,7:00 PM,C
General Theological Seminary,175 9th Avenue,New York,NY,10011,"40.6717748,-73.9913909,03,"ninth avenue           (:ii)",Fridays,6:00 PM,7:00 PM,OD
General Theological Seminary,175 9th Avenue,New York,NY,10011,"40.6717748,-73.9913909,03,"ninth avenue           (:ii)",Fridays,7:15 PM,8:15 PM,BB
General Theological Seminary,175 9th Avenue,New York,NY,10011,"40.6717748,-73.9913909,03,"ninth avenue           (:ii)",Fridays,7:15 PM,8:15 PM,C
General Theological Seminary,175 9th Avenue,New York,NY,10011,"40.6717748,-73.9913909,03,"ninth avenue           (:ii)",Fridays,7:15 PM,8:15 PM,C
General Theological Seminary,175 9th Avenue,New York,NY,10011,"40.6717748,-73.9913909,03,"ninth avenue           (:ii)",Fridays,7:15 PM,8:15 PM,O
General Theological Seminary,175 9th Avenue,New York,NY,10011,"40.6717748,-73.9913909,03,"ninth avenue           (:ii)",Fridays,8:30 PM,9:30 PM,C
Veterans Administration Hospital,423 East 23rd Street,New York,NY,10010,"40.7368113,-73.9772015,03,"pot luck",Saturdays,9:00 PM,10:00 PM,OD
St. George's Church,209 East 16th Street,New York,NY,10003,"40.7345135,-73.9854432,03,"potpourri",Mondays,6:00 PM,6:00 PM,O
St. George's Church,209 East 16th Street,New York,NY,10003,"40.7345135,-73.9854432,03,"potpourri",Tuesdays,6:00 PM,7:00 PM,S
St. George's Church,209 East 16th Street,New York,NY,10003,"40.7345135,-73.9854432,03,"potpourri",Wednesdays,6:00 PM,7:00 PM,BB
St. George's Church,209 East 16th Street,New York,NY,10003,"40.7345135,-73.9854432,03,"potpourri",Thursdays,6:00 PM,7:00 PM,C
St. George's Church,209 East 16th Street,New York,NY,10003,"40.7345135,-73.9854432,03,"potpourri",Fridays,6:00 PM,7:00 PM,B
St. George's Church,209 East 16th Street,New York,NY,10003,"40.7345135,-73.9854432,03,"saturday beginners",Saturdays,10:30 AM,11:30 AM,B
St. George's Church,209 East 16th Street,New York,NY,10003,"40.7345135,-73.9854432,03,"saturday beginners",Saturdays,10:30 AM,11:30 AM,BB
411 East 12th Street,411 East 12th Street,New York,NY,10009,"40.729824,-73.982816,03,"primetime nyc (ii)",Sundays,1:30 PM,2:30 PM,OD
411 East 12th Street,411 East 12th Street,New York,NY,10009,"40.729824,-73.982816,03,"the 12th street workshop",s,12:00 AM,12:00 AM,undefined
411 East 12th Street,411 East 12th Street,New York,NY,10009,"40.729824,-73.982816,03,"the 12th street workshop",Wednesdays,6:15 AM,7:15 AM,C
411 East 12th Street,411 East 12th Street,New York,NY,10009,"40.729824,-73.982816,03,"the 12th street workshop",Thursdays,7:30 AM,8:30 AM,OD
411 East 12th Street,411 East 12th Street,New York,NY,10009,"40.729824,-73.982816,03,"the 12th street workshop",Wednesdays,7:30 AM,8:30 AM,S
411 East 12th Street,411 East 12th Street,New York,NY,10009,"40.729824,-73.982816,03,"the 12th street workshop",Tuesdays,7:30 AM,8:30 AM,OD
411 East 12th Street,411 East 12th Street,New York,NY,10009,"40.729824,-73.982816,03,"the 12th street workshop",Mondays,7:30 AM,8:30 AM,OD
411 East 12th Street,411 East 12th Street,New York,NY,10009,"40.729824,-73.982816,03,"the 12th street workshop",Saturdays,7:30 AM,8:30 AM,C
411 East 12th Street,411 East 12th Street,New York,NY,10009,"40.729824,-73.982816,03,"the 12th street workshop",Fridays,7:30 AM,8:30 AM,OD
411 East 12th Street,411 East 12th Street,New York,NY,10009,"40.729824,-73.982816,03,"the 12th street workshop",Sundays,7:30 AM,8:30 AM,S
411 East 12th Street,411 East 12th Street,New York,NY,10009,"40.729824,-73.982816,03,"the 12th street workshop",Saturdays,9:00 AM,10:00 AM,OD
411 East 12th Street,411 East 12th Street,New York,NY,10009,"40.729824,-73.982816,03,"the 12th street workshop",Sundays,9:30 AM,10:30 AM,OD
411 East 12th Street,411 East 12th Street,New York,NY,10009,"40.729824,-73.982816,03,"the 12th street workshop",Fridays,10:00 AM,11:00 AM,OD
411 East 12th Street,411 East 12th Street,New York,NY,10009,"40.729824,-73.982816,03,"the 12th street workshop",Thursdays,10:00 AM,11:00 AM,BB
411 East 12th Street,411 East 12th Street,New York,NY,10009,"40.729824,-73.982816,03,"the 12th street workshop",Wednesdays,10:00 AM,11:00 AM,OD
411 East 12th Street,411 East 12th Street,New York,NY,10009,"40.729824,-73.982816,03,"the 12th street workshop",Tuesdays,10:00 AM,11:00 AM,OD
411 East 12th Street,411 East 12th Street,New York,NY,10009,"40.729824,-73.982816,03,"the 12th street workshop",Mondays,10:00 AM,11:00 AM,S
411 East 12th Street,411 East 12th Street,New York,NY,10009,"40.729824,-73.982816,03,"the 12th street workshop",Saturdays,10:30 AM,11:30 AM,S
411 East 12th Street,411 East 12th Street,New York,NY,10009,"40.729824,-73.982816,03,"the 12th street workshop",Sundays,11:00 AM,12:00 PM,BB
411 East 12th Street,411 East 12th Street,New York,NY,10009,"40.729824,-73.982816,03,"the 12th street workshop",Mondays,11:15 AM,12:15 PM,BB
411 East 12th Street,411 East 12th Street,New York,NY,10009,"40.729824,-73.982816,03,"the 12th street workshop",Fridays,12:30 PM,1:30 PM,OD
411 East 12th Street,411 East 12th Street,New York,NY,10009,"40.729824,-73.982816,03,"the 12th street workshop",Thursdays,12:30 PM,1:30 PM,B
411 East 12th Street,411 East 12th Street,New York,NY,10009,"40.729824,-73.982816,03,"the 12th street workshop",Wednesdays,12:30 PM,1:30 PM,B
411 East 12th Street,411 East 12th Street,New York,NY,10009,"40.729824,-73.982816,03,"the 12th street workshop",Tuesdays,12:30 PM,1:30 PM,BB
411 East 12th Street,411 East 12th Street,New York,NY,10009,"40.729824,-73.982816,03,"the 12th street workshop",Mondays,12:30 PM,1:30 PM,S
411 East 12th Street,411 East 12th Street,New York,NY,10009,"40.729824,-73.982816,03,"the 12th street workshop",Saturdays,1:15 PM,2:15 PM,C
411 East 12th Street,411 East 12th Street,New York,NY,10009,"40.729824,-73.982816,03,"the 12th street workshop",Sundays,1:30 PM,2:30 PM,OD
411 East 12th Street,411 East 12th Street,New York,NY,10009,"40.729824,-73.982816,03,"the 12th street workshop",Mondays,2:00 PM,3:00 PM,S
411 East 12th Street,411 East 12th Street,New York,NY,10009,"40.729824,-73.982816,03,"the 12th street workshop",Fridays,2:00 PM,3:00 PM,S
411 East 12th Street,411 East 12th Street,New York,NY,10009,"40.729824,-73.982816,03,"the 12th street workshop",Thursdays,2:00 PM,3:00 PM,OD
411 East 12th Street,411 East 12th Street,New York,NY,10009,"40.729824,-73.982816,03,"the 12th street workshop",Wednesdays,2:00 PM,3:00 PM,O
411 East 12th Street,411 East 12th Street,New York,NY,10009,"40.729824,-73.982816,03,"the 12th street workshop",Tuesdays,2:00 PM,3:00 PM,OD
411 East 12th Street,411 East 12th Street,New York,NY,10009,"40.729824,-73.982816,03,"the 12th street workshop",Saturdays,2:30 PM,3:30 PM,B
411 East 12th Street,411 East 12th Street,New York,NY,10009,"40.729824,-73.982816,03,"the 12th street workshop",Sundays,3:00 PM,4:00 PM,S
411 East 12th Street,411 East 12th Street,New York,NY,10009,"40.729824,-73.982816,03,"the 12th street workshop",Mondays,4:00 PM,5:00 PM,OD
411 East 12th Street,411 East 12th Street,New York,NY,10009,"40.729824,-73.982816,03,"the 12th street workshop",Fridays,4:00 PM,5:00 PM,OD
411 East 12th Street,411 East 12th Street,New York,NY,10009,"40.729824,-73.982816,03,"the 12th street workshop",Thursdays,4:00 PM,5:00 PM,OD
411 East 12th Street,411 East 12th Street,New York,NY,10009,"40.729824,-73.982816,03,"the 12th street workshop",Wednesdays,4:00 PM,5:00 PM,OD
411 East 12th Street,411 East 12th Street,New York,NY,10009,"40.729824,-73.982816,03,"the 12th street workshop",Tuesdays,4:00 PM,5:00 PM,OD
411 East 12th Street,411 East 12th Street,New York,NY,10009,"40.729824,-73.982816,03,"the 12th street workshop",Saturdays,4:30 PM,5:30 PM,OD
411 East 12th Street,411 East 12th Street,New York,NY,10009,"40.729824,-73.982816,03,"the 12th street workshop",Sundays,4:30 PM,5:30 PM,OD
411 East 12th Street,411 East 12th Street,New York,NY,10009,"40.729824,-73.982816,03,"the 12th street workshop",Mondays,5:30 PM,6:30 PM,C
411 East 12th Street,411 East 12th Street,New York,NY,10009,"40.729824,-73.982816,03,"the 12th street workshop",Fridays,5:30 PM,6:30 PM,S
411 East 12th Street,411 East 12th Street,New York,NY,10009,"40.729824,-73.982816,03,"the 12th street workshop",Thursdays,5:30 PM,6:30 PM,O
411 East 12th Street,411 East 12th Street,New York,NY,10009,"40.729824,-73.982816,03,"the 12th street workshop",Wednesdays,5:30 PM,6:30 PM,OD
411 East 12th Street,411 East 12th Street,New York,NY,10009,"40.729824,-73.982816,03,"the 12th street workshop",Tuesdays,5:30 PM,6:30 PM,S
411 East 12th Street,411 East 12th Street,New York,NY,10009,"40.729824,-73.982816,03,"the 12th street workshop",Saturdays,6:00 PM,7:00 PM,B
411 East 12th Street,411 East 12th Street,New York,NY,10009,"40.729824,-73.982816,03,"the 12th street workshop",Sundays,6:00 PM,7:00 PM,OD
411 East 12th Street,411 East 12th Street,New York,NY,10009,"40.729824,-73.982816,03,"the 12th street workshop",Tuesdays,7:00 PM,8:00 AM,S
411 East 12th Street,411 East 12th Street,New York,NY,10009,"40.729824,-73.982816,03,"the 12th street workshop",Mondays,7:00 PM,8:00 PM,T
411 East 12th Street,411 East 12th Street,New York,NY,10009,"40.729824,-73.982816,03,"the 12th street workshop",Fridays,7:00 PM,8:00 PM,S
411 East 12th Street,411 East 12th Street,New York,NY,10009,"40.729824,-73.982816,03,"the 12th street workshop",Thursdays,7:00 PM,8:00 PM,BB
411 East 12th Street,411 East 12th Street,New York,NY,10009,"40.729824,-73.982816,03,"the 12th street workshop",Wednesdays,7:00 PM,8:00 PM,C
411 East 12th Street,411 East 12th Street,New York,NY,10009,"40.729824,-73.982816,03,"the 12th street workshop",Sundays,7:30 PM,8:30 PM,S
411 East 12th Street,411 East 12th Street,New York,NY,10009,"40.729824,-73.982816,03,"the 12th street workshop",Saturdays,8:00 PM,9:00 PM,C
411 East 12th Street,411 East 12th Street,New York,NY,10009,"40.729824,-73.982816,03,"the 12th street workshop",Mondays,8:15 PM,9:15 PM,OD
411 East 12th Street,411 East 12th Street,New York,NY,10009,"40.729824,-73.982816,03,"the 12th street workshop",Thursdays,8:15 PM,9:15 PM,C
411 East 12th Street,411 East 12th Street,New York,NY,10009,"40.729824,-73.982816,03,"the 12th street workshop",Wednesdays,8:30 PM,9:30 PM,S
411 East 12th Street,411 East 12th Street,New York,NY,10009,"40.729824,-73.982816,03,"the 12th street workshop",Tuesdays,8:30 PM,9:30 PM,C
411 East 12th Street,411 East 12th Street,New York,NY,10009,"40.729824,-73.982816,03,"the 12th street workshop",Fridays,8:30 PM,9:30 PM,B
Epiphany Roman Catholic Church,239 East 21st Street,New York,NY,10009,"40.7369141,-73.9823276,03,"saturday weekenders",Saturdays,10:00 AM,11:00 AM,C
First Presbyterian Church,12 West 12th Street,New York,NY,10011,"40.7348062,-73.9951634,03,"save her a seat",Fridays,6:30 PM,7:45 PM,B
First Presbyterian Church,12 West 12th Street,New York,NY,10011,"40.7348062,-73.9951634,03,"save her a seat",Tuesdays,7:15 PM,8:30 PM,C
First Presbyterian Church,12 West 12th Street,New York,NY,10011,"40.7348062,-73.9951634,03,"village open discussion  (v.o.d.)",Tuesdays,6:30 PM,7:30 PM,OD
Church of the Ascension Parish House,12 West 11th Street,New York,NY,10011,"40.7341868,-73.9957178,03,"sobriety on the square",Mondays,7:30 AM,8:30 AM,B
Church of the Ascension Parish House,12 West 11th Street,New York,NY,10011,"40.7341868,-73.9957178,03,"sobriety on the square",Tuesdays,7:30 AM,8:30 AM,S
Church of the Ascension Parish House,12 West 11th Street,New York,NY,10011,"40.7341868,-73.9957178,03,"sobriety on the square",Wednesdays,7:30 AM,8:30 AM,C
Church of the Ascension Parish House,12 West 11th Street,New York,NY,10011,"40.7341868,-73.9957178,03,"sobriety on the square",Thursdays,7:30 AM,8:30 AM,BB
Church of the Ascension Parish House,12 West 11th Street,New York,NY,10011,"40.7341868,-73.9957178,03,"sobriety on the square",Fridays,7:30 AM,8:30 AM,OD
Church of the Ascension Parish House,12 West 11th Street,New York,NY,10011,"40.7341868,-73.9957178,03,"sobriety on the square",Saturdays,7:30 AM,8:30 AM,S
PS 41 Elementary School,116 West 11th Street,New York,NY,10011,"40.7355598,-73.9990141,03,"speaker magic",Fridays,7:00 PM,8:00 PM,O
80 5th Avenue,80 5th Avenue,New York,NY,10011,"40.7358709,-73.9939317,03,"straight 12 (:ii)  downtown saturday night",Saturdays,6:15 PM,7:15 PM,C
P.S. 41 (see footnote re: temp location),116 West 11th Street,New York,NY,10011,"40.7355598,-73.9990141,03,"sunday at six",Sundays,6:00 PM,7:00 PM,BB
East Midtown Plaza (Community Room H),319 Eastr 24th Street,New York,NY,10010,"40.742272,-73.987907,03,"sunday nooners",Sundays,12:30 PM,1:30 PM,OD
Beth Israel Hospital @ Karpas Cancer Center Library,10 East Union Square,New York,NY,10003,"40.7348335,-73.9897815,03,"survivors in sobriety",Tuesdays,7:00 PM,8:00 PM,OD
All Saints Ukrainian Orthodox Church,206 208 East 11th Street,New York,NY,10003,"40.7309862796673,-73.9880470929475,03,"svoboda",Sundays,7:00 PM,8:00 PM,C
All Saints Ukrainian Orthodox Church,206 208 East 11th Street,New York,NY,10003,"40.7309862796673,-73.9880470929475,03,"svoboda",Mondays,7:00 PM,8:15 PM,B
All Saints Ukrainian Orthodox Church,206 208 East 11th Street,New York,NY,10003,"40.7309862796673,-73.9880470929475,03,"svoboda",Tuesdays,9:00 PM,10:00 PM,OD
Seafarers & International House,123 East 15th Street,New York,NY,10003,"40.7346341,-73.9879773,03,"t.g.i.f. & s.",Fridays,7:30 PM,8:30 PM,B
Seafarers & International House,123 East 15th Street,New York,NY,10003,"40.7346341,-73.9879773,03,"t.g.i.f. & s.",Fridays,7:30 PM,8:30 PM,OD
Seafarers & International House,123 East 15th Street,New York,NY,10003,"40.7346341,-73.9879773,03,"t.g.i.f. & s.",Sundays,8:30 PM,9:30 PM,O
Seafarers & International House,123 East 15th Street,New York,NY,10003,"40.7346341,-73.9879773,03,"t.g.i.f. & s.",Fridays,8:45 PM,9:45 PM,S
LGBT Community Center,208 West 13th Street,New York,NY,10011,"40.7381228,-74.0010304,03,"transgender focus",Sundays,4:00 PM,5:00 PM,C
Beth Israel Phillips Ambulatory Center,10 Union Square East,New York,NY,10003,"40.7348335,-73.9897815,03,"twelve at six",Fridays,6:00 PM,7:00 PM,S
St. Francis Residence,155 West 22nd Street,New York,NY,10011,"40.7431787,-73.9952777,03,"upon awakening",Sundays,12:45 PM,1:45 PM,S
St. Francis Residence,155 West 22nd Street,New York,NY,10011,"40.7431787,-73.9952777,03,"west 22nd street sobriety",Tuesdays,6:00 PM,7:00 PM,C
The Caring Community,20 Washington Square North,New York,NY,10011,"40.7319436,-73.9977667,03,"village sober",Thursdays,3:30 PM,4:30 PM,C
14th Street Y,344 East 14th Street,New York,NY,10003,"40.7314102,-73.9832013,03,"weekenders",Sundays,10:00 AM,11:00 AM,S
Trinity Lutheran Church,602 East 9th Street,New York,NY,10009,"40.7260409,-73.9800393,03,"wholesale miracles",Tuesdays,7:30 PM,8:30 PM,BB
Gay, Lesbian, Bi-Sexual & Transgender Community Center,208 West 13th Street,New York,NY,10011,"40.7381228,-74.0010304,03,"women now",Tuesdays,6:00 PM,7:00 PM,C
Realization Center,19 Union Square West,New York,NY,10003,"40.7360864,-73.9912277,03,"women's saturday eleventh step meditation",Saturdays,11:00 AM,12:00 PM,C
Most Holy Redeemer Church,173 East 3rd Street,New York,NY,10009,"40.7233431,-73.9843062,03,"works in progress",Mondays,7:00 PM,8:00 PM,OD
Middle Collegiate Church ,50 East 7th Street,New York,NY,10003,"40.7276522,-73.9875923,03,"young and wise",Fridays,8:00 PM,9:30 PM,C
